{"type":"Feature","geometry":{"type":"GeometryCollection","geometries":[{"type":"Polygon","coordinates":[[[75.01416,36.992348],[75.999146,36.47027],[75.93166,36.06443],[77.823929,35.501328],[77.049423,35.103882],[76.91693,34.68138],[73.990265,34.67555],[73.799149,34.398605],[74.244431,34.019157],[74.038315,33.164436],[74.687485,32.501106],[75.310257,32.354439],[75.38129,32.214241],[74.59325,31.861731],[74.554993,30.995052],[71.89694,27.961941],[70.783325,27.712215],[70.583054,28.006664],[70.382751,28.024719],[69.688583,27.276386],[69.498322,26.773052],[69.946091,26.591663],[70.885269,25.14222],[71.098602,24.408886],[70.876083,24.27],[70.579712,24.28722],[70.579437,24.431664],[70.120087,24.30903],[70.02582,24.171661],[69.723602,24.171108],[69.598602,24.281387],[68.745224,24.315655],[68.747208,23.969994],[67.634155,23.79888],[67.0190137,24.7578383],[66.6132857,24.790898],[66.5205649,25.3275292],[61.5692857,25.0102073],[61.876099,26.24638],[62.27803,26.35402],[62.31027,26.502777],[62.829163,26.651108],[63.185822,26.637218],[63.28833,27.218605],[62.778046,27.273052],[62.78138,28.26694],[61.821938,28.626106],[60.866302,29.863655],[62.484436,29.406105],[66.256653,29.85194],[66.39554,30.94083],[68.043869,31.686939],[69.02916,31.65583],[69.508881,33.038048],[70.323318,33.327774],[69.895538,34.023048],[71.07721,34.05222],[71.09193,34.672493],[71.492477,34.955551],[71.647766,35.41999],[71.190674,36.057175],[72.556641,36.821266],[74.56543,37.027817],[74.974152,36.98484],[75.01416,36.992348]]]}]},"properties":{"cca2":"pk"}}