{"type":"Feature","geometry":{"type":"Polygon","coordinates":[[[17.649841,42.889076],[17.5372934,42.9291798],[17.688015,42.974609],[17.630276,43.076942],[17.289719,43.296944],[17.261665,43.459717],[17.160275,43.497772],[16.264999,44.189438],[15.956944,44.699997],[15.864166,44.711388],[15.736387,44.81694],[15.81111,45.195549],[16.015274,45.21833],[16.248055,45.014999],[16.351208,45.003586],[16.502277,45.209633],[18.634163,45.083328],[19.039719,44.861382],[19.121109,44.901382],[19.168053,44.921387],[19.177219,44.923607],[19.188053,44.923332],[19.299442,44.910271],[19.310276,44.908607],[19.371387,44.88916],[19.381622,44.866577],[19.382774,44.863052],[19.345833,44.769165],[19.344612,44.766304],[19.336109,44.747215],[19.31361,44.70472],[19.193981,44.560158],[19.135883,44.524864],[19.128136,44.521423],[19.123402,44.514542],[19.105553,44.376663],[19.104443,44.355827],[19.127705,44.316574],[19.130276,44.313889],[19.158054,44.28833],[19.161705,44.286011],[19.165833,44.284439],[19.234867,44.265358],[19.239998,44.264999],[19.357952,44.209412],[19.485832,44.120277],[19.596943,44.060272],[19.617031,44.054909],[19.61972,44.052216],[19.620476,44.048454],[19.621765,44.021767],[19.619442,44.018883],[19.616173,44.016602],[19.532249,43.962379],[19.524502,43.958939],[19.514175,43.958076],[19.485275,43.958885],[19.428532,43.960655],[19.374165,43.965553],[19.365833,43.969162],[19.359722,43.974159],[19.355274,43.979721],[19.351498,43.981743],[19.311108,43.996941],[19.30674,43.998528],[19.244335,44.01445],[19.239441,44.01416],[19.237019,44.011009],[19.237019,44.002831],[19.251221,43.962379],[19.366943,43.859444],[19.437496,43.800278],[19.475277,43.772774],[19.487499,43.763329],[19.492775,43.753609],[19.498333,43.740273],[19.500832,43.733887],[19.505554,43.718887],[19.50972,43.700272],[19.510277,43.69194],[19.51083,43.679718],[19.493889,43.588051],[19.480553,43.571388],[19.408607,43.584442],[19.287498,43.544167],[19.228809,43.513214],[19.006664,43.555832],[18.948608,43.505272],[18.960278,43.452499],[19.027496,43.429161],[19.093609,43.308884],[19.016666,43.239441],[18.91972,43.357216],[18.697777,43.252495],[18.454441,42.833328],[18.576385,42.663055],[18.455555,42.565826],[17.698055,42.927216],[17.649841,42.889076]]]},"properties":{"cca2":"ba"}}