{"type":"Feature","geometry":{"type":"GeometryCollection","geometries":[{"type":"Polygon","coordinates":[[[104.1625513,2.3064154],[104.1424092,2.2649794],[104.0776386,2.3040477],[104.1005453,2.3383795],[104.1625513,2.3064154]]]},{"type":"Polygon","coordinates":[[[104.1208039,2.9074686],[104.1925765,2.912203],[104.2319119,2.7126604],[104.1141615,2.7072318],[104.1208039,2.9074686]]]},{"type":"Polygon","coordinates":[[[115.1980021,5.4212377],[115.3041582,5.3858443],[115.2458389,5.2251122],[115.1304678,5.2496313],[115.1980021,5.4212377]]]},{"type":"Polygon","coordinates":[[[115.597488,6.195832],[115.592743,6.2047220000001],[115.592758,6.208888],[115.594711,6.213611],[115.602203,6.219721],[115.607758,6.22111],[115.613312,6.219721],[115.616653,6.2163880000001],[115.618591,6.211666],[115.619431,6.2055550000001],[115.617477,6.2005550000001],[115.613876,6.19722],[115.609154,6.19528],[115.603043,6.19444],[115.597488,6.195832]]]},{"type":"Polygon","coordinates":[[[99.9798304,6.2973269],[99.7611354,6.1193626],[99.6115901,6.4324773],[99.849054,6.4959995],[99.9798304,6.2973269]]]},{"type":"Polygon","coordinates":[[[100.666641,6.4474980000001],[100.748581,6.503611],[100.833588,6.419443],[100.857468,6.234444],[101.115517,6.2488880000001],[101.104141,5.93111],[101.0299348,5.9061566],[100.994659,5.779623],[101.1533064,5.6245637],[101.311897,5.807221],[101.582474,5.91611],[101.833862,5.743332],[102.09523,6.23614],[102.2449897,6.2290255],[102.3818726,6.1585868],[103.0759348,5.4765731],[103.520725,4.7661065],[103.4307947,3.7080136],[104.3415222,1.5357133],[104.2791682,1.3311541],[104.0977799,1.324577],[104.0630032,1.4416869],[103.688293,1.449444],[103.5444809,1.2295606],[101.292473,2.834722],[100.5521025,4.0935701],[100.2793469,5.1766178],[100.0914828,5.2721499],[100.099477,5.4910218],[100.2986647,5.5487158],[100.11786,6.4200825],[100.171356,6.476665],[100.1814609,6.7073782],[100.305527,6.6947210000001],[100.336906,6.5827770000001],[100.666641,6.4474980000001]]]},{"type":"Polygon","coordinates":[[[119.2965411,5.4357711],[119.2685914,5.0533872],[118.8161036,4.3290544],[117.9133978,4.1686692],[117.592056,4.169818],[117.226379,4.359165],[115.892487,4.368888],[115.662491,4.0783330000001],[115.487198,3.0275],[115.155548,2.92555],[114.590271,1.45417],[112.309708,1.49944],[112.127197,1.144444],[111.94165,1.124722],[111.79776,0.993889],[110.885536,1.00555],[110.806091,0.906667],[110.519707,0.866389],[109.667213,1.62417],[109.548027,1.90972],[109.648567,2.073409],[109.861745,1.8192898],[110.9404061,1.6959973],[111.2010576,2.8699275],[112.9561341,3.1900802],[113.9618577,4.6142763],[114.095078,4.59054],[114.623032,4.02028],[114.793053,4.126944],[114.862198,4.433332],[114.77916,4.73305],[115.018433,4.8957950000001],[115.029427,4.64583],[115.10054,4.3822210000001],[115.320541,4.315555],[115.36026,4.3361100000001],[115.289146,4.423055],[115.264427,4.54111],[115.282494,4.59861],[115.223038,4.8049980000001],[115.1011448,4.960647],[115.1735201,5.0173892],[115.3293619,4.9073844],[115.533745,5.1385589],[115.3293691,5.2917685],[115.5000898,5.7038001],[116.7303805,7.0560728],[117.2876533,7.0140353],[117.8024904,6.4470066],[117.734154,6.3172220000001],[119.2965411,5.4357711]]]},{"type":"Polygon","coordinates":[[[117.2105221,7.0741124],[116.7902129,7.1683184],[116.8233952,7.3767822],[117.3524687,7.3987201],[117.2105221,7.0741124]]]}]},"properties":{"cca2":"my"}}