{"type":"Feature","geometry":{"type":"GeometryCollection","geometries":[{"type":"Polygon","coordinates":[[[50.32888,29.20805],[50.296104,29.251663],[50.289436,29.272774],[50.291382,29.278053],[50.296944,29.28],[50.32888,29.20805]]]},{"type":"Polygon","coordinates":[[[45.427528,39.008324],[46.178246,38.84115],[46.540375,38.875587],[47.819153,39.681107],[47.976662,39.719231],[48.35979,39.385216],[48.11998,39.263611],[48.326935,39.038048],[48.014153,38.905823],[48.322762,38.606102],[48.441933,38.62165],[48.62305,38.39526],[48.888283,38.442406],[51.0328224,36.8261839],[53.9418347,37.0035495],[53.90564,37.350853],[54.756386,37.495544],[54.80971,37.711105],[55.442764,38.086105],[56.31972,38.083328],[56.318886,38.173325],[56.385551,38.231377],[56.546661,38.26611],[57.058601,38.193604],[57.149788,38.260094],[57.243881,38.270828],[57.371101,38.093048],[57.356941,37.985825],[58.203049,37.783333],[58.238045,37.67527],[58.814713,37.680275],[59.338882,37.53916],[59.479988,37.232765],[60.029434,37.036942],[60.333054,36.656097],[61.157211,36.649994],[61.275269,35.514999],[60.508331,34.140274],[60.85305,31.494995],[61.713608,31.383331],[61.847771,31.008331],[61.758331,30.790276],[60.866302,29.863655],[61.821938,28.626106],[62.78138,28.26694],[62.778046,27.273052],[63.28833,27.218605],[63.185822,26.637218],[62.829163,26.651108],[62.31027,26.502777],[62.27803,26.35402],[61.876099,26.24638],[61.5692857,25.0102073],[57.180321,25.6976428],[56.9235828,26.5517632],[53.8615013,26.4377251],[51.3739577,27.6967713],[50.0252928,29.9624736],[48.545555,29.96303],[48.032494,30.49138],[48.036385,30.997494],[47.693878,31.00111],[47.864441,31.798607],[46.491104,32.903877],[46.097771,32.979988],[46.199432,33.19582],[46.00647,33.485779],[45.87471,33.491661],[45.508049,33.94249],[45.406162,33.970837],[45.562767,34.140549],[45.551933,34.344154],[45.493607,34.333878],[45.435547,34.448601],[45.562923,34.586105],[45.722214,34.556656],[45.65221,34.73999],[45.933769,35.098755],[46.025826,35.05999],[46.166382,35.107216],[46.192764,35.204163],[45.992218,35.481102],[46.02166,35.680275],[46.33416,35.777489],[46.31694,35.83416],[46.181664,35.804161],[46.128326,35.853607],[45.765831,35.811935],[45.520073,36.011169],[45.405823,35.990829],[45.239159,36.431374],[45.121368,36.41193],[45.013088,36.542858],[45.066666,36.68055],[45.025551,36.736382],[44.84415,36.808037],[44.906647,36.888329],[44.909714,37.023872],[44.81749,37.055817],[44.768044,37.105263],[44.78734,37.149712],[44.819443,37.294991],[44.586098,37.451935],[44.57943,37.765549],[44.223969,37.89915],[44.48333,38.351662],[44.434708,38.395546],[44.3122,38.38165],[44.297211,38.85082],[44.17332,38.96804],[44.217484,39.135262],[44.034157,39.384995],[44.086098,39.413048],[44.340271,39.395546],[44.431931,39.44694],[44.471085,39.698868],[44.611107,39.777771],[44.813042,39.63081],[45.427528,39.008324]]]}]},"properties":{"cca2":"ir"}}