{"type":"FeatureCollection","features":[{"type":"Feature","geometry":{"type":"GeometryCollection","geometries":[{"type":"Polygon","coordinates":[[[-57.075464,6.129593],[-59.631547,8.532294],[-61.389725,5.94],[-61.388771,5.938934],[-60.59251,4.924722],[-60.116112,5.2475],[-59.951283,5.040756],[-60.14944,4.522499],[-59.791115,4.456111],[-59.56861,3.899444],[-59.94972,3.07194],[-59.964883,2.568193],[-59.73445,2.287222],[-59.75194,1.865278],[-58.813614,1.185555],[-57.296669,1.982222],[-56.52556,1.9225],[-56.48112,1.968611],[-56.775,2.140833],[-58.0714,4.152222],[-57.075464,6.129593]]]}]},"properties":{"cca2":"gy"}}]}