{"type":"Feature","geometry":{"type":"Polygon","coordinates":[[[13.718655,46.526611],[14.112499,46.48111],[14.159443,46.440826],[14.544998,46.407494],[14.811666,46.509995],[14.870554,46.615829],[15.988054,46.751106],[15.985554,46.831108],[16.111805,46.86972],[16.303055,46.867775],[16.346107,46.846939],[16.337219,46.809166],[16.313889,46.793884],[16.529442,46.510277],[16.607872,46.476234],[16.57932,46.4644935],[16.461388,46.52166],[16.292507,46.530815],[16.249443,46.490273],[16.266109,46.419441],[15.797777,46.23333],[15.676666,46.226662],[15.611944,46.166939],[15.629444,46.086937],[15.718332,46.047218],[15.694443,45.841942],[15.656666,45.823326],[15.646387,45.823883],[15.602777,45.84861],[15.499443,45.835831],[15.322498,45.761383],[15.2710256,45.7351748],[15.283333,45.694717],[15.365555,45.709717],[15.352591,45.651756],[15.307089,45.629868],[15.277222,45.462776],[15.162794,45.426643],[15.090555,45.472771],[14.979067,45.500473],[14.818054,45.46611],[14.609444,45.63916],[14.612221,45.664162],[14.564999,45.664993],[14.485832,45.529716],[14.397499,45.486938],[13.703609,45.44416],[13.5237793,45.5283557],[13.6130211,45.6182053],[13.8659254,45.5896259],[13.9184673,45.6343008],[13.388216,46.2965868],[13.683029,46.4501804],[13.718655,46.526611]]]},"properties":{"cca2":"si"}}