{"type":"FeatureCollection","features":[{"type":"Feature","geometry":{"type":"GeometryCollection","geometries":[{"type":"Polygon","coordinates":[[[-16.646452,32.769618],[-17.158863,32.935847],[-17.399564,32.791965],[-16.804458,32.581927],[-16.646452,32.769618]]]},{"type":"Polygon","coordinates":[[[-16.258844,33.048648],[-16.306449,33.134112],[-16.441894,33.045798],[-16.347252,32.99638],[-16.258844,33.048648]]]},{"type":"Polygon","coordinates":[[[-25.004297,36.918302],[-25.016628,37.049251],[-25.24294,37.017983],[-25.193615,36.912502],[-25.004297,36.918302]]]},{"type":"Polygon","coordinates":[[[-25.11954,37.916507],[-25.953674,37.959846],[-25.873361,37.689396],[-25.099814,37.692741],[-25.11954,37.916507]]]},{"type":"Polygon","coordinates":[[[-26.955804,39.004698],[-28.465123,39.20486],[-29.001925,38.340683],[-26.948832,38.368018],[-26.955804,39.004698]]]},{"type":"Polygon","coordinates":[[[-31.328861,39.342225],[-31.091903,39.339814],[-31.103335,39.574125],[-31.324704,39.561307],[-31.328861,39.342225]]]},{"type":"Polygon","coordinates":[[[-8.140556,41.809166],[-8.201223,42.15274],[-8.901699,41.857132],[-8.720299,41.042524],[-9.698993,38.65435],[-8.953117,38.189979],[-9.116679,36.924595],[-7.823353,36.910484],[-7.384167,37.169716],[-7.524445,37.552498],[-7.25444,37.987495],[-7.006667,38.028053],[-7.32111,38.44944],[-7.149167,39.116661],[-7.5325,39.669418],[-7.01722,39.674995],[-6.848333,41.02861],[-6.18722,41.57972],[-6.594167,41.95361],[-8.140556,41.809166]]]}]},"properties":{"cca2":"pt"}}]}