{"type":"Feature","geometry":{"type":"MultiPolygon","coordinates":[[[[26.078053,39.7836],[26.07027,39.779999],[26.059998,39.780823],[26.0186,39.799431],[25.984997,39.815269],[25.981384,39.817772],[25.97749,39.82278],[25.975552,39.826111],[25.974995,39.829987],[25.97749,39.83332],[25.99305,39.839432],[26.012772,39.8425],[26.034161,39.842766],[26.047771,39.842209],[26.07111,39.8411],[26.075829,39.839722],[26.084721,39.83332],[26.086388,39.829987],[26.086388,39.825554],[26.082222,39.789444],[26.078053,39.7836]]],[[[25.82444,40.100266],[25.731667,40.09304],[25.671104,40.11805],[25.664444,40.122208],[25.663883,40.126389],[25.67083,40.151375],[25.67361,40.153603],[25.688889,40.164986],[25.715275,40.181389],[25.776665,40.212212],[25.934441,40.241096],[25.940552,40.241096],[25.943604,40.23888],[26.011387,40.16027],[26.013611,40.157494],[26.013611,40.153603],[26.0111,40.144722],[25.989998,40.128876],[25.958054,40.121101],[25.82444,40.100266]]],[[[27.52083,40.5862679],[27.5259682,40.6694598],[27.7457667,40.6681607],[27.7497631,40.6140101],[27.6144585,40.5632852],[27.52083,40.5862679]]],[[[39.042257,41.1194832],[40.5065704,41.1440731],[41.53156,41.523876],[42.48333,41.438332],[42.590271,41.579163],[42.84024,41.578873],[43.233597,41.190269],[43.387215,41.200554],[43.46077,41.112961],[43.74249,40.770264],[43.606934,40.368889],[43.72054,40.166939],[43.673607,40.100822],[44.399155,40.00361],[44.778862,39.706383],[44.816376,39.64582],[44.813042,39.63081],[44.611107,39.777771],[44.471085,39.698868],[44.431931,39.44694],[44.340271,39.395546],[44.086098,39.413048],[44.034157,39.384995],[44.217484,39.135262],[44.17332,38.96804],[44.297211,38.85082],[44.3122,38.38165],[44.434708,38.395546],[44.48333,38.351662],[44.223969,37.89915],[44.57943,37.765549],[44.586098,37.451935],[44.819443,37.294991],[44.78734,37.149712],[44.646378,37.189438],[44.349709,37.038322],[44.321106,36.97193],[44.255272,36.986664],[44.193329,37.10027],[44.23389,37.274155],[44.014153,37.320541],[43.9036,37.221657],[42.724709,37.351944],[42.578331,37.150826],[42.355614,37.10693],[42.354439,37.227768],[42.180832,37.290543],[41.99527,37.172768],[40.806656,37.12249],[39.809998,36.751389],[38.774712,36.69804],[38.513611,36.858047],[38.229996,36.913322],[37.53333,36.677773],[37.127495,36.659157],[36.659943,36.83371],[36.549988,36.49221],[36.688599,36.289444],[36.69221,36.239159],[36.39222,36.213326],[36.377747,36],[36.213882,35.95472],[36.157776,35.817497],[34.661998,36.6698594],[34.067582,36.1574359],[32.6371111,35.9627982],[31.2902197,36.7870297],[30.6311063,36.8176088],[30.5120202,36.2105016],[29.6375805,36.0903968],[29.1449775,36.2809626],[28.608604,36.803322],[27.9721053,36.5254593],[27.9339622,36.729214],[27.475277,36.649994],[27.3657855,36.672637],[27.3557685,36.7625368],[27.996277,36.8324967],[28.0184478,36.9375167],[28.32444,37.023331],[28.320827,37.045547],[27.2202346,36.9537784],[27.2290255,37.1520993],[27.549995,37.131653],[27.563889,37.273598],[27.197495,37.349152],[27.1635706,37.5924235],[26.9562412,37.6559093],[27.039791,37.6920357],[27.240829,37.727776],[27.24055,37.979713],[26.1878755,38.1400478],[26.3218901,38.6549988],[26.875687,38.8520518],[26.7537049,39.012899],[26.866035,39.0726759],[26.574319,39.3043366],[26.9164711,39.4880631],[26.9225343,39.5577889],[26.0554001,39.4536201],[26.1909412,40.0140097],[26.2498784,40.0045298],[26.433331,40.191666],[26.7773689,40.4330945],[27.3247668,40.4849111],[29.088535,40.6911167],[29.12944,40.91444],[28.9025873,40.9778543],[29.1509997,41.2388806],[29.754719,41.163048],[34.3217192,42.3216871],[39.042257,41.1194832]]],[[[27.566666,41.907776],[28.082037,41.9791174],[28.2387145,41.5880062],[29.1514663,41.2399442],[28.902493,40.977776],[27.6005893,40.9443157],[27.3658579,40.6567407],[26.878326,40.53278],[26.4042195,40.2021342],[26.2149564,40.0267714],[26.1376856,40.0491805],[26.26083,40.198875],[26.1499991,40.341282],[26.797497,40.567772],[26.7793526,40.6405737],[26.0658701,40.5671424],[26.0247287,40.7430122],[26.090549,40.736107],[26.35944,40.951935],[26.375549,41.02193],[26.323887,41.09304],[26.325,41.234711],[26.633884,41.354439],[26.570271,41.611382],[26.36109,41.711052],[26.350277,41.79332],[27.233051,42.109993],[27.566666,41.907776]]]]},"properties":{"cca2":"tr"}}