{"type":"Feature","geometry":{"type":"Polygon","coordinates":[[[7.541664,43.759775],[10.049146,44.026189],[9.631767,44.379796],[9.882194,44.536875],[10.663831,44.140663],[11.210217,44.156999],[11.407523,44.260351],[11.771781,44.146109],[11.726249,43.878682],[12.166393,43.769181],[12.879731,44.026189],[12.478481,45.348362],[13.218039,45.662811],[13.8659254,45.5896259],[13.9184673,45.6343008],[13.388216,46.2965868],[13.6830289,46.4501804],[13.718655,46.526611],[12.486174,46.6823651],[12.1687113,46.9255273],[12.1282114,47.0129689],[12.204443,47.039162],[12.230833,47.07222],[12.2009386,47.0877915],[11.1657683,46.9628777],[11.0217981,46.7673751],[10.775849,46.7851775],[10.6758696,46.8836688],[10.4825152,46.8545867],[10.457531,46.542503],[10.119165,46.611382],[10.049166,46.443054],[10.176388,46.268326],[10.072777,46.220276],[9.91111,46.383331],[9.539349,46.288456],[9.470045,46.493317],[9.321537,46.520574],[8.996405,46.026967],[9.103726,45.890209],[8.945317,45.84195],[8.459999,46.452217],[8.30611,46.424721],[7.855742,45.919052],[6.967556,45.864613],[7.124999,45.254997],[6.61976,45.110138],[7.031666,44.831383],[6.878888,44.373604],[7.71419,44.065117],[7.493442,43.87048],[7.541664,43.759775]]]},"properties":{"country":"Италия","country_code":"it","name":"Северная Италия","name_original":"Northern Italy"}}