{"type":"FeatureCollection","features":[{"type":"Feature","properties":{"country":"Италия","country_code":"it","name":"Южная Италия","name_original":"Southern Italy"},"geometry":{"type":"Polygon","coordinates":[[[13.951016,42.919052],[13.129717,42.538291],[13.347369,42.170096],[12.995978,42.086468],[14.025767,41.54888],[13.655239,41.112362],[15.457639,39.753011],[16.030135,38.885172],[15.602021,38.434829],[15.631397,37.734072],[16.072986,37.65893],[17.696893,39.283364],[16.789972,39.843421],[17.108106,40.297621],[18.518341,39.573109],[18.955182,40.290378],[16.228153,41.996685],[14.975417,42.129108],[13.951016,42.919052]]]}}]}