{"type":"FeatureCollection","features":[{"type":"Feature","properties":{"country":"Италия","country_code":"it","name":"Северная Италия","name_original":"Central Italy"},"geometry":{"type":"Polygon","coordinates":[[[10.049146,44.026189],[10.284028,43.015913],[12.803644,41.220181],[13.655239,41.112362],[14.025767,41.54888],[12.995979,42.086468],[13.347369,42.170096],[13.129717,42.538291],[13.951016,42.919052],[13.684134,43.643007],[12.879731,44.026189],[12.166393,43.769181],[11.726249,43.878682],[11.771781,44.146109],[11.407523,44.260351],[11.210217,44.156999],[10.663831,44.140663],[9.882194,44.536875],[9.631767,44.379796],[10.049146,44.026189]]]}}]}