{"type":"Feature","geometry":{"type":"Polygon","coordinates":[[[18.424164,45.749161],[17.657219,45.840828],[17.62611,45.90583],[17.311386,45.975273],[17.185555,46.151939],[16.892776,46.282494],[16.866108,46.355827],[16.607872,46.476234],[16.529442,46.510277],[16.313889,46.793884],[16.337219,46.809166],[16.346107,46.846939],[16.303055,46.867775],[16.111805,46.86972],[16.302776,47.011383],[16.510555,47.00666],[16.420555,47.213333],[16.491665,47.279999],[16.451942,47.415276],[16.592499,47.425278],[16.713886,47.543884],[16.668888,47.611664],[16.425831,47.668327],[16.555832,47.756104],[16.715832,47.734718],[16.7575,47.686943],[17.053886,47.709442],[17.108055,47.971382],[17.166386,48.012497],[17.251656,48.024994],[17.784409,47.746803],[18.720554,47.78611],[18.749729,47.813156],[18.84972,47.817772],[18.853611,47.833054],[18.766941,47.877777],[18.771664,47.965553],[18.849098,48.051064],[19.476383,48.089165],[19.524166,48.205826],[19.66222,48.231941],[19.912498,48.129715],[20.235554,48.274994],[20.286663,48.253883],[20.539719,48.536942],[20.830276,48.574997],[20.955276,48.522499],[21.507221,48.548882],[21.731388,48.351105],[22.150555,48.408607],[22.268887,48.407211],[22.270275,48.359993],[22.85083,48.079994],[22.894804,47.95454],[22.65361,47.776382],[22.318886,47.745827],[21.08083,46.246941],[20.82972,46.277222],[20.69589,46.150391],[19.660275,46.181389],[18.424164,45.749161]]]},"properties":{"cca2":"hu"}}