{"type":"Feature","geometry":{"type":"Polygon","coordinates":[[[20.733887,40.911942],[20.669998,41.088051],[20.600613,41.093185],[20.497498,41.347221],[20.524166,41.350273],[20.562496,41.408051],[20.460552,41.515831],[20.533886,41.63472],[20.514164,41.727776],[20.568951,41.874542],[20.589642,41.882187],[20.744164,41.874161],[20.807777,42.089996],[22.324444,42.361382],[22.365276,42.323883],[22.517776,42.150833],[22.828609,42.026939],[22.967499,41.773605],[23.00972,41.767494],[23.031387,41.720551],[22.952499,41.634438],[22.960831,41.358604],[22.926388,41.343048],[22.813053,41.34861],[22.772221,41.32444],[22.735832,41.148888],[22.34333,41.134438],[22.262497,41.170555],[21.97361,41.129997],[21.916111,41.095276],[21.911942,41.049438],[21.792221,40.932777],[21.599998,40.872772],[21.536663,40.904716],[21.41972,40.919167],[21.36861,40.878326],[20.98349,40.855888],[20.984165,40.891663],[20.733887,40.911942]]]},"properties":{"cca2":"mk"}}