{"type":"Feature","geometry":{"type":"Polygon","coordinates":[[[20.82972,46.277222],[21.08083,46.246941],[22.318886,47.745827],[22.65361,47.776382],[22.894804,47.95454],[23.091106,48.015831],[23.129719,48.093605],[24.249722,47.90416],[24.433331,47.959717],[24.668053,47.902222],[24.894444,47.718605],[25.123882,47.763878],[25.254993,47.89193],[26.197773,48.00444],[26.314907,48.186165],[26.704163,48.263885],[27.000553,48.155548],[27.634163,47.306931],[28.08194,46.980537],[28.247211,46.604439],[28.245544,46.42083],[28.084438,46.011658],[28.161102,45.628036],[28.06916,45.583321],[28.375828,45.300545],[28.797218,45.234711],[29.217216,45.424721],[29.411385,45.435822],[29.636944,45.350266],[29.6789287,45.1962719],[29.6722758,44.8199222],[29.0327192,44.6635315],[28.583244,43.747765],[28.047218,43.831657],[27.272713,44.132149],[26.301941,44.030823],[25.609161,43.662209],[24.598331,43.753883],[24.224163,43.689438],[23.418224,43.856171],[23.138885,43.808327],[22.857471,43.853256],[22.879719,43.981667],[23.046108,44.06916],[22.681435,44.224701],[22.691666,44.26416],[22.549721,44.323051],[22.459999,44.482216],[22.609444,44.552216],[22.686817,44.523979],[22.765781,44.555199],[22.479164,44.710274],[22.320553,44.668327],[22.187222,44.493889],[22.106667,44.490273],[22.003887,44.628609],[21.655552,44.656944],[21.594997,44.758888],[21.400398,44.780823],[21.366108,44.864441],[21.548611,44.889442],[21.551388,44.928055],[21.366943,45.008331],[21.516109,45.139717],[20.808331,45.478882],[20.796108,45.649437],[20.2375128,46.1641133],[20.69589,46.150391],[20.82972,46.277222]]]},"properties":{"cca2":"ro"}}