{"type":"FeatureCollection","features":[{"type":"Feature","geometry":{"type":"GeometryCollection","geometries":[{"type":"Polygon","coordinates":[[[-111.06712,31.33364],[-114.82211,32.50024],[-114.8005,32.707885],[-117.12512,32.53167],[-115.228834,26.108173],[-106.966025,19.602512],[-99.530976,16.252468],[-92.232835,14.524044],[-92.15224,14.700277],[-92.18584,14.84361],[-92.072197,15.085834],[-92.21139,15.26222],[-91.72917,16.074997],[-90.458069,16.074718],[-90.393341,16.401108],[-91.436951,17.2575],[-90.9839,17.25611],[-90.983063,17.81778],[-89.141953,17.81889],[-88.8414,17.903889],[-88.405441,18.489902],[-88.031361,18.414188],[-88.03018,18.162582],[-87.847504,18.19083],[-87.39033,19.294508],[-86.647808,20.416278],[-86.680622,21.744246],[-90.141294,21.47299],[-91.471163,19.034342],[-94.690345,18.519743],[-97.075703,21.014458],[-97.13927,25.96581],[-98.22266,26.07541],[-99.16487,26.54045],[-101.40931,29.76578],[-102.68347,29.74372],[-103.127731,28.985508],[-104.44401,29.5892],[-106.451221,31.773611],[-108.21512,31.77775],[-108.21481,31.32744],[-109.04743,31.32739],[-111.06712,31.33364]]]}]},"properties":{"cca2":"mx"}}]}