{"type":"FeatureCollection","features":[{"type":"Feature","geometry":{"type":"GeometryCollection","geometries":[{"type":"Polygon","coordinates":[[[-87.59365,30.99971],[-84.944112,31.001923],[-85.14391,31.82395],[-84.97365,32.37513],[-85.17167,32.83443],[-85.60568,34.98521],[-88.18552,35.00975],[-88.08815,34.90806],[-88.48615,31.88951],[-88.385082,30.188373],[-87.921996,30.197437],[-87.524835,30.267724],[-87.35009,30.4536],[-87.59365,30.99971]]]}]},"properties":{"name":"Алабама","name_original":"Alabama","country":"Соединённые Штаты Америки","country_code":"us","region_code":"US-AL","address":{"ISO3166-2-lvl4":"US-AL"}},"id":"US-AL"}]}