{"type":"FeatureCollection","features":[{"type":"Feature","geometry":{"type":"GeometryCollection","geometries":[{"type":"Polygon","coordinates":[[[-141.00556,69.65095],[-141.00646,69.65127],[-141.01521,69.6542],[-142.762128,70.201824],[-152.397048,70.935218],[-154.114506,71.00826],[-156.425783,71.434147],[-157.834338,71.122129],[-159.618584,70.946818],[-163.176706,70.241725],[-163.266072,69.577209],[-163.249474,69.392152],[-164.261933,69.08144],[-166.435836,68.906622],[-166.9793,68.322604],[-163.96162,67.49868],[-164.883125,66.819121],[-168.232434,65.825225],[-167.942549,59.81218],[-162.862935,59.374698],[-161.9463,58.207545],[-163.33454,55.11953],[-163.32929,55.11689],[-163.32518,55.11408],[-169.667895,53.338814],[-168.628338,52.127159],[-152.320511,56.259141],[-145.912836,59.898012],[-140.318182,58.847372],[-139.252415,58.342005],[-138.003818,57.660192],[-136.266717,56.613113],[-133.961655,54.250002],[-130.57896,54.721424],[-130.084986,56.123329],[-131.846737,56.607823],[-135.482779,59.792483],[-137.480056,58.903655],[-139.07842,60.007851],[-141.001595,60.305977],[-141.00556,69.65095]]]},{"type":"Polygon","coordinates":[[[-171.617733,63.891629],[-172.489713,63.262717],[-169.292086,62.832888],[-168.623103,63.124414],[-168.825731,63.53666],[-171.617733,63.891629]]]}]},"properties":{"name":"Аляска","name_original":"Alaska","country":"Соединённые Штаты Америки","country_code":"us","region_code":"US-AK","address":{"ISO3166-2-lvl4":"US-AK"}},"id":1}]}