{"type":"FeatureCollection","features":[{"type":"Feature","geometry":{"type":"Polygon","coordinates":[[[-111.06712,31.33364],[-109.04743,31.32739],[-109.04662,36.99981],[-114.042802,37.00308],[-114.04284,36.21031],[-114.72119,36.09273],[-114.62822,35.00357],[-114.36721,34.53013],[-114.7269,33.41148],[-114.82211,32.50024],[-111.06712,31.33364]]]},"properties":{"name":"Аризона","name_original":"Arizona","country":"Соединённые Штаты Америки","country_code":"us","region_code":"US-AZ","address":{"ISO3166-2-lvl4":"US-AZ"}},"id":"US-AZ"}]}