{"type":"FeatureCollection","features":[{"type":"Feature","geometry":{"type":"Polygon","coordinates":[[[-89.68068,35.9458],[-89.72385,36.00049],[-90.38124,35.99615],[-90.06603,36.29751],[-90.16218,36.49983],[-94.61833,36.49983],[-94.43908,35.38621],[-94.4841,33.64742],[-94.04728,33.55415],[-94.04728,33.5534],[-94.04125,33.01094],[-91.128181,33.00416],[-91.09304,33.98953],[-90.30422,35.00008],[-89.68068,35.9458]]]},"properties":{"name":"Арканзас","name_original":"Arkansas","country":"Соединённые Штаты Америки","country_code":"us","region_code":"US-AR","address":{"ISO3166-2-lvl4":"US-AR"}},"id":"US-AR"}]}