{"type":"FeatureCollection","features":[{"type":"Feature","geometry":{"type":"GeometryCollection","geometries":[{"type":"Polygon","coordinates":[[[-114.7269,33.41148],[-114.36721,34.53013],[-114.62822,35.00357],[-120.00002,38.99922],[-120.00075,41.99954],[-124.21452,41.99954],[-124.772146,40.033398],[-120.618071,34.435411],[-117.12512,32.53167],[-114.8005,32.707885],[-114.7269,33.41148]]]}]},"properties":{"name":"Калифорния","name_original":"California","country":"Соединённые Штаты Америки","country_code":"us","region_code":"US-CA","address":{"ISO3166-2-lvl4":"US-CA"}},"id":"US-CA"}]}