{"type":"FeatureCollection","features":[{"type":"Feature","geometry":{"type":"GeometryCollection","geometries":[{"type":"Polygon","coordinates":[[[-86.369009,30.349994],[-85.079319,29.485163],[-84.02404,30.10659],[-82.720936,28.819556],[-82.984778,27.663115],[-82.133667,26.316215],[-81.772617,25.941764],[-81.433815,25.713219],[-81.208759,25.203974],[-80.991265,25.001316],[-81.949526,24.624958],[-81.850461,24.432531],[-80.527037,24.887428],[-80.083389,25.421315],[-79.977631,26.169235],[-80.03454,26.71532],[-80.524536,28.662126],[-81.279884,30.082745],[-81.414802,30.707966],[-81.96198,30.81841],[-82.03737,30.62393],[-82.040869,30.367532],[-82.18288,30.36729],[-82.21252,30.41956],[-82.23984,30.56465],[-84.87578,30.71914],[-84.944112,31.001923],[-87.59365,30.99971],[-87.35009,30.4536],[-87.524835,30.267724],[-86.369009,30.349994]]]}]},"properties":{"name":"Флорида","name_original":"Florida","country":"Соединённые Штаты Америки","country_code":"us","region_code":"US-FL","address":{"ISO3166-2-lvl4":"US-FL"}},"id":"US-FL"}]}