{"type":"FeatureCollection","features":[{"type":"Feature","geometry":{"type":"GeometryCollection","geometries":[{"type":"Polygon","coordinates":[[[-80.89094,32.03247],[-81.103846,32.121761],[-81.494666,33.007312],[-82.827627,34.379568],[-83.35549,34.70843],[-83.11476,35.00044],[-85.60568,34.98521],[-85.17167,32.83443],[-84.97365,32.37513],[-85.14391,31.82395],[-84.87578,30.71914],[-82.23984,30.56465],[-82.21252,30.41956],[-82.18288,30.36729],[-82.040869,30.367532],[-82.03737,30.62393],[-81.96198,30.81841],[-81.414802,30.707967],[-81.268056,31.20496],[-80.843135,31.974949],[-80.821499,32.00167],[-80.84139,32.033725],[-80.89094,32.03247]]]}]},"properties":{"name":"Джорджия","name_original":"Georgia","country":"Соединённые Штаты Америки","country_code":"us","region_code":"US-GA","address":{"ISO3166-2-lvl4":"US-GA"}},"id":"US-GA"}]}