{"type":"FeatureCollection","features":[{"type":"Feature","geometry":{"type":"GeometryCollection","geometries":[{"type":"Polygon","coordinates":[[[-155.382053,20.170836],[-155.880127,20.329391],[-156.095465,19.738612],[-155.999267,19.102762],[-155.706797,18.805475],[-154.659479,19.53046],[-155.382053,20.170836]]]},{"type":"Polygon","coordinates":[[[-156.562634,20.622724],[-156.72794,20.545921],[-156.658756,20.4708],[-156.502633,20.522987],[-156.562634,20.622724]]]},{"type":"Polygon","coordinates":[[[-157.12778,20.931774],[-156.97936,20.710297],[-156.784071,20.762653],[-156.885622,20.975544],[-157.12778,20.931774]]]},{"type":"Polygon","coordinates":[[[-156.24291,20.94156],[-156.6455,21.064274],[-156.735622,20.895101],[-156.64155,20.787658],[-156.486909,20.732201],[-156.445218,20.530127],[-156.062812,20.606142],[-155.919417,20.769747],[-156.24291,20.94156]]]},{"type":"Polygon","coordinates":[[[-157.278069,21.289276],[-157.322969,21.057501],[-156.737661,21.024574],[-156.697572,21.190629],[-157.278069,21.289276]]]},{"type":"Polygon","coordinates":[[[-157.96065,21.746873],[-158.28976,21.576966],[-158.13726,21.274681],[-157.665507,21.238831],[-157.625412,21.338998],[-157.96065,21.746873]]]},{"type":"Polygon","coordinates":[[[-160.123572,22.027922],[-160.275067,21.849276],[-160.238805,21.777456],[-160.188038,21.76623],[-160.055882,21.894145],[-160.03896,22.008498],[-160.123572,22.027922]]]},{"type":"Polygon","coordinates":[[[-159.54844,22.23098],[-159.804873,22.147982],[-159.789226,21.939503],[-159.539005,21.85883],[-159.294317,21.864259],[-159.267709,22.234754],[-159.54844,22.23098]]]},{"type":"Polygon","coordinates":[[[-161.934959,23.056608],[-161.913616,23.0527],[-161.905864,23.062177],[-161.927101,23.069406],[-161.934959,23.056608]]]}]},"properties":{"name":"Гавайи","name_original":"Hawaii","country":"Соединённые Штаты Америки","country_code":"us","region_code":"US-HI","address":{"ISO3166-2-lvl4":"US-HI"}},"id":"US-HI"}]}