{"type":"FeatureCollection","features":[{"type":"Feature","geometry":{"type":"Polygon","coordinates":[[[-117.03815,48.99251],[-117.04011,46.39649],[-116.462745,45.613219],[-117.011825,44.253334],[-117.01662,41.99954],[-111.05024,41.99983],[-111.05139,44.49788],[-113.00707,44.49446],[-116.049334,47.977393],[-116.04816,48.99251],[-117.03815,48.99251]]]},"properties":{"name":"Айдахо","name_original":"Idaho","country":"Соединённые Штаты Америки","country_code":"us","region_code":"US-ID","address":{"ISO3166-2-lvl4":"US-ID"}},"id":"US-ID"}]}