{"type":"FeatureCollection","features":[{"type":"Feature","geometry":{"type":"Polygon","coordinates":[[[-91.51894,40.17491],[-91.35507,39.7108],[-90.115092,38.858103],[-90.34633,38.20713],[-89.83193,37.88456],[-89.44138,37.39834],[-89.39357,37.06255],[-89.1787,37.06228],[-88.95549,37.22781],[-88.4843,37.07247],[-88.47819,37.3983],[-88.09099,37.49131],[-88.04528,37.80674],[-87.98566,38.20227],[-87.54269,38.69002],[-87.53268,39.36163],[-87.52104,41.75972],[-87.20773,41.75967],[-87.01882,42.49624],[-90.64128,42.51177],[-90.65422,42.48985],[-90.4322,42.35257],[-90.40314,42.24537],[-90.17648,42.12366],[-90.18857,41.83477],[-90.4829,41.53091],[-91.03095,41.4136],[-91.124986,40.652384],[-91.29821,40.63323],[-91.44186,40.37952],[-91.51894,40.17491]]]},"properties":{"name":"Иллинойс","name_original":"Illinois","country":"Соединённые Штаты Америки","country_code":"us","region_code":"US-IL","address":{"ISO3166-2-lvl4":"US-IL"}},"id":"US-IL"}]}