{"type":"FeatureCollection","features":[{"type":"Feature","geometry":{"type":"Polygon","coordinates":[[[-84.80608,41.75827],[-87.52104,41.75972],[-87.53268,39.36163],[-87.54269,38.69002],[-87.98566,38.20227],[-88.04528,37.80674],[-86.07292,37.98323],[-84.819823,39.087653],[-84.80608,41.69681],[-84.80608,41.75827]]]},"properties":{"name":"Индиана","name_original":"Indiana","country":"Соединённые Штаты Америки","country_code":"us","region_code":"US-IN","address":{"ISO3166-2-lvl4":"US-IN"}},"id":"US-IN"}]}