{"type":"FeatureCollection","features":[{"type":"Feature","geometry":{"type":"Polygon","coordinates":[[[-96.59526,43.500435],[-96.48266,42.51834],[-96.117245,41.907412],[-95.76765,40.60047],[-91.73068,40.6188],[-91.44186,40.37952],[-91.29821,40.63323],[-91.124986,40.652384],[-91.03095,41.4136],[-90.4829,41.53091],[-90.18857,41.83477],[-90.17648,42.12366],[-90.40314,42.24537],[-90.4322,42.35257],[-90.65422,42.48985],[-90.64128,42.51177],[-90.68732,42.64038],[-91.03298,42.72923],[-91.25014,43.50096],[-96.59526,43.500435]]]},"properties":{"name":"Айова","name_original":"Iowa","country":"Соединённые Штаты Америки","country_code":"us","region_code":"US-IA","address":{"ISO3166-2-lvl4":"US-IA"}},"id":"US-IA"}]}