{"type":"FeatureCollection","features":[{"type":"Feature","geometry":{"type":"GeometryCollection","geometries":[{"type":"Polygon","coordinates":[[[-89.423997,36.500015],[-88.04274,36.49864],[-88.044557,36.653291],[-83.660362,36.60973],[-81.96523,37.53868],[-82.55598,38.06817],[-82.58898,38.41875],[-82.69821,38.53545],[-84.75476,39.144533],[-86.07292,37.98323],[-88.04528,37.80674],[-88.09099,37.49131],[-88.47819,37.3983],[-88.4843,37.07247],[-88.95549,37.22781],[-89.1787,37.06228],[-89.423997,36.500015]]]}]},"properties":{"name":"Кентукки","name_original":"Kentucky","country":"Соединённые Штаты Америки","country_code":"us","region_code":"US-KY","address":{"ISO3166-2-lvl4":"US-KY"}},"id":"US-KY"}]}