{"type":"FeatureCollection","features":[{"type":"Feature","geometry":{"type":"GeometryCollection","geometries":[{"type":"Polygon","coordinates":[[[-89.56489,30.18907],[-89.84606,30.6825],[-89.73527,31.0001],[-91.65734,31.00022],[-91.64792,31.27154],[-90.897655,32.339218],[-91.13334,32.85855],[-91.128181,33.00416],[-94.04125,33.01094],[-94.04323,31.9982],[-93.83735,31.78135],[-93.8329,31.60345],[-93.55959,31.09712],[-93.845973,29.684338],[-91.015497,29.068103],[-90.355192,29.309988],[-90.263706,29.057305],[-89.447356,28.901125],[-89.14737,28.99042],[-88.997399,29.15839],[-89.077955,29.941702],[-89.56489,30.18907]]]}]},"properties":{"name":"Луизиана","name_original":"Louisiana","country":"Соединённые Штаты Америки","country_code":"us","region_code":"US-LA","address":{"ISO3166-2-lvl4":"US-LA"}},"id":"US-LA"}]}