{"type":"FeatureCollection","features":[{"type":"Feature","geometry":{"type":"GeometryCollection","geometries":[{"type":"Polygon","coordinates":[[[-71.085139,45.314957],[-70.97263,43.38311],[-70.81706,43.2399],[-70.80641,43.1367],[-70.701998,43.056258],[-66.87914,44.70517],[-67.43131,45.59794],[-67.80012,45.69985],[-67.8087,47.07514],[-68.383275,47.551771],[-69.052388,47.300103],[-70.293294,45.884351],[-71.085139,45.314957]]]}]},"properties":{"name":"Мэн","name_original":"Maine","country":"Соединённые Штаты Америки","country_code":"us","region_code":"US-ME","address":{"ISO3166-2-lvl4":"US-ME"}},"id":"US-ME"}]}