{"type":"FeatureCollection","features":[{"type":"Feature","geometry":{"type":"GeometryCollection","geometries":[{"type":"Polygon","coordinates":[[[-75.233433,38.027837],[-75.04398,38.4538],[-75.6937,38.46035],[-75.77529,39.72259],[-79.47744,39.721732],[-79.48793,39.20987],[-78.243725,39.682693],[-78.13298,39.70135],[-77.832685,39.541832],[-77.73605,39.33155],[-77.45588,39.22815],[-77.513838,39.125002],[-77.11978,38.93406],[-77.04195,38.99614],[-76.90931,38.89298],[-77.327628,38.450973],[-77.190188,38.346755],[-77.03238,38.47163],[-76.932309,38.256925],[-75.90171,37.912821],[-75.233433,38.027837]]]}]},"properties":{"name":"Maryland","name_original":"Maryland","country":"Соединённые Штаты Америки","country_code":"us","region_code":"US-MD","address":{"ISO3166-2-lvl4":"US-MD"}},"id":"US-MD"}]}