{"type":"FeatureCollection","features":[{"type":"Feature","geometry":{"type":"GeometryCollection","geometries":[{"type":"Polygon","coordinates":[[[-71.13112,41.66114],[-71.1219,41.51301],[-70.69035,41.182203],[-69.795601,41.174993],[-69.890467,42.110994],[-70.332058,42.12714],[-70.223215,41.83355],[-70.4392,41.75609],[-70.75315,42.393394],[-70.554252,42.642007],[-70.63174,42.69461],[-70.74161,42.68163],[-70.81428,42.8773],[-71.0225,42.85474],[-71.30632,42.70086],[-73.428472,42.747175],[-73.453311,42.050325],[-71.80158,42.02168],[-71.381639,42.018806],[-71.381477,41.893561],[-71.13112,41.66114]]]}]},"properties":{"name":"Массачусетс","name_original":"Massachusetts","country":"Соединённые Штаты Америки","country_code":"us","region_code":"US-MA","address":{"ISO3166-2-lvl4":"US-MA"}},"id":"US-MA"}]}