{"type":"FeatureCollection","features":[{"type":"Feature","geometry":{"type":"Polygon","coordinates":[[[-89.95764,47.28611],[-90.420184,46.566335],[-90.1185,46.34063],[-88.18022,45.95726],[-87.73356,45.19234],[-87.6704,45.13052],[-87.43605,45.07898],[-87.40332,45.20496],[-87.09245,45.44385],[-86.76357,45.44385],[-86.41445,45.30127],[-86.53591,45.04046],[-87.08705,43.87359],[-87.01882,42.49624],[-87.20773,41.75967],[-84.80608,41.75827],[-84.80608,41.69681],[-83.41376,41.73527],[-83.191517,41.898513],[-83.083306,42.304591],[-82.826913,42.376335],[-82.14565,43.57641],[-82.520213,45.340831],[-84.133468,46.528686],[-88.37646,48.30511],[-89.337212,47.975958],[-89.95764,47.28611]]]},"properties":{"name":"Мичиган","name_original":"Michigan","country":"Соединённые Штаты Америки","country_code":"us","region_code":"US-MI","address":{"ISO3166-2-lvl4":"US-MI"}},"id":"US-MI"}]}