{"type":"FeatureCollection","features":[{"type":"Feature","geometry":{"type":"Polygon","coordinates":[[[-97.22609,48.99267],[-96.55634,45.94175],[-96.453261,43.500449],[-91.25014,43.50096],[-91.27951,43.87359],[-92.81979,44.75784],[-92.7509,45.55918],[-92.8832,45.57613],[-92.88198,45.71592],[-92.29257,46.08333],[-92.2916,46.65967],[-92.117606,46.767347],[-91.96486,46.72874],[-90.65397,47.30806],[-89.95764,47.28611],[-89.337213,47.975958],[-95.153238,48.998912],[-97.22609,48.99267]]]},"properties":{"name":"Миннесота","name_original":"Minnesota","country":"Соединённые Штаты Америки","country_code":"us","region_code":"US-MN","address":{"ISO3166-2-lvl4":"US-MN"}},"id":"US-MN"}]}