{"type":"FeatureCollection","features":[{"type":"Feature","geometry":{"type":"GeometryCollection","geometries":[{"type":"Polygon","coordinates":[[[-88.48615,31.88951],[-88.08815,34.90806],[-88.18552,35.00975],[-90.30422,35.00008],[-91.09304,33.98953],[-91.13334,32.85855],[-90.897655,32.339218],[-91.64792,31.27154],[-91.65734,31.00022],[-89.73527,31.0001],[-89.84606,30.6825],[-89.56489,30.18907],[-88.957518,30.348846],[-88.385082,30.188373],[-88.48615,31.88951]]]}]},"properties":{"name":"Миссисипи","name_original":"Mississippi","country":"Соединённые Штаты Америки","country_code":"us","region_code":"US-MS","address":{"ISO3166-2-lvl4":"US-MS"}},"id":0}]}