{"type":"FeatureCollection","features":[{"type":"Feature","geometry":{"type":"Polygon","coordinates":[[[-95.76765,40.60047],[-95.31725,40.0001],[-94.61774,39.12315],[-94.61833,36.49983],[-90.16218,36.49983],[-90.06603,36.29751],[-90.38124,35.99615],[-89.72385,36.00049],[-89.55988,36.50015],[-89.423997,36.500015],[-89.1787,37.06228],[-89.39357,37.06255],[-89.44138,37.39834],[-89.83193,37.88456],[-90.34633,38.20713],[-90.115092,38.858103],[-91.35507,39.7108],[-91.51894,40.17491],[-91.44186,40.37952],[-91.73068,40.6188],[-95.76765,40.60047]]]},"properties":{"name":"Миссури","name_original":"Missouri","country":"Соединённые Штаты Америки","country_code":"us","region_code":"US-MO","address":{"ISO3166-2-lvl4":"US-MO"}},"id":0}]}