{"type":"FeatureCollection","features":[{"type":"Feature","geometry":{"type":"Polygon","coordinates":[[[-104.05373,40.99983],[-102.0518,40.99959],[-102.05126,40.0001],[-95.31725,40.0001],[-95.76765,40.60047],[-96.117245,41.907412],[-96.48266,42.51834],[-98.4851,43.0002],[-104.05312,43.00037],[-104.05373,40.99983]]]},"properties":{"name":"Небраска","name_original":"Nebraska","country":"Соединённые Штаты Америки","country_code":"us","region_code":"US-NE","address":{"ISO3166-2-lvl4":"US-NE"}},"id":"US-NE"}]}