{"type":"FeatureCollection","features":[{"type":"Feature","geometry":{"type":"Polygon","coordinates":[[[-108.21481,31.32744],[-108.21512,31.77775],[-106.451221,31.773611],[-106.66218,32.0003],[-103.06559,32.00169],[-103.04211,36.49959],[-103.00024,36.5002],[-103.0008,36.99981],[-109.04662,36.99981],[-109.04743,31.32739],[-108.21481,31.32744]]]},"properties":{"name":"Нью-Мексико","name_original":"New Mexico","country":"Соединённые Штаты Америки","country_code":"us","region_code":"US-NM","address":{"ISO3166-2-lvl4":"US-NM"}},"id":"US-NM"}]}