{"type":"FeatureCollection","features":[{"type":"Feature","geometry":{"type":"GeometryCollection","geometries":[{"type":"Polygon","coordinates":[[[-79.764276,42.547993],[-79.76291,41.99986],[-75.33898,41.99739],[-74.99787,41.51385],[-73.894359,40.996875],[-74.054689,40.651945],[-74.186777,40.645304],[-74.259455,40.497105],[-73.615047,40.460222],[-71.703727,40.981326],[-71.825376,41.294608],[-73.64286,41.00107],[-73.72297,41.1035],[-73.482809,41.212734],[-73.346048,45.004012],[-74.442835,44.998238],[-74.88651,45.0094],[-75.45596,44.74177],[-76.797237,43.631085],[-79.17431,43.46453],[-78.903473,42.837331],[-79.764276,42.547993]]]}]},"properties":{"name":"Нью-Йорк","name_original":"New York","country":"Соединённые Штаты Америки","country_code":"us","region_code":"US-NY","address":{"ISO3166-2-lvl4":"US-NY"}},"id":"US-NY"}]}