{"type":"FeatureCollection","features":[{"type":"Feature","geometry":{"type":"GeometryCollection","geometries":[{"type":"Polygon","coordinates":[[[-75.149957,39.889422],[-75.451157,39.809116],[-75.565138,39.458261],[-74.892716,38.851321],[-74.105099,39.501078],[-73.615047,40.460222],[-74.259455,40.497105],[-74.186777,40.645304],[-74.054689,40.651945],[-73.894359,40.996875],[-74.703361,41.376278],[-75.13954,40.98221],[-75.05761,40.87234],[-75.19416,40.71399],[-75.1822,40.57039],[-74.72863,40.16324],[-75.149957,39.889422]]]}]},"properties":{"name":"Нью-Джерси","name_original":"New Jersey","country":"Соединённые Штаты Америки","country_code":"us","region_code":"US-NJ","address":{"ISO3166-2-lvl4":"US-NJ"}},"id":"US-NJ"}]}