{"type":"FeatureCollection","features":[{"type":"Feature","geometry":{"type":"Polygon","coordinates":[[[-71.50012,44.908567],[-71.635,44.74031],[-71.543014,44.582154],[-71.8405,44.35721],[-71.98337,44.33921],[-72.06953,44.07261],[-72.39787,43.5314],[-72.55617,42.85982],[-72.458515,42.726651],[-71.30632,42.70086],[-71.0225,42.85474],[-70.81428,42.8773],[-70.701998,43.056258],[-70.80641,43.1367],[-70.81706,43.2399],[-70.97263,43.38311],[-71.085139,45.314957],[-71.500873,45.0137],[-71.50012,44.908567]]]},"properties":{"name":"Нью-Гэмпшир","name_original":"New Hampshire","country":"Соединённые Штаты Америки","country_code":"us","region_code":"US-NH","address":{"ISO3166-2-lvl4":"US-NH"}},"id":"US-NH"}]}