{"type":"FeatureCollection","features":[{"type":"Feature","geometry":{"type":"GeometryCollection","geometries":[{"type":"Polygon","coordinates":[[[-81.675072,36.589996],[-82.02468,36.13992],[-84.289573,35.223039],[-84.32463,34.98706],[-83.11476,35.00044],[-82.373951,35.202323],[-81.07353,35.1542],[-80.781606,34.934257],[-80.796818,34.819933],[-79.67348,34.80127],[-78.542859,33.851728],[-77.94878,33.827615],[-75.22803,35.231231],[-75.8531,36.54903],[-81.675072,36.589996]]]}]},"properties":{"name":"Северная Каролина","name_original":"North Carolina","country":"Соединённые Штаты Америки","country_code":"us","region_code":"US-NC","address":{"ISO3166-2-lvl4":"US-NC"}},"id":"US-NC"}]}