{"type":"FeatureCollection","features":[{"type":"Feature","geometry":{"type":"Polygon","coordinates":[[[-83.191518,41.898512],[-83.41376,41.73527],[-84.80608,41.69681],[-84.819823,39.087653],[-84.75476,39.144533],[-82.69821,38.53545],[-82.58898,38.41875],[-82.33168,38.44361],[-82.02663,39.02207],[-81.78364,38.93272],[-81.687059,39.256324],[-81.455059,39.401213],[-81.342225,39.331433],[-80.87524,39.62879],[-80.61457,40.28643],[-80.60151,40.47139],[-80.67685,40.5888],[-80.66638,40.60887],[-80.519552,40.647025],[-80.519827,42.292907],[-82.516955,41.613674],[-83.191518,41.898512]]]},"properties":{"name":"Огайо","name_original":"Ohio","country":"Соединённые Штаты Америки","country_code":"us","region_code":"US-OH","address":{"ISO3166-2-lvl4":"US-OH"}},"id":"US-OH"}]}