{"type":"FeatureCollection","features":[{"type":"Feature","geometry":{"type":"Polygon","coordinates":[[[-100.00239,36.49986],[-99.99929,34.57547],[-96.32878,33.70186],[-95.22031,33.96294],[-94.4841,33.64742],[-94.43908,35.38621],[-94.61833,36.49983],[-94.61804,36.99981],[-102.03957,36.99981],[-103.0008,36.99981],[-103.000221,36.499594],[-100.00239,36.49986]]]},"properties":{"name":"Оклахома","name_original":"Oklahoma","country":"Соединённые Штаты Америки","country_code":"us","region_code":"US-OK","address":{"ISO3166-2-lvl4":"US-OK"}},"id":"US-OK"}]}