{"type":"FeatureCollection","features":[{"type":"Feature","geometry":{"type":"GeometryCollection","geometries":[{"type":"Polygon","coordinates":[[[-124.080449,46.263693],[-124.147645,44.933389],[-124.712514,42.753363],[-124.354567,41.999691],[-117.01662,41.99954],[-117.011884,44.253066],[-116.4559,45.62193],[-116.743508,45.995561],[-122.77159,45.661],[-122.888282,46.103995],[-124.080449,46.263693]]]}]},"properties":{"name":"Орегон","name_original":"Oregon","country":"Соединённые Штаты Америки","country_code":"us","region_code":"US-OR","address":{"ISO3166-2-lvl4":"US-OR"}},"id":"US-OR"}]}