{"type":"FeatureCollection","features":[{"type":"Feature","geometry":{"type":"Polygon","coordinates":[[[-80.519827,42.292907],[-80.5194,39.72149],[-75.77529,39.72259],[-75.149957,39.889422],[-74.72863,40.16324],[-75.1822,40.57039],[-75.19416,40.71399],[-75.05761,40.87234],[-75.13954,40.98221],[-74.703361,41.376278],[-74.99787,41.51385],[-75.33898,41.99739],[-79.76291,41.99986],[-79.764276,42.547993],[-80.519827,42.292907]]]},"properties":{"name":"Пенсильвания","name_original":"Pennsylvania","country":"Соединённые Штаты Америки","country_code":"us","region_code":"US-PA","address":{"ISO3166-2-lvl4":"US-PA"}},"id":"US-PA"}]}