{"type":"FeatureCollection","features":[{"type":"Feature","geometry":{"type":"GeometryCollection","geometries":[{"type":"Polygon","coordinates":[[[-71.381477,41.893561],[-71.381639,42.018806],[-71.80158,42.02168],[-71.825379,41.294607],[-71.1219,41.51301],[-71.13112,41.66114],[-71.381477,41.893561]]]}]},"properties":{"name":"Род-Айленд","name_original":"Rhode Island","country":"Соединённые Штаты Америки","country_code":"us","region_code":"US-RI","address":{"ISO3166-2-lvl4":"US-RI"}},"id":"US-RI"}]}