{"type":"FeatureCollection","features":[{"type":"Feature","geometry":{"type":"GeometryCollection","geometries":[{"type":"Polygon","coordinates":[[[-78.542858,33.851728],[-79.67348,34.80127],[-80.796818,34.819933],[-80.781606,34.934257],[-81.07353,35.1542],[-82.373951,35.202323],[-83.11476,35.00044],[-83.35549,34.70843],[-82.827627,34.379568],[-81.494666,33.007312],[-81.103846,32.121761],[-80.89094,32.03247],[-78.975427,33.192738],[-78.542858,33.851728]]]}]},"properties":{"name":"Южная Каролина","name_original":"South Carolina","country":"Соединённые Штаты Америки","country_code":"us","region_code":"US-SC","address":{"ISO3166-2-lvl4":"US-SC"}},"id":0}]}