{"type":"FeatureCollection","features":[{"type":"Feature","geometry":{"type":"Polygon","coordinates":[[[-89.72385,36.00049],[-89.68068,35.9458],[-90.30422,35.00008],[-88.18552,35.00975],[-85.60568,34.98521],[-84.321305,34.993063],[-84.290136,35.226229],[-82.02468,36.13992],[-81.675072,36.589996],[-88.044557,36.653291],[-88.04274,36.49864],[-89.55988,36.50015],[-89.72385,36.00049]]]},"properties":{"name":"Теннесси","name_original":"Tennessee","country":"Соединённые Штаты Америки","country_code":"us","region_code":"US-TN","address":{"ISO3166-2-lvl4":"US-TN"}},"id":"US-TN"}]}