{"type":"FeatureCollection","features":[{"type":"Feature","geometry":{"type":"GeometryCollection","geometries":[{"type":"Polygon","coordinates":[[[-104.44401,29.5892],[-103.127731,28.985508],[-102.68347,29.74372],[-101.40931,29.76578],[-99.16487,26.54045],[-98.22266,26.07541],[-97.13927,25.96581],[-97.082312,27.569016],[-93.845973,29.684338],[-93.55959,31.09712],[-93.8329,31.60345],[-93.83735,31.78135],[-94.04323,31.9982],[-94.04125,33.01094],[-94.04728,33.5534],[-94.04728,33.55415],[-94.4841,33.64742],[-95.22031,33.96294],[-96.32878,33.70186],[-99.99929,34.57547],[-100.00239,36.49986],[-103.04211,36.49959],[-103.06559,32.00169],[-106.66218,32.0003],[-104.44401,29.5892]]]}]},"properties":{"name":"Техас","name_original":"Texas","country":"Соединённые Штаты Америки","country_code":"us","region_code":"US-TX","address":{"ISO3166-2-lvl4":"US-TX"}},"id":"US-TX"}]}