{"type":"FeatureCollection","features":[{"type":"Feature","geometry":{"type":"Polygon","coordinates":[[[-111.05024,41.99983],[-114.04255,42.00008],[-114.0402,37.00313],[-109.04662,36.99981],[-109.04633,40.99983],[-111.04992,40.99983],[-111.04992,40.99991],[-111.04992,40.99998],[-111.04992,41.00005],[-111.04999,41.00005],[-111.05024,41.99983]]]},"properties":{"name":"Юта","name_original":"Utah","country":"Соединённые Штаты Америки","country_code":"us","region_code":"US-UT","address":{"ISO3166-2-lvl4":"US-UT"}},"id":"US-UT"}]}