{"type":"FeatureCollection","features":[{"type":"Feature","geometry":{"type":"Polygon","coordinates":[[[-73.346048,45.004012],[-73.428472,42.747175],[-72.458515,42.726651],[-72.55617,42.85982],[-72.39787,43.5314],[-72.06953,44.07261],[-71.98337,44.33921],[-71.8405,44.35721],[-71.543014,44.582154],[-71.635,44.74031],[-71.50012,44.908567],[-71.500873,45.0137],[-73.346048,45.004012]]]},"properties":{"name":"Вермонт","name_original":"Vermont","country":"Соединённые Штаты Америки","country_code":"us","region_code":"US-VT","address":{"ISO3166-2-lvl4":"US-VT"}},"id":"US-VT"}]}