{"type":"FeatureCollection","features":[{"type":"Feature","geometry":{"type":"GeometryCollection","geometries":[{"type":"Polygon","coordinates":[[[-75.8531,36.54903],[-75.898864,36.946666],[-75.233434,38.027837],[-75.90171,37.912821],[-76.932308,38.256925],[-77.03238,38.47163],[-77.190188,38.346755],[-77.327628,38.450973],[-77.018094,38.778298],[-77.032086,38.84715],[-77.11978,38.93406],[-77.513552,39.12506],[-77.45588,39.22815],[-77.73605,39.33155],[-77.83574,39.14417],[-78.32216,39.45083],[-78.87024,38.764949],[-78.992652,38.849066],[-79.302104,38.409079],[-79.476904,38.457384],[-79.54367,38.56067],[-79.64216,38.59226],[-80.28486,37.68514],[-80.29431,37.50923],[-80.46286,37.42801],[-80.512079,37.480089],[-81.22409,37.24434],[-81.3509,37.33531],[-81.6446,37.20935],[-81.96523,37.53868],[-83.660362,36.60973],[-81.675072,36.589996],[-75.8531,36.54903]]]}]},"properties":{"name":"Виргиния","name_original":"Virginia","country":"Соединённые Штаты Америки","country_code":"us","region_code":"US-VA","address":{"ISO3166-2-lvl4":"US-VA"}},"id":"US-VA"}]}