{"type":"FeatureCollection","features":[{"type":"Feature","geometry":{"type":"GeometryCollection","geometries":[{"type":"Polygon","coordinates":[[[-123.090506,48.992526],[-123.302576,48.275126],[-124.985778,48.508095],[-124.080681,46.263789],[-122.888241,46.104024],[-122.771582,45.660985],[-116.74351,45.995548],[-117.04011,46.39649],[-117.03815,48.99251],[-123.090506,48.992526]]]}]},"properties":{"name":"Вашингтон","name_original":"Washington","country":"Соединённые Штаты Америки","country_code":"us","region_code":"US-WA","address":{"ISO3166-2-lvl4":"US-WA"}},"id":"US-WA"}]}