{"type":"FeatureCollection","features":[{"type":"Feature","geometry":{"type":"Polygon","coordinates":[[[-82.55598,38.06817],[-81.96523,37.53868],[-81.6446,37.20935],[-81.3509,37.33531],[-81.22409,37.24434],[-80.512079,37.480089],[-80.46286,37.42801],[-80.29431,37.50923],[-80.28486,37.68514],[-79.64216,38.59226],[-79.54367,38.56067],[-79.476904,38.457384],[-79.302104,38.409079],[-78.992652,38.849066],[-78.87024,38.764949],[-78.32216,39.45083],[-77.83574,39.14417],[-77.73605,39.33155],[-77.832685,39.541832],[-78.13298,39.70135],[-78.243725,39.682693],[-79.48793,39.20987],[-79.47744,39.72176],[-80.5194,39.72149],[-80.519552,40.647025],[-80.66638,40.60887],[-80.67685,40.5888],[-80.60151,40.47139],[-80.61457,40.28643],[-80.87524,39.62879],[-81.342225,39.331433],[-81.455059,39.401213],[-81.687059,39.256324],[-81.78364,38.93272],[-82.02663,39.02207],[-82.33168,38.44361],[-82.58898,38.41875],[-82.55598,38.06817]]]},"properties":{"name":"Западная Виргиния","name_original":"West Virginia","country":"Соединённые Штаты Америки","country_code":"us","region_code":"US-WV","address":{"ISO3166-2-lvl4":"US-WV"}},"id":"US-WV"}]}