{"type":"FeatureCollection","features":[{"type":"Feature","geometry":{"type":"Polygon","coordinates":[[[-87.01882,42.49624],[-87.08705,43.87359],[-86.41445,45.30127],[-86.76357,45.44385],[-87.09245,45.44385],[-87.40332,45.20496],[-87.43605,45.07898],[-87.6704,45.13052],[-87.73356,45.19234],[-88.18022,45.95726],[-90.1185,46.34063],[-90.420184,46.566335],[-89.95764,47.28611],[-90.65397,47.30806],[-91.96486,46.72874],[-92.117606,46.767347],[-92.2916,46.65967],[-92.29257,46.08333],[-92.88198,45.71592],[-92.8832,45.57613],[-92.7509,45.55918],[-92.81979,44.75784],[-91.27951,43.87359],[-91.25014,43.50096],[-91.03298,42.72923],[-90.68732,42.64038],[-90.64128,42.51177],[-90.64099,42.51177],[-90.64074,42.51177],[-90.6405,42.51177],[-90.6402,42.51177],[-90.63991,42.51177],[-90.63967,42.51177],[-90.6394,42.51177],[-90.63911,42.51177],[-90.63884,42.51177],[-90.63857,42.51177],[-90.6383,42.51177],[-90.63803,42.51177],[-90.63774,42.51177],[-90.63749,42.51177],[-90.63718,42.51177],[-90.63691,42.51177],[-87.01882,42.49624]]]},"properties":{"name":"Висконсин","name_original":"Wisconsin","country":"Соединённые Штаты Америки","country_code":"us","region_code":"US-WI","address":{"ISO3166-2-lvl4":"US-WI"}},"id":"US-WI"}]}