{"type":"Feature","geometry":{"type":"Polygon","coordinates":[[[19.367771,41.848999],[19.373333,42.06694],[19.400276,42.10527],[19.282497,42.185555],[19.708885,42.658882],[19.75333,42.64222],[19.772778,42.589996],[19.746666,42.543053],[19.822498,42.471939],[20.071423,42.560913],[20.25222,42.32444],[20.508888,42.23027],[20.623333,41.966942],[20.583054,41.922218],[20.589642,41.882187],[20.568951,41.874542],[20.514164,41.727776],[20.533886,41.63472],[20.460552,41.515831],[20.562496,41.408051],[20.524166,41.350273],[20.497498,41.347221],[20.600613,41.093185],[20.669998,41.088051],[20.733887,40.911942],[20.984165,40.891663],[20.98349,40.855888],[21.041386,40.561943],[20.936943,40.464439],[20.791924,40.431541],[20.673885,40.101387],[20.421944,40.058052],[20.316109,39.993332],[20.414444,39.82444],[20.37611,39.787498],[20.306129,39.812119],[20.289444,39.803055],[20.317497,39.726105],[20.221664,39.648331],[20.013332,39.694717],[20.0036788,39.6817152],[19.979858,39.6855212],[19.987778,39.867218],[19.2634974,40.2576384],[19.367771,41.848999]]]},"properties":{"cca2":"al"}}