{"type":"Feature","geometry":{"type":"GeometryCollection","geometries":[{"type":"Polygon","coordinates":[[[45.222755,41.14193],[45.201096,41.118317],[45.081383,41.1161],[45.101379,41.056656],[45.368317,41.001656],[45.614159,40.87554],[45.574158,40.776375],[45.418877,40.71777],[45.391106,40.643326],[45.66277,40.375824],[46.00194,40.213608],[45.87305,40.01361],[45.603882,40.007767],[45.618317,39.967766],[45.793877,39.92526],[46.2111,39.5961],[46.364441,39.62498],[46.54805,39.544434],[46.500832,39.468323],[46.382484,39.438324],[46.616096,39.217209],[46.54554,39.189423],[46.459984,39.217484],[46.418602,39.20665],[46.523598,39.044159],[46.540375,38.875587],[46.178246,38.84115],[45.823044,39.545273],[45.330826,39.535271],[45.083321,39.768044],[44.778862,39.706383],[44.399155,40.00361],[43.673607,40.100822],[43.72054,40.166939],[43.606934,40.368889],[43.74249,40.770264],[43.46077,41.112961],[44.340546,41.212494],[44.875824,41.21859],[45.022942,41.29705],[45.046944,41.223312],[45.222755,41.14193]]]}]},"properties":{"cca2":"am"}}