{"type":"Feature","geometry":{"type":"Polygon","coordinates":[[[34.961388,29.360832],[35.00222,29.535],[34.97998,29.545753],[34.974625,29.577015],[35.164719,30.126389],[35.158607,30.444164],[35.462219,31.121109],[35.411385,31.225277],[35.478195,31.497322],[35.55941,31.76535],[35.5164649,32.0420856],[35.573296,32.225548],[35.552567,32.394196],[35.571938,32.645828],[35.627762,32.686096],[35.648888,32.685272],[35.763321,32.748886],[35.933609,32.718887],[36.079994,32.543327],[36.197495,32.533333],[36.400276,32.381943],[36.837776,32.313606],[38.794701,33.377594],[39.196743,32.154942],[39.004997,32.005554],[37.005272,31.505554],[38.001389,30.504166],[37.667496,30.336388],[37.502777,30.00222],[36.743607,29.864719],[36.500549,29.502777],[36.07,29.188889],[34.961388,29.360832]]]},"properties":{"cca2":"jo"}}