{"type":"FeatureCollection","features":[{"type":"Feature","geometry":{"type":"GeometryCollection","geometries":[{"type":"Polygon","coordinates":[[[7.18894,53.330876],[6.972176,53.329467],[6.926814,53.476181],[6.054707,53.554747],[4.607154,53.382353],[3.964107,52.038257],[3.285162,51.412848],[3.907215,51.204467],[4.43639,51.378883],[4.393888,51.450272],[4.55083,51.47944],[4.546944,51.425827],[4.67139,51.42776],[4.757222,51.496666],[4.845555,51.48111],[4.828951,51.423723],[4.929999,51.398605],[5.03555,51.487221],[5.104444,51.434998],[5.07667,51.398888],[5.14,51.320831],[5.510833,51.294441],[5.568334,51.22071],[5.834444,51.165833],[5.855111,51.148338],[5.640555,50.86305],[5.655555,50.822495],[5.883887,50.748517],[6.011798,50.757271],[6.013888,50.84166],[6.088622,50.852734],[6.025934,50.983887],[5.891666,50.972771],[5.866944,51.04805],[6.0975,51.131104],[6.076388,51.240273],[6.222221,51.361664],[6.2075,51.509995],[5.95205,51.747528],[5.9625,51.807777],[6.182221,51.895271],[6.35111,51.848053],[6.685555,51.914162],[6.720555,51.897774],[6.841916,51.985243],[6.728611,52.035271],[6.759428,52.114563],[7.053094,52.23776],[7.059759,52.457898],[6.711017,52.464793],[6.724368,52.642617],[7.05994,52.638158],[7.069722,52.814995],[7.197778,52.965],[7.18894,53.330876]]]}]},"properties":{"cca2":"nl"}}]}