{"type":"Feature","geometry":{"type":"Polygon","coordinates":[[[35.2080541,32.546387],[35.06435,32.46314],[34.979164,32.15305],[35.03011,31.85701],[34.99854,31.85384],[34.97874,31.83733],[34.98031,31.83132],[35.00155,31.8285],[35.02749,31.83273],[35.05602,31.85332],[35.13696,31.81429],[35.18617,31.80874],[35.18359,31.82512],[35.19664,31.82644],[35.21327,31.81876],[35.21576,31.82011],[35.20525,31.87725],[35.22202,31.87918],[35.23335,31.84261],[35.25723,31.83859],[35.25157,31.83128],[35.26494,31.82627],[35.24242,31.71085],[35.14895,31.73735],[35.0016631,31.64694],[34.9613651,31.6033551],[34.884438,31.4047199],[34.922775,31.352219],[35.211105,31.374996],[35.3960801,31.4921191],[35.4781951,31.4973221],[35.55941,31.76535],[35.516465,32.0420857],[35.573296,32.225548],[35.552567,32.394196],[35.4811099,32.4127729],[35.412216,32.500832],[35.2080541,32.546387]]]},"properties":{"name":"Западный берег реки Иордан","name_original":"West Bank","country":"Палестина","country_code":"ps","region_code":"PS-WE","address":{"ISO3166-2-lvl4":"PS-WE"}},"id":"PS-WE"}