{"type":"Feature","geometry":{"type":"GeometryCollection","geometries":[{"type":"Polygon","coordinates":[[[25.106106,56.197212],[25.696941,56.115273],[26.613209,55.674835],[26.62666,55.593048],[26.457218,55.349716],[26.554718,55.313049],[26.645828,55.330276],[26.783886,55.308884],[26.813885,55.274994],[26.521385,55.148331],[26.284164,55.148048],[26.1616507,54.9784453],[25.87722,54.942215],[25.78889,54.87027],[25.547497,54.332771],[25.568886,54.313606],[25.705273,54.335266],[25.807774,54.248047],[25.785275,54.16054],[25.551941,54.143051],[25.504719,54.183052],[25.575829,54.23638],[25.50333,54.301933],[25.471661,54.306099],[24.505833,53.946098],[23.50404,53.947044],[23.51722,54.047218],[23.45916,54.172768],[22.870274,54.408043],[22.7922355,54.3638685],[22.7364391,54.4429167],[22.7011825,54.4536136],[22.7416175,54.728253],[22.8779086,54.790805],[22.8554189,54.8868825],[22.5892361,55.070243],[22.1828,55.0537418],[20.9097502,55.2900688],[21.051685,56.077309],[21.204716,56.083878],[21.34583,56.23555],[22.067219,56.419441],[24.558331,56.28833],[24.87944,56.448601],[24.922218,56.439987],[25.106106,56.197212]]]}]},"properties":{"cca2":"lt"}}