{"type":"Feature","geometry":{"type":"GeometryCollection","geometries":[{"type":"Polygon","coordinates":[[[169.26034,-52.6606698],[168.8582576,-52.5282873],[169.2864917,-52.4400314],[169.3518709,-52.5660571],[169.26034,-52.6606698]]]},{"type":"Polygon","coordinates":[[[166.4169441,-50.4446997],[166.4661319,-50.933798],[165.8095815,-50.9661336],[165.8758781,-50.4569553],[166.4169441,-50.4446997]]]},{"type":"Polygon","coordinates":[[[178.7079794,-49.7222519],[178.7103636,-49.6235037],[178.8836159,-49.6337994],[178.8295739,-49.7299582],[178.7079794,-49.7222519]]]},{"type":"Polygon","coordinates":[[[166.6343184,-48.0554382],[166.564697,-48.045837],[166.5667063,-47.9947092],[166.631622,-47.99667],[166.6343184,-48.0554382]]]},{"type":"Polygon","coordinates":[[[179.0796329,-47.77667],[178.9941239,-47.7664312],[179.0029673,-47.7327264],[179.0909334,-47.7406585],[179.0796329,-47.77667]]]},{"type":"Polygon","coordinates":[[[168.2349978,-47.2401339],[167.2179149,-47.2935488],[167.6588099,-46.9014845],[167.6256667,-46.6873437],[167.9971483,-46.6559368],[168.2279526,-46.8747265],[168.2349978,-47.2401339]]]},{"type":"Polygon","coordinates":[[[-176.379989,-44.2307297],[-176.0942611,-44.1935958],[-176.1052506,-44.3722983],[-176.35644,-44.3823972],[-176.379989,-44.2307297]]]},{"type":"Polygon","coordinates":[[[-176.1609442,-43.6648651],[-176.149721,-44.1247007],[-176.7862388,-44.1672689],[-177.1036961,-43.6706639],[-176.1609442,-43.6648651]]]},{"type":"Polygon","coordinates":[[[174.5773251,-40.906871],[174.2050413,-41.6252904],[174.4186018,-41.7546415],[170.2104869,-47.0314688],[166.3625678,-46.2487696],[166.0938777,-45.1743442],[170.4645575,-42.8480491],[172.2019781,-40.3543769],[174.5773251,-40.906871]]]},{"type":"Polygon","coordinates":[[[178.7977581,-37.7884405],[175.7232776,-41.7741122],[174.5248519,-41.2809609],[175.042683,-40.1118121],[173.5781671,-39.5121785],[173.7028672,-38.9766334],[174.4522847,-38.8127386],[174.3130021,-37.014701],[172.4872544,-34.4381085],[173.087292,-34.3372017],[176.1064775,-36.7642065],[176.3069798,-37.3866247],[177.3109337,-37.7555055],[178.0289934,-37.3760584],[178.7977581,-37.7884405]]]},{"type":"Polygon","coordinates":[[[172.1007369,-34.143286],[172.1416374,-34.1337586],[172.1808234,-34.1491641],[172.1406577,-34.1834108],[172.1007369,-34.143286]]]},{"type":"Polygon","coordinates":[[[-178.5444638,-30.5433566],[-178.5549977,-30.5512188],[-178.5792256,-30.5379131],[-178.5676383,-30.5249079],[-178.5444638,-30.5433566]]]},{"type":"Polygon","coordinates":[[[-177.8402163,-29.2621623],[-177.9265113,-29.3245489],[-178.0213221,-29.2448259],[-177.9696587,-29.2071711],[-177.8402163,-29.2621623]]]}]},"properties":{"cca2":"nz"}}