{"type":"Feature","geometry":{"type":"Polygon","coordinates":[[[149.4044,-35.32792],[149.1271,-35.13951],[148.93952,-35.2487],[148.8019,-35.34616],[148.77488,-35.65979],[148.89218,-35.76226],[148.94815,-35.88789],[149.05574,-35.91062],[149.09641,-35.77668],[149.09047,-35.59979],[149.19496,-35.37479],[149.39308,-35.34068],[149.4044,-35.32792]]]},"properties":{"name":"Австралийская столичная территория","name_original":"Australian Capital Territory","country":"Австралия","country_code":"au","region_code":"AU-AC","address":{"ISO3166-2-lvl4":"AU-AC"}},"id":"AU-AC"}