{"type":"Feature","geometry":{"type":"GeometryCollection","geometries":[{"type":"Polygon","coordinates":[[[154.39129,-21.03004],[154.39129,-21.02874],[154.38852,-21.02907],[154.39129,-21.03004]]]},{"type":"Polygon","coordinates":[[[155.1777675,-22.1894496],[155.177513,-22.184735],[155.1725486,-22.1876227],[155.1777675,-22.1894496]]]},{"type":"Polygon","coordinates":[[[155.4558379,-22.1714239],[155.4598111,-22.1749833],[155.4637844,-22.1726637],[155.4610237,-22.169239],[155.4558379,-22.1714239]]]},{"type":"Polygon","coordinates":[[[153.5525,-21.91115],[153.5525,-21.90919],[153.55161,-21.91115],[153.5525,-21.91115]]]},{"type":"Polygon","coordinates":[[[153.55616,-21.91041],[153.55706,-21.91058],[153.55673,-21.90887],[153.55616,-21.91041]]]},{"type":"Polygon","coordinates":[[[153.50668,-21.89121],[153.50766,-21.89186],[153.50864,-21.89186],[153.50864,-21.89121],[153.50766,-21.89056],[153.50668,-21.89121]]]},{"type":"Polygon","coordinates":[[[153.64177,-21.85874],[153.64275,-21.85866],[153.64243,-21.85719],[153.64177,-21.85874]]]},{"type":"Polygon","coordinates":[[[153.76108,-21.63624],[153.76271,-21.63649],[153.76271,-21.63584],[153.7623,-21.63462],[153.76108,-21.63624]]]},{"type":"Polygon","coordinates":[[[155.7096436,-21.2760021],[155.7132828,-21.2750773],[155.7126211,-21.2711723],[155.7065559,-21.2710695],[155.7096436,-21.2760021]]]},{"type":"Polygon","coordinates":[[[155.7695238,-21.2576069],[155.7749273,-21.2576069],[155.7754787,-21.2542153],[155.767208,-21.2513376],[155.7695238,-21.2576069]]]},{"type":"Polygon","coordinates":[[[148.51612,-17.86533],[148.51417,-17.86622],[148.5147998,-17.8686468],[148.51694,-17.86761],[148.51612,-17.86533]]]},{"type":"Polygon","coordinates":[[[148.44068,-17.73594],[148.44337,-17.73211],[148.43946,-17.73406],[148.44068,-17.73594]]]},{"type":"Polygon","coordinates":[[[148.42913,-17.65602],[148.43076,-17.65626],[148.43157,-17.65537],[148.43043,-17.65423],[148.42913,-17.65602]]]},{"type":"Polygon","coordinates":[[[149.9091509,-16.9641978],[149.9031037,-16.9653546],[149.9059045,-16.9731477],[149.9117608,-16.9701644],[149.9091509,-16.9641978]]]},{"type":"Polygon","coordinates":[[[150.0089863,-16.9328054],[149.99627,-16.9367],[150.005065,-16.9420391],[150.0089863,-16.9328054]]]},{"type":"Polygon","coordinates":[[[147.88185,-16.47934],[147.87989,-16.48024],[147.88144,-16.48227],[147.8833474,-16.4813657],[147.88185,-16.47934]]]},{"type":"Polygon","coordinates":[[[149.9947646,-16.213502],[149.9913936,-16.2096986],[149.9896238,-16.2139066],[149.993669,-16.2167389],[149.9947646,-16.213502]]]},{"type":"Polygon","coordinates":[[[150.0067147,-16.1163875],[150.0040759,-16.1087822],[149.9897956,-16.1106463],[149.9918911,-16.1149708],[150.0067147,-16.1163875]]]},{"type":"Polygon","coordinates":[[[153.48854,-21.84677],[153.48658,-21.84767],[153.48813,-21.8497],[153.4905103,-21.8486293],[153.48854,-21.84677]]]},{"type":"Polygon","coordinates":[[[149.9605492,-16.2832645],[149.9620367,-16.2922514],[149.9711369,-16.28738],[149.9605492,-16.2832645]]]}]},"properties":{"name":"Территория островов Кораллового моря","name_original":"Coral Sea Islands","country":"Австралия","country_code":"au","region_code":"AU-CSI","address":{"ISO3166-2-lvl4":"AU-CSI"}},"id":"AU-CSI"}