{"type":"Feature","geometry":{"type":"MultiPolygon","coordinates":[[[[140.9794491,-33.9849829],[149.97208,-37.51029],[150.61305,-35.18727],[150.63642,-35.14447],[150.67352,-35.12426],[150.70378,-35.12044],[152.9542338,-32.2203623],[153.6404354,-28.1244026],[148.96634,-28.99993],[141.00011,-28.99993],[140.9794491,-33.9849829]]],[[[159.0171853,-31.5113535],[159.0627809,-31.6074725],[159.1358621,-31.5904188],[159.07705,-31.4976107],[159.0171853,-31.5113535]]]]},"properties":{"name":"Новый Южный Уэльс","name_original":"New South Wales","country":"Австралия","country_code":"au","region_code":"AU-NS","address":{"ISO3166-2-lvl4":"AU-NS"}},"id":"AU-NS"}