{"type":"Feature","geometry":{"type":"GeometryCollection","geometries":[{"type":"Polygon","coordinates":[[[129.00012,-14.86815],[129.00012,-25.99991],[138.00019,-25.99991],[138.00017,-16.5416],[137.0880157,-15.5418951],[135.7044774,-14.7608088],[137.216236,-11.7457966],[133.2576424,-11.4698311],[133.0113709,-10.9075742],[131.5813428,-10.9794336],[131.7047245,-11.6128567],[132.3789539,-11.5940886],[132.4946706,-11.972364],[131.2271322,-12.0170158],[130.1071212,-12.4471444],[129.00012,-14.86815]]]},{"type":"Polygon","coordinates":[[[136.5296651,-13.5611218],[136.2505496,-14.2041387],[136.9608388,-14.343486],[137.018238,-14.1459381],[136.7839771,-14.1074692],[137.0667305,-13.6250849],[136.5296651,-13.5611218]]]},{"type":"Polygon","coordinates":[[[130.0442156,-12.036793],[131.023807,-11.9760644],[131.568791,-11.7566535],[131.4239218,-11.0059801],[130.3408524,-11.1278445],[129.8693332,-11.4224928],[130.0442156,-12.036793]]]}]},"properties":{"name":"Северная территория","name_original":"Northern Territory","country":"Австралия","country_code":"au","region_code":"AU-NT","address":{"ISO3166-2-lvl4":"AU-NT"}},"id":"AU-NT"}