{"type":"Feature","geometry":{"type":"GeometryCollection","geometries":[{"type":"Polygon","coordinates":[[[138.00017,-16.5416],[138.00019,-25.99991],[141.00011,-25.99991],[141.00011,-28.99993],[148.96634,-28.99993],[153.6404354,-28.1244026],[153.6672043,-24.8489082],[151.2178679,-22.8027883],[142.9885131,-10.459597],[141.6338989,-10.5091137],[140.6588798,-17.4014158],[139.8952558,-17.4142283],[139.2470278,-16.9096911],[138.00017,-16.5416]]]},{"type":"Polygon","coordinates":[[[139.0055112,-16.6399117],[139.2704046,-16.8356451],[139.8476107,-16.5192402],[139.5630955,-16.2572656],[139.0055112,-16.6399117]]]},{"type":"Polygon","coordinates":[[[142.3854535,-10.1189385],[142.0878448,-10.0286007],[142.0569961,-10.1608383],[142.3081277,-10.2927869],[142.3854535,-10.1189385]]]},{"type":"Polygon","coordinates":[[[142.6019762,-9.3562409],[142.5683979,-9.4460668],[142.8399499,-9.4392267],[142.8213009,-9.3409485],[142.6019762,-9.3562409]]]},{"type":"Polygon","coordinates":[[[142.1120954,-9.2333023],[142.117518,-9.2911653],[142.3207397,-9.3141983],[142.3404645,-9.2441183],[142.1120954,-9.2333023]]]}]},"properties":{"name":"Квинсленд","name_original":"Queensland","country":"Австралия","country_code":"au","region_code":"AU-QL","address":{"ISO3166-2-lvl4":"AU-QL"}},"id":"AU-QL"}