{"type":"Feature","geometry":{"type":"GeometryCollection","geometries":[{"type":"Polygon","coordinates":[[[129.00009,-31.68922],[131.3925535,-31.6861386],[133.7382614,-32.3669938],[135.1085481,-35.1042441],[136.422525,-34.9207477],[139.5028262,-36.2739145],[139.5510534,-37.0194392],[140.4586561,-38.101163],[140.96817,-38.05943],[141.00011,-25.99991],[141,-25.99991],[140.9999,-25.99991],[140.99975,-25.99991],[140.99964,-25.99991],[129.00012,-25.99991],[129.00009,-31.68922]]]},{"type":"Polygon","coordinates":[[[137.5235191,-35.496045],[136.2801959,-35.7167661],[136.6178,-36.1926548],[138.3617085,-35.8624771],[137.5235191,-35.496045]]]}]},"properties":{"name":"Южная Австралия","name_original":"South Australia","country":"Австралия","country_code":"au","region_code":"AU-SA","address":{"ISO3166-2-lvl4":"AU-SA"}},"id":"AU-SA"}