{"type":"Feature","geometry":{"type":"GeometryCollection","geometries":[{"type":"Polygon","coordinates":[[[148.3334104,-40.6647851],[146.3117216,-40.944359],[144.4593353,-40.4630909],[145.2972697,-43.0488586],[145.8263773,-43.698846],[148.3111716,-43.5998393],[148.3334104,-40.6647851]]]},{"type":"Polygon","coordinates":[[[148.6123809,-40.5388272],[148.1234706,-39.586242],[147.4867308,-39.7797401],[147.9919677,-40.6404931],[148.6123809,-40.5388272]]]},{"type":"Polygon","coordinates":[[[144.1899197,-39.580275],[143.7480304,-39.5908075],[143.7821971,-40.1763319],[144.1990308,-40.1206173],[144.1899197,-39.580275]]]}]},"properties":{"name":"Тасмания","name_original":"Tasmania","country":"Австралия","country_code":"au","region_code":"AU-TS","address":{"ISO3166-2-lvl4":"AU-TS"}},"id":"AU-TS"}