{"type":"Feature","geometry":{"type":"GeometryCollection","geometries":[{"type":"Polygon","coordinates":[[[149.97208,-37.51029],[140.979449,-33.9849828],[140.96817,-38.05943],[141.314165,-38.4110315],[143.5626768,-38.9217365],[144.4946267,-38.3593214],[146.3918872,-39.195475],[147.955613,-37.9351212],[149.4995303,-37.8406719],[149.97208,-37.51029]]]}]},"properties":{"name":"Виктория","name_original":"Victoria","country":"Австралия","country_code":"au","region_code":"AU-VI","address":{"ISO3166-2-lvl4":"AU-VI"}},"id":"AU-VI"}