{"type":"Feature","geometry":{"type":"GeometryCollection","geometries":[{"type":"Polygon","coordinates":[[[129.00012,-14.86815],[125.3517917,-13.3845862],[120.9546623,-19.1488649],[113.6923895,-21.6212786],[112.4115364,-25.4830567],[114.571917,-29.485002],[115.5190589,-33.3402499],[114.855112,-33.4453479],[114.8822157,-34.4154098],[116.9743208,-35.3264384],[118.4074897,-35.1784549],[120.9390305,-33.9299229],[123.6157457,-34.0851497],[125.1167522,-32.904394],[129.00009,-31.68922],[129.00012,-25.99991],[129.00012,-14.86815]]]}]},"properties":{"name":"Западная Австралия","name_original":"Western Australia","country":"Австралия","country_code":"au","region_code":"AU-WA","address":{"ISO3166-2-lvl4":"AU-WA"}},"id":"AU-WA"}