{"type":"Feature","geometry":{"type":"GeometryCollection","geometries":[{"type":"Polygon","coordinates":[[[97.9758545,9.8086197],[98.0203175,9.8607592],[98.0788708,9.8292914],[98.0538213,9.7700496],[97.9758545,9.8086197]]]},{"type":"Polygon","coordinates":[[[98.3165784,10.0112023],[98.2757384,10.0052556],[98.1622667,9.8298312],[98.0972353,9.8511894],[98.15748,10.0225277],[98.1639981,10.2085974],[98.3562322,10.1630278],[98.3165784,10.0112023]]]},{"type":"Polygon","coordinates":[[[97.8850147,10.3884219],[97.8707309,10.5231085],[98.0308766,10.6249345],[98.0697084,10.5652235],[97.9559044,10.5047448],[97.9764083,10.4074563],[97.8850147,10.3884219]]]},{"type":"Polygon","coordinates":[[[98.1799066,10.4370228],[98.1451381,10.5297109],[98.2486712,10.5376868],[98.2733955,10.4442414],[98.1799066,10.4370228]]]},{"type":"Polygon","coordinates":[[[97.9182315,10.8269306],[97.8615589,10.8418716],[97.9027211,10.9443873],[97.9701317,10.9364802],[97.9182315,10.8269306]]]},{"type":"Polygon","coordinates":[[[98.2928039,10.857272],[98.3063092,10.6303139],[98.2121451,10.6341931],[98.2120345,10.7812739],[98.0196594,10.8584589],[98.1709551,11.0136394],[98.2928039,10.857272]]]},{"type":"Polygon","coordinates":[[[98.2246567,11.1764285],[98.1832453,11.3123375],[98.2887336,11.3441234],[98.3007142,11.1883306],[98.2246567,11.1764285]]]},{"type":"Polygon","coordinates":[[[98.382156,11.5039254],[98.3590254,11.7868339],[98.5508801,11.8086362],[98.5560378,11.5023246],[98.382156,11.5039254]]]},{"type":"Polygon","coordinates":[[[97.4365858,11.7497544],[97.396368,11.8192729],[97.5003546,11.8494157],[97.544558,11.7749392],[97.4365858,11.7497544]]]},{"type":"Polygon","coordinates":[[[98.08998,11.631109],[97.9982339,11.6318778],[97.9433568,11.8580561],[98.1177245,11.8502599],[98.08998,11.631109]]]},{"type":"Polygon","coordinates":[[[97.6182071,11.8043518],[97.5918806,11.9143735],[97.7014557,11.9157658],[97.696475,11.819674],[97.6182071,11.8043518]]]},{"type":"Polygon","coordinates":[[[98.1803729,11.9825967],[98.2789802,12.010729],[98.346568,11.8141899],[98.2995229,11.4247132],[98.1529815,11.4448486],[98.2427756,11.7966927],[98.1803729,11.9825967]]]},{"type":"Polygon","coordinates":[[[97.995807,12.2310307],[98.073327,12.3063892],[98.1435913,12.2982017],[98.1448567,12.1142939],[97.995807,12.2310307]]]},{"type":"Polygon","coordinates":[[[98.0005852,12.2516578],[97.8860732,12.377193],[98.0849512,12.4761007],[98.1358984,12.3753943],[98.0005852,12.2516578]]]},{"type":"Polygon","coordinates":[[[97.7824581,12.5876824],[97.8720634,12.6395476],[97.8935138,12.5604873],[97.8417674,12.5177463],[97.7824581,12.5876824]]]},{"type":"Polygon","coordinates":[[[98.2064447,12.3164385],[98.177952,12.7158661],[98.5351995,12.6584946],[98.4998706,12.3202735],[98.2064447,12.3164385]]]},{"type":"Polygon","coordinates":[[[97.8923578,12.7749083],[97.8358818,12.7557937],[97.8162828,12.8304832],[97.8681169,12.835512],[97.8923578,12.7749083]]]},{"type":"Polygon","coordinates":[[[98.2684758,12.9193784],[98.2040969,13.2205684],[98.2748231,13.2364567],[98.3772853,12.9732839],[98.2684758,12.9193784]]]},{"type":"Polygon","coordinates":[[[93.3433583,14.0534888],[93.3284342,14.1622396],[93.3849039,14.1602841],[93.3869207,14.055054],[93.3433583,14.0534888]]]},{"type":"Polygon","coordinates":[[[93.6207418,14.8326189],[93.5938051,14.8329364],[93.610887,14.9075479],[93.6535915,14.9031036],[93.6207418,14.8326189]]]},{"type":"Polygon","coordinates":[[[98.734985,27.317219],[98.605255,25.988605],[98.608597,25.984718],[97.550537,24.738049],[97.759995,24.257496],[97.536377,23.95055],[97.649979,23.851704],[97.912491,24.026661],[98.837463,24.124264],[98.927475,23.189163],[99.51816,23.073463],[99.163315,22.165272],[99.964432,22.04888],[100.123871,21.504719],[100.725273,21.513332],[100.840553,21.650272],[101.12056,21.77052],[101.161652,21.530552],[100.170258,20.620552],[100.107758,20.368328],[99.522766,20.352776],[99.53387,20.147217],[99.068878,20.090832],[99.00333,19.786942],[98.242203,19.689995],[98.080826,19.80861],[98.045532,19.79833],[98.037491,19.648052],[97.86908,19.570175],[97.79248,19.401939],[97.834152,19.289997],[97.83638,19.101109],[97.67886,18.938885],[97.747757,18.86555],[97.7747,18.569996],[97.396103,18.488884],[97.750275,17.97749],[97.69026,17.853886],[98.37469,17.05055],[98.4236,17.053329],[98.54999,16.854717],[98.478043,16.740829],[98.5636,16.630829],[98.689697,16.284996],[98.71582,16.276386],[98.86499,16.438606],[98.92804,16.38583],[98.913315,16.254166],[98.823883,16.10861],[98.704987,16.130276],[98.631653,16.046108],[98.558868,15.329998],[98.503601,15.38722],[98.425812,15.363609],[98.420258,15.28416],[98.205475,15.226778],[98.201096,15.074999],[98.259995,14.816666],[98.447754,14.605831],[98.610809,14.32666],[98.971649,14.08361],[99.173965,13.727781],[99.208603,13.20666],[99.120819,13.175831],[99.11415,13.050831],[99.305252,12.665276],[99.436234,12.574434],[99.42886,12.498886],[99.49971,12.188332],[99.571381,12.14139],[99.563309,12.10166],[99.589432,11.872498],[99.626648,11.834442],[99.661652,11.82694],[99.635818,11.733608],[98.897919,10.776527],[98.855545,10.767221],[98.7736,10.63028],[98.823883,10.516666],[98.5581259,9.9321277],[98.4588939,9.9179923],[98.3885973,11.0491616],[98.6697103,11.1829935],[98.6603656,11.6238603],[98.3953248,12.1133212],[98.523506,12.1201448],[98.5642953,12.6817301],[98.3175481,13.4554824],[98.0705388,13.5293868],[97.2669867,16.5903956],[96.8441035,16.6297391],[95.8107858,16.0654971],[95.4897469,15.6757098],[94.0335267,15.9407925],[94.4793958,17.6315879],[92.373871,20.700829],[92.3653421,20.7492509],[92.207489,21.14361],[92.222214,21.358051],[92.386383,21.469994],[92.583054,21.26833],[92.669342,21.296982],[92.600815,21.982216],[92.705551,22.158329],[92.924423,22.004997],[93.16333,22.19165],[93.13081,23.034996],[93.31749,23.029163],[93.351242,24.087646],[94.151093,23.855274],[94.734421,25.119717],[94.588882,25.189995],[94.628311,25.402218],[94.996368,25.732216],[95.15248,26.623329],[96.621918,27.365829],[96.855255,27.262775],[97.059723,27.093002],[97.1586,27.12055],[96.886658,27.606106],[97.361099,27.94083],[97.548599,28.54],[97.908875,28.376385],[98.734985,27.317219]]]}]},"properties":{"cca2":"mm"}}