{"type":"FeatureCollection","features":[{"type":"Feature","geometry":{"type":"Polygon","coordinates":[[[-78.665558,-4.554445],[-79.054825,-5.009132],[-79.448624,-4.789722],[-79.496272,-4.520094],[-80.168335,-4.291112],[-80.370573,-4.489526],[-80.482788,-4.412778],[-80.369581,-4.28492],[-80.501221,-4.055346],[-80.143011,-3.913529],[-80.28198,-3.32609],[-82.098521,-4.539398],[-76.272053,-14.733308],[-70.414568,-18.404993],[-69.469116,-17.500614],[-69.656189,-17.287247],[-68.828031,-16.351887],[-68.935928,-16.218443],[-69.233643,-16.175977],[-69.421951,-15.618057],[-68.673904,-12.50115],[-69.568436,-10.951092],[-70.631393,-11.009167],[-70.628067,-9.835556],[-70.525668,-9.72503],[-70.682838,-9.529788],[-72.14389,-10.004723],[-73.996399,-7.561667],[-72.279175,-4.763612],[-70.420563,-4.130279],[-70.129419,-4.409595],[-69.94417,-4.21583],[-70.724167,-3.779723],[-70.067505,-2.755556],[-70.226669,-2.55833],[-72.88196,-2.506389],[-74.60751,-0.38361],[-75.381984,-0.165864],[-75.459167,-0.295],[-75.246124,-0.554167],[-75.242302,-0.639692],[-75.283432,-0.656215],[-75.217117,-0.976062],[-75.402237,-0.922778],[-75.559174,-1.534167],[-76.074173,-2.131111],[-76.660629,-2.572135],[-77.857224,-2.984445],[-78.369171,-3.524167],[-78.665558,-4.554445]]]},"properties":{"cca2":"pe"}}]}