{"type":"FeatureCollection","features":[{"type":"Feature","geometry":{"type":"GeometryCollection","geometries":[{"type":"Polygon","coordinates":[[[28.457497,68.53194],[29.29472,69.49527],[27.968887,70.057495],[25.97416,69.635269],[24.93492,68.580811],[22.398331,68.7111],[21.704132,68.628031],[22.82361,68.388046],[23.666111,67.941666],[23.486942,67.86916],[24.160553,65.84],[17.818598,61.556991],[19.767477,59.829202],[21.196075,59.439965],[27.534682,60.348229],[31.588928,62.914413],[30.254719,63.58972],[30.13361,65.676941],[29.086388,66.860825],[30.02861,67.69472],[28.457497,68.53194]]]}]},"properties":{"cca2":"fi"}}]}