{"type":"FeatureCollection","features":[{"type":"Feature","geometry":{"type":"Polygon","coordinates":[[[-54.598915,-25.573223],[-54.288612,-24.020279],[-55.396667,-23.971111],[-55.74556,-22.395279],[-57.985107,-22.091827],[-57.850281,-21.336945],[-58.15889,-20.168056],[-58.15139,-19.828056],[-59.09584,-19.348892],[-61.7425,-19.645],[-62.561229,-21.998145],[-62.643768,-22.238903],[-61.012222,-23.810558],[-59.98278,-24.042778],[-57.73278,-25.240559],[-57.55584,-25.438057],[-57.576668,-25.549446],[-58.14473,-26.206947],[-58.316673,-26.87278],[-58.655006,-27.163334],[-58.604622,-27.316921],[-57.735558,-27.305279],[-57.129448,-27.489723],[-56.279167,-27.475281],[-56.275558,-27.402225],[-56.064445,-27.30278],[-55.888062,-27.333889],[-55.761116,-27.443336],[-55.405556,-26.976391],[-54.95723,-26.778336],[-54.69278,-26.428337],[-54.663063,-25.977222],[-54.604446,-25.943611],[-54.598915,-25.573223]]]},"properties":{"cca2":"py"}}]}