{"type":"FeatureCollection","features":[{"type":"Feature","geometry":{"type":"GeometryCollection","geometries":[{"type":"Polygon","coordinates":[[[-83.13185,14.992979],[-84.489731,14.618055],[-84.8389,14.830555],[-85.736389,13.828609],[-86.11639,14.034443],[-86.33835,13.757776],[-86.763016,13.751621],[-86.70251,13.287222],[-86.899287,13.295537],[-86.95668,13.03583],[-87.04918,12.98055],[-87.065306,13.002389],[-87.30139,12.986599],[-87.528213,13.170094],[-87.729417,12.931548],[-85.761369,11.082747],[-85.692383,11.076061],[-85.61446,11.21361],[-84.90279,10.940832],[-84.67445,11.07805],[-83.91556,10.708611],[-83.65779,10.803888],[-83.645798,10.924847],[-83.825614,11.27835],[-83.637363,11.600758],[-83.142221,14.179623],[-83.13185,14.992979]]]}]},"properties":{"cca2":"ni"}}]}