{"type":"FeatureCollection","features":[{"type":"Feature","geometry":{"type":"GeometryCollection","geometries":[{"type":"Polygon","coordinates":[[[30.91,69.548874],[31.796859,70.396112],[26.699646,71.540481],[12.718694,69.333431],[3.65052,60.659936],[5.774194,57.912929],[8.054861,57.881322],[11.750832,59.174438],[12.139444,63.58416],[12.846943,64.025269],[13.981667,64.013046],[14.505,66.132492],[15.468054,66.28387],[17.273609,68.090546],[22.398331,68.7111],[24.93492,68.580811],[25.97416,69.635269],[27.968887,70.057495],[29.29472,69.49527],[30.91,69.548874]]]}]},"properties":{"cca2":"no"}}]}