{"type":"Feature","geometry":{"type":"Polygon","coordinates":[[[18.455555,42.565826],[18.576385,42.663055],[18.454441,42.833328],[18.697777,43.252495],[18.91972,43.357216],[19.016666,43.239441],[19.093609,43.308884],[19.027496,43.429161],[18.960278,43.452499],[18.948608,43.505272],[19.006664,43.555832],[19.228809,43.513214],[19.254719,43.459999],[19.444164,43.373604],[19.641941,43.186104],[20.297497,42.926384],[20.382774,42.835548],[20.231941,42.761108],[20.039444,42.766106],[19.975277,42.707497],[20.10722,42.654442],[20.071423,42.560913],[19.822498,42.471939],[19.746666,42.543053],[19.772778,42.589996],[19.75333,42.64222],[19.708885,42.658882],[19.282497,42.185555],[19.400276,42.10527],[19.373333,42.06694],[19.367771,41.848999],[18.5322225,42.3849925],[18.455555,42.565826]]]},"properties":{"cca2":"me"}}