{"type":"FeatureCollection","features":[{"type":"Feature","geometry":{"type":"GeometryCollection","geometries":[{"type":"Polygon","coordinates":[[[11.69713,56.192743],[11.715286,56.192894],[11.71569,56.201017],[11.692444,56.200808],[11.69713,56.192743]]]},{"type":"Polygon","coordinates":[[[12.226061,55.743075],[12.236033,55.699897],[12.150475,55.671035],[12.159593,55.61282],[12.491232,55.60058],[12.55383,55.550345],[12.749252,55.55675],[12.873091,55.61884],[12.545638,55.92417],[12.654162,56.041201],[12.24526,56.165921],[11.814025,55.984193],[11.844534,55.73539],[12.098606,55.720222],[12.083305,55.780933],[12.226061,55.743075]]]},{"type":"Polygon","coordinates":[[[15.18513,55.143178],[14.731427,55.329532],[14.626075,55.062616],[15.150243,54.954582],[15.18513,55.143178]]]}]},"properties":{"place_id":136623948,"osm_type":"relation","osm_id":1320608,"place_rank":8,"category":"boundary","type":"administrative","importance":0.573273311902838,"addresstype":"state","name":"Столичная область","display_name":"Столичная область, Дания","address":{"state":"Ховедстаден","ISO3166-2-lvl4":"DK-84","country":"Дания","country_code":"dk"},"name_original":"Ховедстаден","name_ru":"Ховедстаден","name_en":"khovedstaden","country":"Дания","country_code":"dk"},"bbox":[11.6820446,54.9872394,15.1573525,56.2031171]}]}