{"type":"FeatureCollection","features":[{"type":"Feature","geometry":{"type":"GeometryCollection","geometries":[{"type":"Polygon","coordinates":[[[8.708176,56.651938],[8.941166,56.843068],[9.174244,56.832391],[9.189621,56.660401],[9.797384,56.552677],[10.527058,56.754418],[10.644194,57.402023],[10.461616,57.59501],[10.690746,57.74301],[10.612443,57.769682],[8.480805,57.194377],[8.16519,56.727562],[8.708176,56.651938]]]},{"type":"Polygon","coordinates":[[[11.032489,57.182671],[11.248685,57.301589],[11.098189,57.371756],[10.832621,57.261216],[11.032489,57.182671]]]}]},"properties":{"place_id":152056547,"osm_type":"relation","osm_id":1319936,"place_rank":8,"category":"boundary","type":"administrative","importance":0.553239717657787,"addresstype":"state","name":"Северная Ютландия","display_name":"Северная Ютландия, Дания","address":{"state":"Северная Ютландия","ISO3166-2-lvl4":"DK-81","country":"Дания","country_code":"dk"},"name_original":"Северная Ютландия","name_ru":"Северная Ютландия","name_en":"severnaya yutlandiya","country":"Дания","country_code":"dk"},"bbox":[8.2208505,56.5504326,11.2001753,57.7522386]}]}