{"type":"FeatureCollection","features":[{"type":"Feature","geometry":{"type":"GeometryCollection","geometries":[{"type":"Polygon","coordinates":[[[8.145478,55.817464],[9.427846,55.889802],[9.760356,55.663514],[10.804986,55.742102],[10.966527,56.472689],[10.527058,56.754418],[9.797384,56.552677],[9.189621,56.660401],[9.174244,56.832391],[8.941166,56.843068],[8.708176,56.651938],[8.16519,56.727562],[7.973633,56.09069],[8.145478,55.817464]]]},{"type":"Polygon","coordinates":[[[11.6799,56.722281],[11.648349,56.756487],[11.509112,56.716678],[11.559566,56.669906],[11.6799,56.722281]]]}]},"properties":{"place_id":152438351,"osm_type":"relation","osm_id":1319935,"place_rank":8,"category":"boundary","type":"administrative","importance":0.5714806619513741,"addresstype":"state","name":"Центральная Ютландия","display_name":"Центральная Ютландия, Дания","address":{"state":"Средняя Ютландия","ISO3166-2-lvl4":"DK-82","country":"Дания","country_code":"dk"},"name_original":"Средняя Ютландия","name_ru":"Средняя Ютландия","name_en":"srednyaya yutlandiya","country":"Дания","country_code":"dk"},"bbox":[8.0982042,55.6688686,11.6629623,56.8465928],"id":0}]}