{"type":"FeatureCollection","features":[{"type":"Feature","geometry":{"type":"GeometryCollection","geometries":[{"type":"Polygon","coordinates":[[[8.602797,54.917725],[9.996156,54.822133],[10.064432,54.677447],[10.822186,54.691854],[11.045072,55.174536],[10.804986,55.742102],[9.760355,55.663514],[9.427846,55.889802],[8.145478,55.817464],[8.065528,55.552079],[8.438606,55.09225],[8.602797,54.917725]]]}]},"properties":{"place_id":408451909,"osm_type":"relation","osm_id":1319978,"place_rank":8,"category":"boundary","type":"administrative","importance":0.5845588931409769,"addresstype":"state","name":"Южная Дания","display_name":"Южная Дания, Дания","address":{"state":"Южная Дания","ISO3166-2-lvl4":"DK-83","country":"Дания","country_code":"dk"},"name_original":"Южная Дания","name_ru":"Южная Дания","name_en":"yuzhnaya daniya","country":"Дания","country_code":"dk"},"bbox":[8.0743935,54.721897,10.955726,55.9566007]}]}