{"type":"FeatureCollection","features":[{"type":"Feature","geometry":{"type":"GeometryCollection","geometries":[{"type":"Polygon","coordinates":[[[11.844534,55.73539],[11.814025,55.984193],[10.875869,56.064384],[10.804986,55.742102],[11.045072,55.174536],[10.822186,54.691854],[12.197019,54.492739],[12.715298,55.021592],[12.372394,55.604967],[12.159593,55.61282],[12.150475,55.671035],[12.236033,55.699897],[12.226061,55.743075],[12.083305,55.780933],[12.098606,55.720222],[11.844534,55.73539]]]}]},"properties":{"dagi_id":389100,"kode":1085,"navn":"Sjælland","nuts2":"DK02","ændret":"2021-06-09T21:01:24.204Z","geo_ændret":"2021-06-09T21:01:24.204Z","geo_version":13,"visueltcenter_x":11.62131942,"visueltcenter_y":55.43978536,"country":"Дания","name_original":"Зеландия","name_ru":"Зеландия","name_en":"Zealand","addresstype":"state","name":"Зеландия","display_name":"Зеландия, Дания"}}]}