{"type":"Feature","geometry":{"type":"Polygon","coordinates":[[[74.915741,37.237328],[74.387497,37.165901],[74.56543,37.027817],[72.556641,36.821266],[71.190674,36.057175],[71.647766,35.419991],[71.492477,34.955551],[71.091934,34.672493],[71.077209,34.052216],[69.895538,34.023048],[70.323318,33.327774],[69.508881,33.038048],[69.02916,31.65583],[68.043869,31.686939],[66.395538,30.94083],[66.256653,29.85194],[62.484436,29.406105],[60.866302,29.8636551],[61.758331,30.790276],[61.847771,31.008331],[61.713608,31.383331],[60.85305,31.494995],[60.508331,34.140274],[61.275269,35.514999],[61.265658,35.6080103],[61.995827,35.458328],[62.309158,35.141663],[62.471375,35.289719],[62.554436,35.233604],[63.095543,35.436935],[63.095268,35.626099],[63.184715,35.673607],[63.104439,35.839157],[64.458878,36.247215],[64.77916,37.095825],[65.060806,37.241379],[65.530823,37.248604],[65.708878,37.538605],[65.771927,37.537498],[66.289978,37.324715],[66.537735,37.366379],[67.649429,37.246101],[68.001389,36.936104],[68.961929,37.324997],[69.246643,37.094154],[69.421249,37.196411],[69.382751,37.455826],[69.515823,37.580826],[70.155823,37.536232],[70.253601,37.615746],[70.159149,37.918106],[70.779434,38.441544],[70.996368,38.462959],[71.366379,38.236275],[71.252777,37.922035],[71.323318,37.892311],[71.579453,37.917946],[71.582626,36.724167],[71.842758,36.692101],[72.047745,36.830383],[73.307205,37.462753],[74.432205,37.394012],[74.8461,37.314049],[74.915741,37.237328]]]},"properties":{"cca2":"af"}}