{"type":"FeatureCollection","features":[{"type":"Feature","geometry":{"type":"GeometryCollection","geometries":[{"type":"Polygon","coordinates":[[[-18.943442,28.915025],[-17.956446,26.609952],[-12.482061,28.673641],[-13.824834,30.123405],[-18.943442,28.915025]]]},{"type":"Polygon","coordinates":[[[-2.979908,35.30893],[-2.954533,35.26264],[-2.91472,35.2736],[-2.946945,35.329163],[-2.979908,35.30893]]]},{"type":"Polygon","coordinates":[[[-5.247391,35.888539],[-5.263679,35.926018],[-5.395557,35.916336],[-5.345834,35.84166],[-5.247391,35.888539]]]},{"type":"Polygon","coordinates":[[[1.079291,39.033324],[1.158972,38.620297],[1.683709,38.583275],[1.867731,39.064475],[1.414052,39.178971],[1.079291,39.033324]]]},{"type":"Polygon","coordinates":[[[3.713089,39.679],[3.106064,40.076388],[2.178028,39.592062],[3.003087,39.184192],[3.713089,39.679]]]},{"type":"Polygon","coordinates":[[[4.461375,39.976576],[3.961183,40.171215],[3.685152,39.982438],[4.271395,39.75655],[4.461375,39.976576]]]},{"type":"Polygon","coordinates":[[[-1.779574,43.395639],[-7.881131,43.92286],[-9.575631,43.248665],[-8.901699,41.857132],[-8.201223,42.15274],[-8.140556,41.809166],[-6.594167,41.95361],[-6.18722,41.57972],[-6.848333,41.02861],[-7.01722,39.674995],[-7.5325,39.669418],[-7.149167,39.116661],[-7.32111,38.44944],[-7.006667,38.028053],[-7.25444,37.987495],[-7.524445,37.552498],[-7.384167,37.169716],[-6.208363,35.975216],[-5.359868,35.999005],[-5.143799,36.239535],[-2.166599,36.59974],[-0.66548,37.476264],[0.331482,38.656093],[0.013419,39.843607],[3.245548,41.856027],[3.338483,42.31721],[3.177655,42.436806],[1.74739,42.487624],[1.406439,42.452897],[1.487487,42.675187],[0.791213,42.831483],[0.622198,42.679332],[-1.326952,43.081531],[-1.78088,43.359924],[-1.779574,43.395639]]]}]},"properties":{"cca2":"es"}}]}