{"type":"FeatureCollection","features":[{"type":"Feature","geometry":{"type":"GeometryCollection","geometries":[{"type":"Polygon","coordinates":[[[-70.908796,11.789219],[-71.484625,12.717165],[-75.651195,10.726243],[-76.241787,9.340225],[-77.36667,8.674999],[-77.451915,8.502082],[-77.19833,7.99944],[-77.906529,7.208181],[-77.4341,3.534188],[-79.41546,1.886903],[-78.80972,1.43778],[-77.418335,0.406667],[-74.60751,-0.38361],[-72.88196,-2.506389],[-70.226669,-2.55833],[-70.0675,-2.75556],[-70.72417,-3.779723],[-69.94417,-4.21583],[-69.45264,-1.526032],[-69.61056,-0.760556],[-70.05806,-0.1575],[-70.04417,0.59083],[-69.13223,0.63194],[-69.14001,0.86694],[-69.343613,1.074722],[-69.84222,1.072222],[-69.8461,1.710455],[-67.881119,1.752778],[-67.42418,2.143888],[-67.076675,1.173333],[-66.87826,1.23016],[-67.198534,2.355816],[-67.757166,2.958859],[-67.29056,3.3975],[-67.78029,4.351666],[-67.85084,5.29472],[-67.41446,5.987222],[-67.57745,6.32754],[-69.429459,6.11861],[-70.11917,6.975833],[-72.11334,7.138333],[-72.392227,8.375832],[-73.24057,9.414165],[-72.48946,11.124443],[-70.908796,11.789219]]]}]},"properties":{"cca2":"co"}}]}