{"type":"Feature","geometry":{"type":"GeometryCollection","geometries":[{"type":"Polygon","coordinates":[[[94.0866117,6.8158157],[93.7055544,6.7202209],[93.5139457,7.4132192],[93.7706473,7.5228777],[94.0866117,6.8158157]]]},{"type":"Polygon","coordinates":[[[93.3170471,7.8193048],[93.2600068,8.0010131],[93.4033783,8.0574942],[93.483543,7.8742838],[93.3170471,7.8193048]]]},{"type":"Polygon","coordinates":[[[93.3848787,8.2406216],[93.6546638,8.22689],[93.7009127,7.935363],[93.5066674,7.8865004],[93.3848787,8.2406216]]]},{"type":"Polygon","coordinates":[[[73.024704,8.248053],[73.0006251,8.2918763],[73.0762577,8.3356611],[73.0947736,8.2738641],[73.024704,8.248053]]]},{"type":"Polygon","coordinates":[[[93.1502913,8.1611554],[92.9813129,8.3333931],[93.1735638,8.3634269],[93.2727248,8.2302597],[93.1502913,8.1611554]]]},{"type":"Polygon","coordinates":[[[93.5912765,8.4133168],[93.5622306,8.5752899],[93.6450423,8.5936221],[93.6617283,8.4243209],[93.5912765,8.4133168]]]},{"type":"Polygon","coordinates":[[[92.7025877,9.1066607],[92.6990812,9.2503188],[92.860382,9.2581059],[92.8595053,9.1109886],[92.7025877,9.1066607]]]},{"type":"Polygon","coordinates":[[[73.6245378,10.0508486],[73.6293448,10.1259789],[73.6684012,10.1259789],[73.6596886,10.0452279],[73.6245378,10.0508486]]]},{"type":"Polygon","coordinates":[[[72.6270188,10.5318855],[72.6078849,10.542075],[72.6363917,10.5804799],[72.659362,10.5704654],[72.6270188,10.5318855]]]},{"type":"Polygon","coordinates":[[[73.708344,10.8026246],[73.6579834,10.8003415],[73.653141,10.8226015],[73.7040827,10.8250747],[73.708344,10.8026246]]]},{"type":"Polygon","coordinates":[[[72.1775577,10.8070586],[72.1598202,10.8120742],[72.1918015,10.8886184],[72.2133015,10.8828123],[72.1775577,10.8070586]]]},{"type":"Polygon","coordinates":[[[92.1531253,10.5094802],[92.2973058,10.9732822],[92.7321727,10.9413189],[92.6391531,10.4111459],[92.1531253,10.5094802]]]},{"type":"Polygon","coordinates":[[[72.3416749,10.9445177],[72.2781225,10.9275905],[72.2737279,10.9509896],[72.3384635,10.9642649],[72.3416749,10.9445177]]]},{"type":"Polygon","coordinates":[[[72.7246413,11.1065834],[72.7039324,11.1114885],[72.7228561,11.1412672],[72.7419491,11.1345608],[72.7246413,11.1065834]]]},{"type":"Polygon","coordinates":[[[72.7428543,11.1820801],[72.7741932,11.2656914],[72.7961304,11.2613885],[72.7757601,11.1786982],[72.7428543,11.1820801]]]},{"type":"Polygon","coordinates":[[[73.004414,11.4642799],[72.9882367,11.4943359],[73.00444,11.5075],[73.0167156,11.4670874],[73.004414,11.4642799]]]},{"type":"Polygon","coordinates":[[[72.6999608,11.6806615],[72.7131005,11.7067274],[72.7208902,11.7039784],[72.7130037,11.6782852],[72.6999608,11.6806615]]]},{"type":"Polygon","coordinates":[[[93.8251451,12.2756727],[93.8632324,12.3116358],[93.8920379,12.2894331],[93.8683534,12.2443966],[93.8251451,12.2756727]]]},{"type":"Polygon","coordinates":[[[94.2324577,13.4313031],[94.253593,13.4681405],[94.280169,13.4701755],[94.2864468,13.4372056],[94.266663,13.414721],[94.2324577,13.4313031]]]},{"type":"Polygon","coordinates":[[[92.604955,13.8168243],[93.2209444,13.814074],[93.087375,11.2584139],[92.267261,11.3293756],[92.604955,13.8168243]]]},{"type":"Polygon","coordinates":[[[79.50249,32.654709],[78.531372,32.21944],[81.02536,30.20435],[80.0522,28.901108],[86.738037,26.419716],[88.03055,26.372498],[88.14554,27.95527],[88.844986,27.99638],[88.751938,27.148605],[89.199997,26.813885],[91.712494,26.799999],[92.103043,26.89555],[92.1136,27.297497],[92.004166,27.47583],[91.67804,27.48555],[91.600815,27.666664],[91.657761,27.764721],[92.452477,27.826389],[92.718323,27.97361],[92.710442,28.1419],[94.42776,29.215509],[95.541367,29.191105],[96.083878,29.467773],[97.361099,27.94083],[96.886658,27.606106],[97.1586,27.12055],[97.059723,27.093002],[96.855255,27.262775],[96.621918,27.365829],[95.15248,26.623329],[94.996368,25.732216],[94.628311,25.402218],[94.588882,25.189995],[94.734421,25.119717],[94.151093,23.855274],[93.351242,24.087646],[93.31749,23.029163],[93.13081,23.034996],[93.16333,22.19165],[92.924423,22.004997],[92.705551,22.158329],[92.600815,21.982216],[92.272766,23.716385],[91.844986,23.410275],[91.820541,23.097775],[91.613602,22.94305],[91.36998,23.069164],[91.164429,23.622498],[91.26971,23.971107],[92.113037,24.38666],[92.332489,25.079441],[89.833054,25.306664],[89.849014,25.90617],[89.77887,26.088886],[89.6386,26.2278],[89.559868,26.16146],[89.60242,26.06896],[89.504356,26.00564],[89.140266,26.148149],[89.07426,26.382959],[88.938782,26.44582],[88.90749,26.37508],[89.041344,26.28179],[89.020477,26.23517],[88.735764,26.29351],[88.680817,26.420271],[88.433044,26.55139],[88.419983,26.620274],[88.409149,26.631939],[88.334717,26.48666],[88.486511,26.458546],[88.525543,26.359718],[88.35609,26.284443],[88.358322,26.227219],[88.184418,26.152496],[88.09553,25.915272],[88.15193,25.77861],[88.257492,25.814999],[88.44693,25.666107],[88.446091,25.604996],[89.008881,25.300831],[88.948868,25.172218],[88.486374,25.20055],[88.342484,24.870274],[88.229706,24.94833],[88.04387,24.689716],[88.114151,24.51944],[88.721649,24.280552],[88.736649,23.919796],[88.605881,23.86629],[88.583328,23.60583],[88.79443,23.487217],[89.099261,21.5901109],[81.7638059,16.2454172],[79.1052101,7.9163341],[75.9884886,7.9308565],[71.9300462,20.5378385],[69.4953897,20.5564533],[68.1867264,23.8838573],[68.747208,23.969994],[68.745224,24.315655],[69.598602,24.281387],[69.723602,24.171108],[70.02582,24.171661],[70.120087,24.30903],[70.579437,24.431664],[70.579712,24.28722],[70.876083,24.27],[71.098602,24.408886],[70.885269,25.14222],[69.946091,26.591663],[69.498322,26.773052],[69.688583,27.276386],[70.382751,28.024719],[70.583054,28.006664],[70.783325,27.712215],[71.89694,27.961941],[74.554993,30.995052],[74.59325,31.861731],[75.38129,32.214241],[75.310257,32.354439],[74.687485,32.501106],[74.038315,33.164436],[74.244431,34.019157],[73.799149,34.398605],[73.990265,34.67555],[76.91693,34.68138],[77.049423,35.103882],[77.823929,35.501328],[78.985352,34.350014],[79.50249,32.654709]]]}]},"properties":{"cca2":"in"}}