{"type":"Feature","geometry":{"type":"Polygon","coordinates":[[[17.251656,48.024994],[17.166386,48.012497],[17.116665,48.038605],[16.855831,48.44944],[16.943333,48.573326],[16.8962168,48.7352918],[17.677498,48.851944],[18.075279,49.041943],[18.208054,49.284164],[18.379444,49.330276],[18.541111,49.453331],[18.551388,49.486938],[18.851246,49.517357],[18.968609,49.481667],[18.978054,49.39666],[19.198055,49.418053],[19.264721,49.524162],[19.447777,49.60083],[19.475555,49.599998],[19.520981,49.574165],[19.658607,49.406662],[19.791664,49.404442],[19.765831,49.215828],[20.081387,49.175278],[20.143608,49.314995],[20.360554,49.393051],[20.740833,49.388885],[20.910831,49.296104],[20.984165,49.310555],[21.049442,49.408882],[21.618889,49.436386],[21.960278,49.339165],[22.047497,49.207771],[22.5592724,49.0828494],[22.538887,48.999161],[22.461384,48.949432],[22.331108,48.689987],[22.158886,48.580276],[22.150555,48.408607],[21.731388,48.351105],[21.507221,48.548882],[20.955276,48.522499],[20.830276,48.574997],[20.539719,48.536942],[20.286663,48.253883],[20.235554,48.274994],[19.912498,48.129715],[19.66222,48.231941],[19.524166,48.205826],[19.476383,48.089165],[18.849098,48.051064],[18.771664,47.965553],[18.766941,47.877777],[18.853611,47.833054],[18.84972,47.817772],[18.749729,47.813156],[18.720554,47.78611],[17.784409,47.746803],[17.251656,48.024994]]]},"properties":{"cca2":"sk"}}