{"type":"FeatureCollection","features":[{"type":"Feature","geometry":{"type":"Polygon","coordinates":[[[6.134414,50.127846],[5.976388,50.171387],[5.886666,50.098885],[5.746666,49.795273],[5.869444,49.719719],[5.900277,49.640549],[5.831863,49.510665],[6.096964,49.450479],[6.165277,49.504715],[6.36217,49.459389],[6.420833,49.665833],[6.505835,49.706627],[6.522222,49.811104],[6.395555,49.817772],[6.175278,49.949997],[6.173055,49.952217],[6.113333,50.055832],[6.134414,50.127846]]]},"properties":{"cca2":"lu"}}]}