{"type":"Feature","geometry":{"type":"Polygon","coordinates":[[[23.1783313,52.2831366],[23.2040579,52.2764972],[23.1941095,52.2395379],[23.6534817,52.0734016],[23.6167471,51.7739028],[23.5504195,51.7549518],[23.5271903,51.7296804],[23.5646822,51.5347566],[23.6239428,51.5038385],[23.6768865,51.5066343],[23.605894,51.6208437],[23.7827115,51.6675154],[23.9965063,51.5800932],[24.3196933,51.7511232],[24.3725574,51.878531],[26.3947831,51.87683],[27.50315,51.5866609],[27.5468011,52.2431703],[27.2641517,52.3184805],[27.2751806,52.3913845],[27.0015925,52.6009924],[27.0094957,52.7781406],[26.9208318,52.748597],[26.5836096,52.8938493],[26.439044,52.8229495],[26.3886726,52.8424375],[26.4822851,53.0857982],[26.2725886,53.2097153],[26.4135865,53.4001281],[25.6997255,53.3989255],[25.3276272,52.8402331],[24.7037346,52.9784555],[24.5178614,52.7458639],[23.9391983,52.780393],[23.9386401,52.7129159],[23.408147,52.5115173],[23.1783313,52.2831366]]]},"properties":{"place_id":159722619,"osm_type":"relation","osm_id":59189,"place_rank":8,"category":"boundary","type":"administrative","importance":0.6082969996863936,"addresstype":"state","name":"Брестская область","display_name":"Брестская область, Беларусь","address":{"state":"Брестская область","ISO3166-2-lvl4":"BY-BR","country":"Беларусь","country_code":"by"},"name_original":"Брестская область","country":"Беларусь","country_code":"by"},"bbox":[23.1783313,51.4989171,27.6160777,53.4079308]}