{"type":"Feature","geometry":{"type":"Polygon","coordinates":[[[27.2641517,52.3184805],[27.5468011,52.2431703],[27.503794,51.5868395],[30.2123986,51.4931414],[30.463555,51.2727672],[30.6224897,51.3046774],[30.5382327,51.672238],[30.9586014,52.0908534],[31.8530676,52.1127194],[31.6881359,52.202499],[31.49779,52.695225],[31.59617,52.75703],[31.3068791,53.03655],[31.3462629,53.1093404],[31.2239224,53.1163035],[31.0125999,53.3085416],[29.7709322,53.3236707],[29.7105224,52.9540327],[29.1729095,52.9733532],[29.1202881,52.8818681],[28.4701419,52.6806718],[28.3420223,52.4905269],[27.3984611,52.5328641],[27.2751806,52.3913845],[27.2641517,52.3184805]]]},"properties":{"place_id":159507594,"osm_type":"relation","osm_id":59161,"place_rank":8,"category":"boundary","type":"administrative","importance":0.6087437473191124,"addresstype":"state","name":"Гомельская область","display_name":"Гомельская область, Беларусь","address":{"state":"Гомельская область","ISO3166-2-lvl4":"BY-HO","country":"Беларусь","country_code":"by"},"name_original":"Гомельская область","country":"Беларусь","country_code":"by"},"bbox":[27.2502556,51.2626864,31.7992518,53.3549444]}