{"type":"Feature","geometry":{"type":"Polygon","coordinates":[[[23.9391983,52.780393],[24.5178614,52.7458639],[24.7037346,52.9784555],[25.3276272,52.8402331],[25.6997255,53.3989255],[26.5804057,53.4004092],[26.2301588,53.8619425],[26.4350789,53.9529984],[26.0071835,54.1590941],[26.1960693,54.2358819],[26.3567312,54.2137162],[26.6512541,54.476837],[26.6161085,54.5329781],[26.6648044,54.5993683],[26.4246894,54.8360836],[26.3720551,54.8215267],[26.335061,54.839751],[26.3652788,54.8789032],[26.2926811,54.9473086],[26.2456941,54.9838813],[26.1616507,54.9784453],[25.87722,54.942215],[25.78889,54.87027],[25.5474971,54.332771],[25.568886,54.313606],[25.705273,54.335266],[25.8077739,54.248047],[25.7852751,54.16054],[25.5519409,54.143051],[25.504719,54.183052],[25.575829,54.23638],[25.50333,54.301933],[25.471661,54.306099],[24.505833,53.946098],[23.50404,53.947044],[23.9391983,52.780393]]]},"properties":{"place_id":159732329,"osm_type":"relation","osm_id":59275,"place_rank":8,"category":"boundary","type":"administrative","importance":0.6177305104804415,"addresstype":"state","name":"Гродненская область","display_name":"Гродненская область, Беларусь","address":{"state":"Гродненская область","ISO3166-2-lvl4":"BY-HR","country":"Беларусь","country_code":"by"},"name_original":"Гродненская область","country":"Беларусь","country_code":"by"},"bbox":[23.5115657,52.74407,26.7012075,54.9980874]}