{"type":"Feature","geometry":{"type":"GeometryCollection","geometries":[{"type":"Polygon","coordinates":[[[26.4350789,53.9529984],[26.2301588,53.8619425],[26.5804057,53.4004092],[26.4135866,53.4001281],[26.2725886,53.2097153],[26.4822851,53.0857982],[26.3886726,52.8424375],[26.439044,52.8229495],[26.5836096,52.8938493],[26.9208318,52.748597],[27.0094957,52.7781406],[27.0015925,52.6009924],[27.2751806,52.3913845],[27.3984611,52.5328641],[28.3420223,52.4905269],[28.473979,52.6830919],[28.4899883,53.1619454],[28.1079705,53.2221262],[28.081725,53.2743972],[28.4222853,53.2756548],[28.3474126,53.4789896],[29.3919244,53.725933],[29.4618808,54.2123673],[29.3976006,54.2442198],[29.3355591,54.244958],[29.4640958,54.6222475],[28.6836556,54.5760158],[28.6303301,54.667511],[28.4580536,54.6664681],[28.4212218,54.5679267],[28.3633521,54.5579746],[28.2132428,54.675606],[27.77181,54.61252],[27.2567882,54.9961401],[26.5645402,54.9420322],[26.3614256,54.9917287],[26.2926811,54.9473086],[26.3652788,54.8789032],[26.335061,54.839751],[26.3720551,54.8215267],[26.4246894,54.8360836],[26.6648044,54.5993683],[26.6161085,54.5329781],[26.6512541,54.476837],[26.3566621,54.2136746],[26.1960693,54.2358819],[26.0071835,54.1590941],[26.4350789,53.9529984]]]}]},"properties":{"place_id":159568774,"osm_type":"relation","osm_id":59752,"place_rank":8,"category":"boundary","type":"administrative","importance":0.6372441118110564,"addresstype":"state","name":"Минская область","display_name":"Минская область, Беларусь","address":{"state":"Минская область","ISO3166-2-lvl4":"BY-MI","country":"Беларусь","country_code":"by"},"name_original":"Минская область","country":"Беларусь","country_code":"by"},"bbox":[26.0027933,52.3897856,29.4929043,55.02219]}