{"type":"Feature","geometry":{"type":"MultiPolygon","coordinates":[[[[27.3740176,53.8720395],[27.3966685,53.8603938],[27.399822,53.8605343],[27.3966196,53.8677023],[27.4222341,53.8696052],[27.428955,53.8563241],[27.4477536,53.8448483],[27.4667221,53.8425825],[27.4641063,53.8385259],[27.4688227,53.8356434],[27.4780056,53.8362751],[27.481904,53.8408016],[27.5752866,53.8323953],[27.5799113,53.8243286],[27.5702391,53.8241101],[27.5898642,53.793847],[27.5962173,53.7951595],[27.5995676,53.8012658],[27.5927009,53.823897],[27.5886491,53.825963],[27.5805439,53.824265],[27.5760196,53.8323347],[27.6459949,53.8338982],[27.6678356,53.8444369],[27.6789687,53.8331321],[27.6612946,53.8260157],[27.6732495,53.8184199],[27.6702468,53.8088484],[27.6885919,53.8048053],[27.7129791,53.8178178],[27.6977221,53.8310548],[27.7231108,53.8394142],[27.7556647,53.8234884],[27.7820163,53.8245728],[27.8159196,53.8446731],[27.8184363,53.8548431],[27.7514843,53.8629621],[27.7744556,53.8755785],[27.8490114,53.8757587],[27.8490752,53.8992799],[27.7755354,53.9015225],[27.7451378,53.9136716],[27.7386546,53.9636982],[27.6622071,53.9481697],[27.5956127,53.9715384],[27.4693114,53.9659746],[27.4192141,53.9289166],[27.4056997,53.9018753],[27.4113543,53.8914909],[27.4020323,53.8903242],[27.4021212,53.9023086],[27.398796,53.9033083],[27.3972352,53.9018237],[27.3995171,53.901092],[27.3990905,53.8889943],[27.4031046,53.8858097],[27.4109196,53.8858222],[27.4124704,53.8867263],[27.4102764,53.8909684],[27.4115706,53.891272],[27.4171494,53.8796825],[27.3996806,53.8816187],[27.3740176,53.8720395]]],[[[27.8797495,53.8746897],[27.8868324,53.8699324],[27.8958883,53.8695303],[27.9181042,53.8746758],[27.9093494,53.8856124],[27.9032341,53.8877846],[27.894433,53.8868061],[27.8797495,53.8746897]]],[[[27.9998506,53.9010734],[28.05719,53.8623648],[28.0820983,53.8753491],[28.0103165,53.9242331],[28.0061748,53.9219885],[28.0203532,53.9127212],[27.9998506,53.9010734]]]]},"properties":{"place_id":159423554,"osm_type":"relation","osm_id":59195,"place_rank":7,"category":"boundary","type":"administrative","importance":0.7315752882919728,"addresstype":"city","name":"Минск","display_name":"Минск, Беларусь","address":{"city":"Минск","ISO3166-2-lvl4":"BY-HM","country":"Беларусь","country_code":"by"},"name_original":"Минск","country":"Беларусь","country_code":"by"},"bbox":[27.3740176,53.793847,28.0799469,53.9717897]}