{"type":"Feature","geometry":{"type":"Polygon","coordinates":[[[28.081725,53.2743972],[28.1079705,53.2221262],[28.4899883,53.1619454],[28.473979,52.6830919],[29.1202881,52.8818681],[29.1729095,52.9733532],[29.7105224,52.9540327],[29.7709322,53.3236707],[31.0125999,53.3085416],[31.2239224,53.1163035],[31.3462629,53.1093404],[31.40184,53.21185],[31.628458,53.231233],[32.1603111,53.085907],[32.7700599,53.408691],[31.1663776,54.4547056],[31.025356,54.3974539],[30.9335089,54.4480103],[30.5715436,54.3230337],[29.6227127,54.353073],[29.3976006,54.2442198],[29.4618808,54.2123673],[29.3919244,53.725933],[28.3474126,53.4789896],[28.4222853,53.2756548],[28.081725,53.2743972]]]},"properties":{"place_id":159045163,"osm_type":"relation","osm_id":59162,"place_rank":8,"category":"boundary","type":"administrative","importance":0.5886417780625517,"addresstype":"state","name":"Могилёвская область","display_name":"Могилёвская область, Беларусь","address":{"state":"Могилёвская область","ISO3166-2-lvl4":"BY-MA","country":"Беларусь","country_code":"by"},"name_original":"Могилёвская область","country":"Беларусь","country_code":"by"},"bbox":[28.081725,52.6745741,32.7627809,54.4742664]}