{"type":"Feature","geometry":{"type":"Polygon","coordinates":[[[26.1616507,54.9784453],[26.2456941,54.9838813],[26.2926811,54.9473086],[26.3614256,54.9917287],[26.5645402,54.9420322],[27.2567882,54.9961401],[27.77181,54.61252],[28.2132428,54.675606],[28.3633521,54.5579746],[28.4212218,54.5679267],[28.4580536,54.6664681],[28.6303301,54.667511],[28.6836556,54.5760158],[29.4640958,54.6222475],[29.3355591,54.244958],[29.3976006,54.2442198],[29.6227127,54.353073],[30.5715436,54.3230337],[30.9335089,54.4480103],[31.025356,54.3974539],[31.1663776,54.4547056],[31.10826,54.492122],[31.2007809,54.648144],[30.75451,54.80504],[30.922005,55.652668],[30.8094874,55.5905193],[30.780124,55.5883033],[30.283109,55.860112],[30.165678,55.85719],[29.5152857,55.7015757],[29.362281,55.7583348],[29.422613,55.968931],[28.1574191,56.143574],[28.1216621,56.1665133],[27.9294399,56.113327],[27.654995,55.929161],[27.6016619,55.793327],[27.531109,55.788887],[27.1561049,55.846382],[26.9899939,55.834717],[26.863331,55.716934],[26.731663,55.688881],[26.6688841,55.705826],[26.6333311,55.69471],[26.613209,55.674835],[26.627693,55.5932995],[26.4575003,55.3498218],[26.555657,55.3128793],[26.6455466,55.3304427],[26.7844551,55.308141],[26.8145327,55.2749531],[26.521774,55.1485177],[26.2832376,55.1474801],[26.1616507,54.9784453]]]},"properties":{"place_id":158827757,"osm_type":"relation","osm_id":59506,"place_rank":8,"category":"boundary","type":"administrative","importance":0.6339913619426735,"addresstype":"state","name":"Витебская область","display_name":"Витебская область, Беларусь","address":{"state":"Витебская область","ISO3166-2-lvl4":"BY-VI","country":"Беларусь","country_code":"by"},"name_original":"Витебская область","country":"Беларусь","country_code":"by"},"bbox":[26.2084865,54.2344468,31.2107939,56.1722446]}