{"type":"Feature","geometry":{"type":"GeometryCollection","geometries":[{"type":"Polygon","coordinates":[[[122.81765,-11.0076772],[122.7237402,-10.7364299],[123.4225392,-10.3997456],[123.5109249,-10.7255749],[122.81765,-11.0076772]]]},{"type":"Polygon","coordinates":[[[121.7486345,-10.7183613],[121.5702547,-10.5240443],[121.9359333,-10.3617761],[122.0786372,-10.5021212],[121.7486345,-10.7183613]]]},{"type":"Polygon","coordinates":[[[125.12798877127,-9.4359552177963],[124.5503938,-10.2475756],[123.9250367,-10.45771],[123.2054958,-10.3331992],[123.6676072,-9.3351853],[124.046097,-9.34],[124.04616116617,-9.33997920587],[124.34309325995,-9.4633795565334],[124.4876963,-9.1541872],[124.94544874451,-8.9540393193029],[125.16404989666,-9.0661424742536],[124.97205197356,-9.2117960710896],[125.12798877127,-9.4359552177963]]]},{"type":"Polygon","coordinates":[[[128.7668524,-8.2695184],[128.8047869,-8.1327417],[129.1177466,-8.171634],[129.0621997,-8.3338676],[128.7668524,-8.2695184]]]},{"type":"Polygon","coordinates":[[[125.7014864,-8.1743138],[125.6110907,-8.3467234],[125.4237251,-8.2946831],[125.5371306,-8.068554],[125.7014864,-8.1743138]]]},{"type":"Polygon","coordinates":[[[128.27909,-8.1167637],[128.3263427,-8.3142276],[127.6044263,-8.3077336],[127.5086083,-8.0699816],[128.27909,-8.1167637]]]},{"type":"Polygon","coordinates":[[[127.1073806,-7.9972745],[127.2166353,-7.992163],[127.2665311,-8.1335566],[127.1065203,-8.1267436],[127.1073806,-7.9972745]]]},{"type":"Polygon","coordinates":[[[129.7025095,-8.2340449],[129.4384303,-7.7937649],[129.8776641,-7.7296849],[130.0986284,-8.1193513],[129.7025095,-8.2340449]]]},{"type":"Polygon","coordinates":[[[125.7042551,-8.0856939],[125.648629,-7.6766008],[126.8134346,-7.4999151],[126.9043285,-7.9257075],[125.7042551,-8.0856939]]]},{"type":"Polygon","coordinates":[[[127.2785091,-7.6559101],[127.3167016,-7.4657478],[127.525024,-7.495009],[127.4234668,-7.6903196],[127.2785091,-7.6559101]]]},{"type":"Polygon","coordinates":[[[120.5455361,-6.9224038],[121.863189,-7.2185207],[121.9160007,-7.4777916],[120.3131645,-7.3206757],[120.5455361,-6.9224038]]]},{"type":"Polygon","coordinates":[[[131.2898397,-6.5586027],[132.5727733,-7.0005887],[131.0630534,-8.5605747],[130.3299485,-8.54504],[131.2898397,-6.5586027]]]},{"type":"Polygon","coordinates":[[[128.4009266,-7.1470632],[128.626288,-7.0062802],[128.7518725,-7.1355254],[128.6495444,-7.2555062],[128.4009266,-7.1470632]]]},{"type":"Polygon","coordinates":[[[134.8295239,-6.9455853],[133.7875039,-6.9804114],[134.0186945,-5.4292104],[135.1203588,-5.3558583],[134.8295239,-6.9455853]]]},{"type":"Polygon","coordinates":[[[120.064446,-7.8806923],[125.474873,-7.4008747],[125.3305605,-8.4043813],[123.619099,-8.840775],[121.2216399,-9.2073352],[121.1154604,-10.5682368],[118.762535,-9.9762358],[114.471949,-9.2558766],[106.297829,-7.4577752],[106.2621417,-7.0506567],[105.189727,-6.9645234],[104.9162313,-6.5983457],[105.734659,-6.2789728],[106.0074486,-5.8090017],[111.2854176,-6.2216384],[114.6522741,-6.8632663],[120.064446,-7.8806923]]]},{"type":"Polygon","coordinates":[[[124.0199768,-6.0693096],[123.8099486,-5.6992525],[124.0009848,-5.6803542],[124.1853181,-6.047091],[124.0199768,-6.0693096]]]},{"type":"Polygon","coordinates":[[[120.3162241,-6.5310381],[120.3280904,-5.7936816],[120.6128829,-5.7612149],[120.6633149,-6.5015639],[120.3162241,-6.5310381]]]},{"type":"Polygon","coordinates":[[[112.61998,-5.859445],[112.595261,-5.849999],[112.591087,-5.84722],[112.587769,-5.84389],[112.587196,-5.83917],[112.584427,-5.79833],[112.58638,-5.786667],[112.589157,-5.7825],[112.634987,-5.73944],[112.639977,-5.7375],[112.681664,-5.73],[112.694672,-5.73136],[112.715271,-5.7375],[112.719994,-5.73944],[112.724152,-5.742222],[112.726929,-5.746388],[112.737198,-5.776945],[112.737762,-5.79],[112.732483,-5.825556],[112.729713,-5.836389],[112.726089,-5.8397229999999],[112.721367,-5.84167],[112.692749,-5.85278],[112.61998,-5.859445]]]},{"type":"Polygon","coordinates":[[[133.2235585,-5.2394545],[133.0851464,-6.1843894],[131.8849403,-5.691628],[131.930727,-5.2574841],[133.2235585,-5.2394545]]]},{"type":"Polygon","coordinates":[[[102.159979,-5.2219728],[102.4623442,-5.383984],[102.3565841,-5.5594475],[101.9769328,-5.4015327],[102.159979,-5.2219728]]]},{"type":"Polygon","coordinates":[[[115.772217,-4.828611],[115.770264,-4.82389],[115.770828,-4.8177789999999],[115.774986,-4.80805],[115.783333,-4.795834],[115.811371,-4.76917],[115.826927,-4.75694],[115.835274,-4.75139],[115.844147,-4.746667],[115.849716,-4.74528],[115.853043,-4.747222],[115.849716,-4.757501],[115.84494,-4.76453],[115.853043,-4.77667],[115.854431,-4.78083],[115.852478,-4.78556],[115.845543,-4.7925],[115.833878,-4.80139],[115.814148,-4.81556],[115.797493,-4.82667],[115.78804,-4.830556],[115.782494,-4.831944],[115.775543,-4.831944],[115.772217,-4.828611]]]},{"type":"Polygon","coordinates":[[[129.8585216,-4.5739429],[129.8236154,-4.4891556],[129.9740562,-4.4886655],[129.9617653,-4.5837442],[129.8585216,-4.5739429]]]},{"type":"Polygon","coordinates":[[[131.4012411,-3.8913871],[131.9128789,-4.7919005],[131.6361864,-4.8399905],[131.1654339,-3.965192],[131.4012411,-3.8913871]]]},{"type":"Polygon","coordinates":[[[125.7797397,-2.9642857],[130.8528101,-2.6495645],[130.8814115,-4.1220224],[125.8917827,-4.1746108],[125.7797397,-2.9642857]]]},{"type":"Polygon","coordinates":[[[100.380319,-3.3844243],[99.6791482,-2.6618079],[100.1645444,-2.388095],[100.6499836,-3.2250484],[100.380319,-3.3844243]]]},{"type":"Polygon","coordinates":[[[131.5715979,-2.6812579],[131.5219499,-2.6360393],[131.6748206,-2.5946782],[131.6928302,-2.6398983],[131.5715979,-2.6812579]]]},{"type":"Polygon","coordinates":[[[108.2914143,-3.2856672],[107.4089396,-3.3116971],[107.245003,-2.5080968],[108.3189013,-2.5164778],[108.2914143,-3.2856672]]]},{"type":"Polygon","coordinates":[[[99.6557586,-2.5152094],[99.4435484,-2.0710344],[99.6740363,-1.9394078],[99.9552361,-2.3397572],[99.6557586,-2.5152094]]]},{"type":"Polygon","coordinates":[[[125.8570417,-2.5470079],[125.69558,-2.0726975],[124.2262784,-2.1695082],[124.3134677,-1.4271553],[126.4877295,-1.7734719],[126.5513271,-2.55346],[125.8570417,-2.5470079]]]},{"type":"Polygon","coordinates":[[[129.6347286,-1.7944812],[130.3487797,-1.6207969],[130.5089661,-2.0522629],[129.7596197,-2.0848219],[129.6347286,-1.7944812]]]},{"type":"Polygon","coordinates":[[[108.9462372,-1.511668],[109.0166694,-1.6395605],[108.6967245,-1.7876653],[108.6122681,-1.5885861],[108.9462372,-1.511668]]]},{"type":"Polygon","coordinates":[[[127.2862558,-1.8704075],[127.1195547,-1.0639643],[127.8897152,-1.1719037],[128.2626481,-1.8168527],[127.2862558,-1.8704075]]]},{"type":"Polygon","coordinates":[[[129.321266,-1.2712465],[129.3039323,-1.1152769],[129.9787091,-1.1090875],[129.9997572,-1.2427765],[129.321266,-1.2712465]]]},{"type":"Polygon","coordinates":[[[99.4120127,-1.7806475],[99.0211604,-1.9956399],[98.4225946,-1.1187573],[98.9340431,-0.7964352],[99.4120127,-1.7806475]]]},{"type":"Polygon","coordinates":[[[121.5734769,-0.6181557],[121.5184166,-0.0827531],[122.5133002,-0.1738873],[122.4582399,-0.4852575],[121.5734769,-0.6181557]]]},{"type":"Polygon","coordinates":[[[135.9143412,-0.5376152],[141.002472,-2.60708],[141.007019,-9.128468],[137.5265018,-8.5734198],[137.778046,-5.314722],[137.75,-5.28056],[132.2749207,-4.269561],[131.9937755,-2.4981545],[131.7219965,-1.7247065],[130.3600873,-1.4239089],[130.3679793,-0.6609333],[131.747714,-0.7029071],[132.2708154,-0.2700123],[135.9143412,-0.5376152]]]},{"type":"Polygon","coordinates":[[[97.8208849,-0.0459454],[97.9000969,-0.0537601],[97.9228304,-0.1226709],[97.8535643,-0.1223157],[97.8208849,-0.0459454]]]},{"type":"Polygon","coordinates":[[[98.4362014,0.0445515],[98.756183,-0.596122],[98.2113001,-0.7126066],[98.1511751,-0.0211873],[98.4362014,0.0445515]]]},{"type":"Polygon","coordinates":[[[129.8044986,0.4124869],[131.4023193,-0.0298128],[131.2088116,-0.6379667],[129.8432001,-0.5826819],[129.1908027,0.0033599],[129.8044986,0.4124869]]]},{"type":"Polygon","coordinates":[[[98.5212377,0.0423583],[98.4920178,0.2093289],[98.8551799,0.2101638],[98.8869044,0.055716],[98.5212377,0.0423583]]]},{"type":"Polygon","coordinates":[[[107.3542434,1.1254025],[107.6209451,1.0789219],[107.5736548,0.8944591],[107.3413992,0.9391911],[107.3542434,1.1254025]]]},{"type":"Polygon","coordinates":[[[96.9263456,1.4400228],[97.4995721,1.6435247],[98.2236498,0.6871489],[97.6432849,0.4508451],[96.9263456,1.4400228]]]},{"type":"Polygon","coordinates":[[[124.4094265,0.2270736],[120.4537564,0.4004401],[120.7077946,-1.2504543],[121.0636088,-1.2593981],[121.3750286,-0.7713658],[123.4805412,-0.4348321],[124.0864242,-1.906897],[123.5301794,-2.3448287],[122.5938484,-1.5787327],[121.9611764,-1.9703325],[124.1242468,-5.5867033],[121.9747511,-5.9243464],[120.8164457,-3.6786444],[120.924195,-2.8359792],[120.4123857,-2.970493],[120.8412676,-5.6213105],[119.2324315,-5.8941587],[118.2469655,-3.4238354],[119.9723081,1.0508331],[120.9921024,1.4822965],[123.775346,1.0840307],[125.161048,1.843512],[125.4745159,1.2858557],[124.4094265,0.2270736]]]},{"type":"Polygon","coordinates":[[[98.605432,1.5897553],[98.4156304,1.623934],[98.430982,1.7208869],[98.6012452,1.6846173],[98.605432,1.5897553]]]},{"type":"Polygon","coordinates":[[[96.5843132,2.2203889],[96.6866488,2.2131365],[96.6881004,2.0463214],[96.605361,2.0383429],[96.5843132,2.2203889]]]},{"type":"Polygon","coordinates":[[[129.2486664,2.5733436],[128.9541035,-1.0458244],[126.601305,-0.9000382],[127.4172189,2.8010063],[129.2486664,2.5733436]]]},{"type":"Polygon","coordinates":[[[97.382653,1.9944575],[97.0421302,1.9713361],[97.0399612,2.272611],[97.3320445,2.2653869],[97.382653,1.9944575]]]},{"type":"Polygon","coordinates":[[[118.6912559,2.1619357],[118.6061265,2.1488918],[118.5147544,2.3178869],[118.6600418,2.302009],[118.6912559,2.1619357]]]},{"type":"Polygon","coordinates":[[[125.3875483,2.2565046],[125.2910015,2.3114429],[125.4294589,2.4424597],[125.5111492,2.2927039],[125.3875483,2.2565046]]]},{"type":"Polygon","coordinates":[[[125.472286,2.807672],[125.5215005,2.6157616],[125.3539821,2.6044162],[125.3236963,2.8407569],[125.472286,2.807672]]]},{"type":"Polygon","coordinates":[[[95.6052619,2.7342264],[95.7954513,3.0277836],[96.5799824,2.4513937],[96.3681806,2.2484078],[95.6052619,2.7342264]]]},{"type":"Polygon","coordinates":[[[108.6189443,2.4471848],[108.7673596,3.0837517],[108.9611724,3.1133913],[109.1741919,2.5675476],[109.1127987,2.4276521],[108.6189443,2.4471848]]]},{"type":"Polygon","coordinates":[[[107.75943,2.974166],[107.753883,2.974166],[107.746292,2.98391],[107.742203,2.99139],[107.741653,2.997499],[107.743042,3.003055],[107.745819,3.007222],[107.752487,3.0138890000001],[107.756653,3.01667],[107.765549,3.02167],[107.775269,3.025555],[107.781937,3.025555],[107.791656,3.02167],[107.799149,3.015277],[107.809418,3.005],[107.812187,3.00111],[107.814148,2.99611],[107.814987,2.99],[107.813026,2.986666],[107.809418,2.983055],[107.75943,2.974166]]]},{"type":"Polygon","coordinates":[[[105.4667402,3.2042282],[106.4965621,3.4724219],[106.5883506,2.7593234],[105.6928534,2.6340926],[105.4667402,3.2042282]]]},{"type":"Polygon","coordinates":[[[125.4697512,3.2974687],[125.2953944,3.7600689],[125.618727,3.7920017],[125.7041054,3.3858898],[125.4697512,3.2974687]]]},{"type":"Polygon","coordinates":[[[126.9944412,3.698264],[126.5208694,3.7048277],[126.5252544,4.5969966],[126.92209,4.5532871],[126.9944412,3.698264]]]},{"type":"Polygon","coordinates":[[[107.7952112,4.064473],[108.1574405,4.3182153],[108.6900037,4.1849033],[108.49164,3.5739695],[107.8534266,3.5997923],[107.7952112,4.064473]]]},{"type":"Polygon","coordinates":[[[117.226379,4.359165],[117.592056,4.169818],[117.9133978,4.1686692],[117.7898599,2.8592276],[118.1347829,2.2675957],[117.9452367,1.8940814],[119.031132,1.0376528],[118.7921594,0.7475602],[117.8048598,0.6898161],[116.5198242,-4.043829],[114.5396821,-4.29419],[110.0339521,-3.0704106],[109.7488262,-1.3770652],[109.1628497,-1.2911421],[108.7192094,0.7716792],[109.2050193,1.980962],[109.648567,2.073409],[109.548027,1.90972],[109.667213,1.62417],[110.519707,0.866389],[110.806091,0.906667],[110.885536,1.00555],[111.79776,0.993889],[111.94165,1.124722],[112.127197,1.144444],[112.309708,1.49944],[114.590271,1.45417],[115.155548,2.92555],[115.487198,3.0275],[115.662491,4.0783330000001],[115.892487,4.368888],[117.226379,4.359165]]]},{"type":"Polygon","coordinates":[[[125.4771674,4.7221917],[125.4680194,4.7321595],[125.4899746,4.7516084],[125.5046114,4.736414],[125.4771674,4.7221917]]]},{"type":"Polygon","coordinates":[[[107.88176,4.682062],[107.9785498,4.811829],[108.0412194,4.7771343],[107.9848167,4.6355621],[107.88176,4.682062]]]},{"type":"Polygon","coordinates":[[[97.5563868,5.3480994],[103.1063811,1.1079955],[104.967922,1.259066],[106.9141622,-2.6050309],[105.784071,-5.9063163],[104.5140409,-5.9963659],[101.8662164,-3.9584775],[99.0735804,0.2022658],[98.6477002,1.7011386],[97.6448811,2.2549229],[94.5704854,5.5656218],[95.298613,5.9915334],[96.1797376,5.3763597],[97.5563868,5.3480994]]]}]},"properties":{"cca2":"id"}}