{"type":"FeatureCollection","features":[{"type":"Feature","geometry":{"type":"GeometryCollection","geometries":[{"type":"Polygon","coordinates":[[[-84.067242,15.798488],[-84.996964,15.991278],[-87.796071,15.944221],[-88.214737,15.72444],[-88.98056,15.135555],[-89.19446,14.58417],[-89.357146,14.434947],[-87.69467,13.819008],[-87.796777,13.387179],[-87.30139,12.986599],[-87.065306,13.002389],[-87.04918,12.98055],[-86.95668,13.03583],[-86.899287,13.295537],[-86.70251,13.287222],[-86.763016,13.751621],[-86.33835,13.757776],[-86.11639,14.034443],[-85.736389,13.828609],[-84.8389,14.830555],[-84.489731,14.618055],[-83.13185,14.992979],[-84.067242,15.798488]]]}]},"properties":{"cca2":"hn"}}]}