{"type":"FeatureCollection","features":[{"type":"Feature","geometry":{"type":"GeometryCollection","geometries":[{"type":"Polygon","coordinates":[[[-59.951283,5.040756],[-60.116112,5.2475],[-60.59251,4.924722],[-61.898223,4.18891],[-64.30806,3.718333],[-64.08223,1.6275],[-66.135284,0.7325],[-66.338058,0.765833],[-66.87826,1.23016],[-67.076675,1.173333],[-67.42418,2.143888],[-67.881119,1.752778],[-69.8461,1.710455],[-69.84222,1.072222],[-69.343613,1.074722],[-69.14001,0.86694],[-69.13223,0.63194],[-70.04417,0.59083],[-70.05806,-0.1575],[-69.61056,-0.760556],[-69.45264,-1.526032],[-69.94417,-4.21583],[-70.129419,-4.409595],[-70.42056,-4.13028],[-72.27917,-4.76361],[-73.996399,-7.56167],[-72.14389,-10.004723],[-70.682838,-9.529788],[-70.525668,-9.72503],[-70.62807,-9.835556],[-70.631393,-11.009167],[-69.568436,-10.951092],[-68.84889,-11.01611],[-68.757782,-11.14056],[-65.37195,-9.708889],[-65.31279,-11.493057],[-65.008347,-11.98944],[-60.47084,-13.80722],[-60.160278,-16.263058],[-58.32751,-16.27917],[-58.476395,-16.721668],[-58.371117,-17.27889],[-57.756218,-17.58027],[-57.521118,-18.203892],[-58.121117,-19.74139],[-57.84875,-19.978794],[-58.15889,-20.16806],[-57.85028,-21.336945],[-57.98511,-22.091827],[-55.74556,-22.395279],[-55.39667,-23.971111],[-54.288612,-24.020279],[-54.598915,-25.57322],[-53.89028,-25.631947],[-53.70945,-26.511112],[-53.838753,-27.17112],[-55.89473,-28.37167],[-57.577471,-30.193777],[-57.23389,-30.29333],[-56.840782,-30.081165],[-55.75944,-31.01694],[-55.581947,-30.845837],[-53.093056,-32.72973],[-53.511948,-33.12167],[-53.52972,-33.67334],[-53.246542,-33.798058],[-48.259258,-28.475021],[-48.042218,-25.493925],[-45.218101,-23.957572],[-42.85709,-23.109704],[-41.78401,-23.164928],[-40.62008,-21.967437],[-39.4288,-19.503423],[-37.321658,-12.388742],[-34.162825,-8.375642],[-35.061894,-4.865033],[-39.838643,-2.261446],[-48.573288,0.826894],[-51.495546,4.459177],[-52.90973,2.19583],[-55.921951,2.523056],[-56.08445,2.3575],[-55.900558,2.039166],[-55.898613,1.908333],[-55.993057,1.83833],[-56.48112,1.968611],[-56.52556,1.9225],[-57.296669,1.982222],[-58.813614,1.185555],[-59.75194,1.865278],[-59.73445,2.287222],[-59.964883,2.568193],[-59.94972,3.07194],[-59.56861,3.899444],[-59.791115,4.456111],[-60.14944,4.522499],[-59.951283,5.040756]]]}]},"properties":{"cca2":"br"}}]}