{"type":"FeatureCollection","features":[{"type":"Feature","geometry":{"type":"GeometryCollection","geometries":[{"type":"Polygon","coordinates":[[[-67.876404,-22.828056],[-69.469116,-17.500614],[-70.414568,-18.404993],[-71.203103,-26.565378],[-72.367579,-29.247088],[-72.43412,-33.450635],[-74.198009,-37.619081],[-75.125791,-41.58475],[-76.939302,-48.393273],[-75.737361,-52.745738],[-73.832289,-54.576801],[-70.658392,-55.999345],[-66.252757,-56.164565],[-66.002267,-55.201234],[-67.246925,-54.908404],[-68.596764,-54.890177],[-68.61758,-52.64151],[-68.452499,-52.414717],[-68.284497,-52.3372],[-71.910568,-51.99583],[-72.400558,-51.51362],[-72.298065,-50.645561],[-73.12973,-50.77222],[-73.53223,-50.140556],[-71.324722,-45.23806],[-72.122787,-43.0325],[-69.866394,-33.248894],[-70.5675,-31.46917],[-68.54112,-26.584446],[-68.570282,-24.81583],[-68.19,-24.371391],[-67.335846,-24.02167],[-66.745297,-22.836968],[-67.876404,-22.828056]]]}]},"properties":{"cca2":"cl"}}]}