{"type":"FeatureCollection","features":[{"type":"Feature","geometry":{"type":"GeometryCollection","geometries":[{"type":"Polygon","coordinates":[[[-67.923674,-53.546347],[-68.092291,-52.964249],[-68.61758,-52.64151],[-68.596764,-54.890177],[-67.246925,-54.908404],[-66.002268,-55.201234],[-63.429032,-54.880512],[-63.434895,-54.577296],[-65.577077,-54.553633],[-67.923674,-53.546347]]]},{"type":"Polygon","coordinates":[[[-64.594727,-22.21167],[-65.6575,-22.10889],[-66.22301,-21.78052],[-67.335846,-24.02167],[-68.19,-24.371391],[-68.570282,-24.81583],[-68.54112,-26.584446],[-70.5675,-31.46917],[-69.866394,-33.248894],[-72.122787,-43.0325],[-71.324722,-45.23806],[-73.53223,-50.140556],[-73.12973,-50.77222],[-72.298065,-50.645561],[-72.400558,-51.51362],[-71.910568,-51.99583],[-68.284497,-52.3372],[-68.584433,-50.794232],[-65.100689,-47.839502],[-66.118768,-46.041587],[-62.045538,-40.926478],[-61.574734,-39.373371],[-57.43961,-38.369586],[-55.885188,-36.675161],[-57.878499,-34.506131],[-58.409447,-33.915558],[-58.438614,-33.554451],[-58.359169,-33.128616],[-58.137505,-33.09584],[-58.135284,-32.35417],[-57.99139,-31.40639],[-57.795837,-30.87694],[-57.887222,-30.52195],[-57.668892,-30.35472],[-57.608002,-30.18492],[-57.577471,-30.193777],[-55.89473,-28.37167],[-53.838753,-27.17112],[-53.70945,-26.511112],[-53.89028,-25.631947],[-54.598915,-25.57322],[-54.604446,-25.94361],[-54.663063,-25.97722],[-54.69278,-26.428337],[-54.95723,-26.778336],[-55.405556,-26.97639],[-55.761116,-27.44334],[-55.888062,-27.33389],[-56.06444,-27.30278],[-56.275558,-27.40222],[-56.279167,-27.475281],[-57.129448,-27.489723],[-57.73556,-27.30528],[-58.604622,-27.31692],[-58.655006,-27.163334],[-58.31667,-26.87278],[-58.14473,-26.206947],[-57.57667,-25.54945],[-57.55584,-25.438057],[-57.73278,-25.240559],[-59.98278,-24.042778],[-61.012222,-23.810558],[-62.643768,-22.2389],[-62.561935,-22.000207],[-63.94112,-22.00083],[-64.299759,-22.869981],[-64.343903,-22.869446],[-64.594727,-22.21167]]]}]},"properties":{"cca2":"ar"}}]}