{"type":"FeatureCollection","features":[{"type":"Feature","geometry":{"type":"Polygon","coordinates":[[[-15.986124,63.226456],[-11.545811,65.018006],[-14.580949,67.482926],[-25.693835,66.889655],[-23.473464,62.725123],[-15.986124,63.226456]]]},"properties":{"cca2":"is"}},{"type":"Feature","geometry":{"type":"GeometryCollection","geometries":[{"type":"Polygon","coordinates":[[[-65.206533,17.868649],[-65.203943,18.385689],[-66.259901,18.596562],[-67.295985,18.595215],[-67.273035,17.86311],[-65.206533,17.868649]]]}]},"properties":{"cca2":"pr"}},{"type":"Feature","geometry":{"type":"MultiPolygon","coordinates":[[[[-64.761948,17.774166],[-64.7664,17.783054],[-64.76945,17.78694],[-64.773346,17.79],[-64.78696,17.7925],[-64.79695,17.78889],[-64.8114,17.774719],[-64.815567,17.771942],[-64.81862,17.768055],[-64.82695,17.762218],[-64.831955,17.76083],[-64.83806,17.76028],[-64.844452,17.761665],[-64.86195,17.77083],[-64.864456,17.774441],[-64.87083,17.774719],[-64.87973,17.769722],[-64.88251,17.765],[-64.8864,17.762218],[-64.890015,17.758331],[-64.891678,17.752499],[-64.89084,17.74667],[-64.883057,17.733887],[-64.88,17.72389],[-64.88196,17.710278],[-64.888901,17.686943],[-64.89195,17.682499],[-64.895844,17.679443],[-64.89612,17.676666],[-64.8775,17.685555],[-64.87222,17.686943],[-64.86806,17.68972],[-64.8625,17.689163],[-64.858612,17.685833],[-64.852234,17.684444],[-64.84306,17.688889],[-64.833618,17.683331],[-64.828339,17.683331],[-64.82306,17.68472],[-64.815567,17.691666],[-64.804459,17.693607],[-64.78862,17.69778],[-64.776947,17.699165],[-64.763062,17.698055],[-64.757782,17.699444],[-64.74445,17.70666],[-64.73889,17.70805],[-64.72639,17.705276],[-64.714172,17.70417],[-64.69196,17.708332],[-64.66833,17.710831],[-64.64418,17.721664],[-64.628067,17.72583],[-64.618896,17.730274],[-64.61084,17.736111],[-64.60057,17.747219],[-64.59584,17.749443],[-64.590561,17.749443],[-64.57806,17.746387],[-64.564178,17.74528],[-64.560287,17.748333],[-64.56084,17.753887],[-64.565,17.757221],[-64.570282,17.759441],[-64.57667,17.76083],[-64.59029,17.761944],[-64.610001,17.762218],[-64.63806,17.765274],[-64.65779,17.769165],[-64.663071,17.767776],[-64.67445,17.758053],[-64.683899,17.753887],[-64.687225,17.75],[-64.689728,17.74472],[-64.69667,17.74555],[-64.70917,17.754997],[-64.72195,17.758053],[-64.72974,17.76444],[-64.73584,17.772221],[-64.74139,17.774166],[-64.75334,17.773052],[-64.758621,17.771664],[-64.761948,17.774166]]],[[[-64.66528,18.332222],[-64.66112,18.335278],[-64.65834,18.339722],[-64.66446,18.3475],[-64.66833,18.35083],[-64.70862,18.37055],[-64.73195,18.37194],[-64.73918,18.370831],[-64.74417,18.36861],[-64.78195,18.343052],[-64.790009,18.336941],[-64.79028,18.33083],[-64.78807,18.326385],[-64.774734,18.317776],[-64.76918,18.31583],[-64.70445,18.307499],[-64.66528,18.332222]]],[[[-64.84167,18.312496],[-64.83585,18.313053],[-64.83307,18.317497],[-64.831955,18.324444],[-64.83446,18.328888],[-64.84695,18.338608],[-64.9039,18.364719],[-64.95001,18.375275],[-64.97667,18.377777],[-65.02417,18.367222],[-65.026947,18.362778],[-65.02612,18.35694],[-65.018341,18.350555],[-65.01195,18.34916],[-64.97945,18.346943],[-64.928619,18.338608],[-64.92306,18.336388],[-64.8864,18.316666],[-64.87807,18.31055],[-64.84167,18.312496]]]]},"properties":{"cca2":"vi"}}]}