{"type":"FeatureCollection","features":[{"type":"Feature","geometry":{"type":"Polygon","coordinates":[[[4.436388,51.378883],[3.907215,51.204467],[3.285162,51.412848],[2.541667,51.09111],[2.867503,50.713379],[3.162222,50.783607],[5.437778,49.599998],[5.831863,49.510665],[5.900277,49.640549],[5.746666,49.795273],[5.976388,50.171387],[6.134414,50.127846],[6.173333,50.232498],[6.398204,50.323174],[6.344444,50.484161],[6.264722,50.497772],[6.268611,50.623604],[5.655555,50.822495],[5.640555,50.863052],[5.855111,51.148338],[5.834444,51.165833],[5.568334,51.220711],[5.510833,51.294441],[5.139999,51.320831],[5.076666,51.398888],[5.104444,51.434998],[5.035555,51.487221],[4.929999,51.398605],[4.828951,51.423723],[4.845555,51.48111],[4.757222,51.496666],[4.671388,51.427757],[4.546944,51.425827],[4.550833,51.479439],[4.393888,51.450272],[4.436388,51.378883]]]},"properties":{"cca2":"be"}}]}