{"type":"FeatureCollection","features":[{"type":"Feature","geometry":{"type":"GeometryCollection","geometries":[{"type":"Polygon","coordinates":[[[-92.745951,-0.664834],[-89.896952,-2.394526],[-88.618724,0.190709],[-90.946961,1.016804],[-92.745951,-0.664834]]]},{"type":"Polygon","coordinates":[[[-75.24612,-0.554167],[-75.45917,-0.295],[-75.381984,-0.165864],[-77.418335,0.406667],[-78.80972,1.43778],[-80.252637,0.818088],[-80.015015,0.546389],[-80.569559,-0.322818],[-80.660667,-0.816298],[-80.939378,-1.052671],[-80.771478,-1.94517],[-81.039599,-2.199066],[-80.378898,-2.916192],[-80.143011,-3.913529],[-80.50122,-4.05535],[-80.369581,-4.28492],[-80.482788,-4.412778],[-80.370573,-4.489526],[-80.168335,-4.291112],[-79.496272,-4.520094],[-79.448624,-4.78972],[-79.05482,-5.00913],[-78.665558,-4.554445],[-78.369171,-3.524167],[-77.85722,-2.98444],[-76.66063,-2.57213],[-76.07417,-2.13111],[-75.55917,-1.53417],[-75.402237,-0.92278],[-75.217117,-0.97606],[-75.28343,-0.65621],[-75.242302,-0.639692],[-75.24612,-0.554167]]]}]},"properties":{"cca2":"ec"}}]}