{"type":"FeatureCollection","features":[{"type":"Feature","geometry":{"type":"Polygon","coordinates":[[[14.70028,48.581379],[14.812498,48.781387],[14.958887,48.794716],[14.996944,49.0075],[15.353333,48.985832],[16.103333,48.75],[16.403332,48.74305],[16.457497,48.811943],[16.54361,48.811943],[16.78833,48.719162],[17.677498,48.851944],[18.075279,49.041943],[18.208054,49.284164],[18.379444,49.330276],[18.541111,49.453331],[18.551388,49.486938],[18.851246,49.517357],[18.809998,49.674438],[18.634163,49.737778],[18.57935,49.814995],[18.579441,49.912498],[18.053162,50.055931],[17.933052,49.979721],[17.597775,50.158333],[17.762775,50.234718],[16.887497,50.437492],[17.00222,50.216942],[16.703888,50.098328],[16.20583,50.423882],[16.448055,50.572777],[16.369999,50.644165],[15.37972,50.779442],[15.176943,51.014717],[15.010555,50.984161],[15.005278,50.867218],[14.828333,50.865829],[14.801666,50.818886],[14.311388,50.882217],[12.206142,50.106209],[13.833611,48.773605],[14.278332,48.582497],[14.608889,48.628883],[14.70028,48.581379]]]},"properties":{"cca2":"cz"}}]}