{"type":"Feature","geometry":{"type":"GeometryCollection","geometries":[{"type":"Polygon","coordinates":[[[42.2932408,16.7515536],[42.1061599,16.4539348],[41.4874903,16.9474495],[41.9233292,17.1504953],[42.2932408,16.7515536]]]},{"type":"Polygon","coordinates":[[[34.5,27.941944],[34.48683,27.9989553],[34.5404952,28.0249976],[34.6402323,27.9174356],[34.5488949,27.8913673],[34.5,27.941944]]]},{"type":"Polygon","coordinates":[[[44.721661,29.19833],[46.546944,29.104198],[47.459991,28.99944],[47.68888,28.538883],[48.416588,28.545277],[48.5045498,28.4990256],[50.2618772,26.8027136],[50.3091024,25.8893249],[50.9303867,24.5441542],[51.492218,24.57972],[51.583328,24.116659],[52.583328,22.93889],[55.199165,22.699718],[55.66611,21.999722],[55,20],[48.766388,18.266388],[46.333054,15.61694],[46.333328,16.666664],[44.467499,17.411942],[43.19194,17.34222],[43.20611,16.67222],[42.91861,16.42305],[42.7475585,16.3746846],[40.4364455,19.7851942],[39.8256782,20.0692209],[38.8926258,21.3317279],[38.6781059,22.5416022],[35.0567292,28.0926229],[34.6065762,28.0076321],[34.5356619,28.1443579],[34.961388,29.36083],[36.07,29.188889],[36.500549,29.502777],[36.743607,29.864719],[37.502777,30.00222],[37.667496,30.336388],[38.001389,30.504166],[37.00527,31.505554],[39.004997,32.005554],[39.196743,32.154942],[40.41333,31.94833],[44.721661,29.19833]]]}]},"properties":{"cca2":"sa"}}