{"type":"Feature","geometry":{"type":"GeometryCollection","geometries":[{"type":"Polygon","coordinates":[[[53.3043337,12.0997901],[53.2338775,12.0975856],[53.228241,12.1438766],[53.3167339,12.135611],[53.3043337,12.0997901]]]},{"type":"Polygon","coordinates":[[[53.0890196,12.103648],[52.9621985,12.1521421],[52.9965811,12.2006273],[53.1155111,12.1807935],[53.0890196,12.103648]]]},{"type":"Polygon","coordinates":[[[52.403004,12.2156751],[52.4106002,12.1161711],[52.0452194,12.1844913],[52.0619312,12.26764],[52.403004,12.2156751]]]},{"type":"Polygon","coordinates":[[[54.4493528,12.7632722],[54.5605606,12.3073343],[53.226066,12.2877762],[53.3737541,12.7866255],[54.4493528,12.7632722]]]},{"type":"Polygon","coordinates":[[[42.6893294,13.630043],[42.6366145,13.6771702],[42.6759749,13.7570598],[42.7673473,13.8116695],[42.8432567,13.7556944],[42.6893294,13.630043]]]},{"type":"Polygon","coordinates":[[[42.745691,13.8876646],[42.6505678,14.0240395],[42.8105478,14.1079223],[42.8527047,13.9191428],[42.745691,13.8876646]]]},{"type":"Polygon","coordinates":[[[42.7475585,16.3746847],[42.91861,16.42305],[43.20611,16.67222],[43.19194,17.34222],[44.467499,17.411942],[46.333328,16.666664],[46.333054,15.61694],[48.766388,18.266388],[51.9340977,19.1496255],[53.114441,16.642778],[52.2443275,16.1585313],[52.2716267,15.5882437],[43.6344655,12.1976449],[42.963923,14.0459425],[42.7475585,16.3746847]]]}]},"properties":{"cca2":"ye"}}