{"type":"Feature","geometry":{"type":"Polygon","coordinates":[[[20.6499614,57.4438695],[22.5569648,57.8518274],[23.5794364,57.0894601],[24.2577851,57.2679648],[24.2902301,57.8969505],[25.307499,58.081383],[26.034996,57.823326],[26.511387,57.5261],[26.602776,57.525826],[26.906105,57.633049],[27.3515651,57.518208],[27.866976,57.294999],[27.7371559,56.920078],[28.1320231,56.580105],[28.1574191,56.143574],[28.1216622,56.1665133],[27.92944,56.113327],[27.654995,55.929161],[27.601662,55.793327],[27.531109,55.788887],[27.156105,55.846382],[26.989994,55.834717],[26.863331,55.716934],[26.731663,55.688881],[26.668884,55.705826],[26.633331,55.69471],[26.613209,55.674835],[25.696941,56.115273],[25.106106,56.197212],[24.922218,56.439987],[24.87944,56.448601],[24.558331,56.28833],[22.067219,56.419441],[21.345829,56.23555],[21.204716,56.083878],[21.051685,56.077309],[20.6499614,57.4438695]]]},"properties":{"cca2":"lv"}}