{"type":"FeatureCollection","features":[{"type":"Feature","geometry":{"type":"GeometryCollection","geometries":[{"type":"Polygon","coordinates":[[[17.818598,61.556991],[24.160553,65.84],[23.486942,67.86916],[23.666111,67.941666],[22.82361,68.388046],[21.704132,68.628031],[17.273609,68.090546],[15.468054,66.28387],[14.505,66.132492],[13.981667,64.013046],[12.846943,64.025269],[12.139444,63.58416],[11.750832,59.174438],[10.796131,58.844975],[12.904367,55.638184],[12.73781,55.543245],[13.02134,55.280863],[14.552369,55.37533],[14.44128,55.887636],[16.7578,56.17637],[17.333849,56.997393],[18.495635,56.62459],[19.83592,58.032824],[18.200478,58.473686],[19.767477,59.829202],[17.818598,61.556991]]]}]},"properties":{"cca2":"se"}}]}