{"type":"FeatureCollection","features":[{"type":"Feature","geometry":{"type":"GeometryCollection","geometries":[{"type":"Polygon","coordinates":[[[-81.793642,7.143965],[-81.472706,7.414684],[-81.743145,7.68833],[-81.940774,7.52099],[-81.793642,7.143965]]]},{"type":"Polygon","coordinates":[[[-78.018405,9.263899],[-78.557971,9.452886],[-79.051264,9.451889],[-79.0614,9.5],[-78.960007,9.538055],[-78.960486,9.575683],[-79.520884,9.628316],[-79.643704,9.625526],[-80.6364,9.041666],[-81.554733,8.825277],[-82.246019,9.457963],[-82.76862,9.654999],[-82.93472,9.471666],[-82.943231,8.264907],[-82.860486,8.020574],[-81.95251,8.18861],[-81.629828,7.738003],[-80.882513,7.025992],[-79.848459,7.52521],[-80.434825,8.092234],[-79.340423,8.952615],[-78.614524,8.621263],[-78.536179,8.093073],[-77.906529,7.208181],[-77.19833,7.99944],[-77.451915,8.502082],[-77.36667,8.674999],[-78.018405,9.263899]]]}]},"properties":{"cca2":"pa"}},{"type":"Feature","properties":{},"geometry":{"type":"Polygon","coordinates":[[[-79.133017,8.658443],[-79.305215,8.175807],[-78.743182,8.051504],[-78.734811,8.522467],[-79.133017,8.658443]]]}}]}