{"type":"FeatureCollection","features":[{"type":"Feature","geometry":{"type":"Polygon","coordinates":[[[77.906506,53.29141],[80.075669,50.738362],[81.413189,50.975642],[81.449176,50.756115],[82.536807,50.747055],[83.329825,51.009055],[84.077553,50.640312],[84.490696,50.948059],[83.932919,51.138087],[85.718524,51.751459],[85.801344,52.052413],[86.801044,52.158722],[86.657025,52.425446],[86.809816,52.648098],[87.12695,52.615339],[87.168651,52.69609],[86.920182,52.829015],[87.062859,53.027657],[86.630873,53.24131],[86.848874,53.320845],[86.849145,53.322939],[86.863926,53.437874],[85.159972,54.45311],[85.115957,54.43783],[82.376001,53.513109],[80.951725,54.375455],[77.906506,53.29141]]]},"properties":{"place_id":201982913,"osm_type":"relation","osm_id":144764,"place_rank":8,"category":"boundary","type":"administrative","importance":0.6527243145099346,"addresstype":"state","name":"Алтайский край","display_name":"Алтайский край, Сибирский федеральный округ, Россия","address":{"state":"Алтайский край","ISO3166-2-lvl4":"RU-ALT","region":"Сибирский федеральный округ","country":"Россия","country_code":"ru"}},"bbox":[77.8891211,50.6399929,87.1686505,54.4531098]}]}