{"type":"FeatureCollection","features":[{"type":"Feature","geometry":{"type":"Polygon","coordinates":[[[120.120565,55.865797],[121.209493,56.038809],[121.336304,55.530157],[121.943778,55.529475],[121.68464,54.008627],[122.098426,53.437878],[123.622466,53.546759],[125.741238,52.977585],[127.796917,49.598855],[129.690605,49.296305],[130.24189,48.86036],[131.046083,48.97668],[131.12415,49.23587],[131.420028,49.255453],[131.457229,50.181632],[130.672647,50.638403],[131.451579,51.49578],[132.564464,52.058023],[133.417107,52.233231],[133.262142,52.682232],[134.597403,52.424464],[134.822358,53.479781],[134.565446,53.619653],[131.454406,53.219148],[131.439608,53.728501],[130.386742,53.927568],[131.166637,54.626454],[132.972059,55.401858],[132.534959,55.716739],[130.948747,55.7125],[126.333758,55.583958],[124.474815,55.902922],[123.878475,56.39667],[121.440965,56.975217],[119.633789,57.005391],[119.681054,56.745062],[120.533436,56.276252],[120.050926,56.157982],[120.120565,55.865797]]]},"properties":{"place_id":202922073,"osm_type":"relation","osm_id":147166,"place_rank":8,"category":"boundary","type":"administrative","importance":0.6298402195391385,"addresstype":"state","name":"Амурская область","display_name":"Амурская область, Дальневосточный федеральный округ, Россия","address":{"state":"Амурская область","ISO3166-2-lvl4":"RU-AMU","region":"Дальневосточный федеральный округ","country":"Россия","country_code":"ru"}},"bbox":[119.6553908,48.8531005,134.9209128,57.0605084]}]}