{"type":"FeatureCollection","features":[{"type":"Feature","geometry":{"type":"GeometryCollection","geometries":[{"type":"Polygon","coordinates":[[[36.455216,63.626485],[35.892773,63.576226],[36.528467,62.793114],[37.513466,62.651627],[37.785939,61.537389],[38.620793,60.718757],[49.320819,61.152773],[49.640276,62.771121],[48.730638,62.87789],[48.278393,62.224782],[47.280562,62.21353],[46.749458,63.780519],[45.39935,64.174919],[50.360683,64.510388],[49.000469,66.113571],[47.158131,65.819042],[42.505704,66.990239],[38.37905,65.7077],[36.018929,65.790001],[36.455216,63.626485]]]},{"type":"Polygon","coordinates":[[[49.392737,78.908118],[68.735576,80.263076],[64.668854,82.252809],[42.332143,80.955336],[49.392737,78.908118]]]},{"type":"Polygon","coordinates":[[[47.602986,71.713125],[56.92916,70.231786],[71.602315,76.884148],[62.378197,77.940637],[47.602986,71.713125]]]}]},"properties":{"place_id":252602550,"osm_type":"relation","osm_id":140337,"place_rank":8,"category":"boundary","type":"administrative","importance":0.6682265707736302,"addresstype":"state","name":"Архангельская область","display_name":"Архангельская область, Северо-Западный федеральный округ, Россия","address":{"state":"Архангельская область","ISO3166-2-lvl4":"RU-ARK","region":"Северо-Западный федеральный округ","country":"Россия","country_code":"ru"}},"bbox":[35.2695977,60.6358162,69.9572252,82.0586232]}]}