{"type":"FeatureCollection","features":[{"type":"Feature","geometry":{"type":"GeometryCollection","geometries":[{"type":"Polygon","coordinates":[[[44.960978,48.270856],[45.756632,48.001333],[46.962178,46.97422],[46.550708,45.682444],[47.528429,45.653518],[47.574749,45.392682],[47.826803,45.262264],[48.555594,45.411599],[49.886117,46.045769],[48.477902,46.670621],[48.995967,46.743084],[48.20937,47.691627],[47.122974,48.268503],[46.493218,48.432558],[46.622036,48.667749],[45.805922,48.682752],[45.201132,48.538841],[44.960978,48.270856]]]}]},"properties":{"place_id":188790972,"osm_type":"relation","osm_id":112819,"place_rank":8,"category":"boundary","type":"administrative","importance":0.610489156737459,"addresstype":"state","name":"Астраханская область","display_name":"Астраханская область, Южный федеральный округ, Россия","address":{"state":"Астраханская область","ISO3166-2-lvl4":"RU-AST","region":"Южный федеральный округ","country":"Россия","country_code":"ru"}},"bbox":[44.9609783,45.2622642,49.886117,48.8635655]}]}