{"type":"FeatureCollection","features":[{"type":"Feature","geometry":{"type":"Polygon","coordinates":[[[35.404199,50.573504],[35.626489,50.351981],[35.738456,50.354506],[35.792842,50.41581],[36.08658,50.448313],[36.295705,50.29179],[36.647948,50.217656],[36.6481,50.217677],[37.463651,50.452084],[38.032935,49.900395],[38.221812,49.979189],[38.178774,50.079928],[38.329302,50.08544],[38.370878,49.999919],[38.901427,49.868054],[38.93496,49.799789],[39.067077,49.815662],[39.252776,49.986518],[38.988541,50.698117],[38.721038,50.788247],[38.726105,50.900035],[38.879778,50.902882],[38.856455,51.036004],[38.803496,51.076693],[38.388113,51.076847],[38.387686,51.077056],[38.396234,51.162881],[38.52222,51.163495],[38.51939,51.211023],[38.434292,51.28578],[38.358529,51.303662],[38.229799,51.30122],[38.005829,51.423132],[37.145484,51.354434],[37.148927,51.228885],[36.59916,51.067292],[36.028238,51.155743],[35.831359,50.940622],[35.389233,50.961278],[35.404199,50.573504]]]},"properties":{"place_id":178619258,"osm_type":"relation","osm_id":83184,"place_rank":8,"category":"boundary","type":"administrative","importance":0.6353800489193252,"addresstype":"state","name":"Белгородская область","display_name":"Белгородская область, Центральный федеральный округ, Россия","address":{"state":"Белгородская область","ISO3166-2-lvl4":"RU-BEL","region":"Центральный федеральный округ","country":"Россия","country_code":"ru"}},"bbox":[35.3257629,49.7968246,39.2807694,51.4302873]}]}