{"type":"FeatureCollection","features":[{"type":"Feature","geometry":{"type":"GeometryCollection","geometries":[{"type":"Polygon","coordinates":[[[31.59617,52.75703],[31.49779,52.695225],[31.688136,52.202499],[31.962233,52.053196],[32.096163,52.033614],[32.367903,52.146496],[32.382495,52.337383],[32.912003,52.250919],[33.196327,52.374011],[33.578112,52.310562],[33.836472,52.361389],[34.369201,51.844874],[34.394976,51.84612],[34.869013,52.202119],[34.926752,52.367907],[34.848439,52.398047],[35.111087,52.696917],[34.826267,52.862175],[35.28358,53.019737],[35.229447,53.28074],[34.637519,53.384707],[34.22499,53.88601],[33.80622,53.89639],[33.818175,53.986889],[33.579107,54.032095],[33.521366,53.998326],[33.460621,54.052595],[32.77006,53.408691],[32.160311,53.085907],[31.628458,53.231233],[31.40184,53.21185],[31.306879,53.03655],[31.59617,52.75703]]]}]},"properties":{"place_id":181642603,"osm_type":"relation","osm_id":81997,"place_rank":8,"category":"boundary","type":"administrative","importance":0.6340322679615831,"addresstype":"state","name":"Брянская область","display_name":"Брянская область, Центральный федеральный округ, Россия","address":{"state":"Брянская область","ISO3166-2-lvl4":"RU-BRY","region":"Центральный федеральный округ","country":"Россия","country_code":"ru"}},"bbox":[31.2419083,51.8434738,35.3251271,54.034031]}]}