{"type":"FeatureCollection","features":[{"type":"Feature","geometry":{"type":"Polygon","coordinates":[[[44.832273,43.682138],[44.847401,43.564662],[44.95689,43.521139],[44.972221,43.469033],[45.13652,43.421267],[45.126384,43.192984],[45.185056,43.166356],[45.194209,43.102423],[45.077801,43.00832],[45.08444,42.844268],[45.084431,42.844165],[45.194208,42.823108],[45.087856,42.712806],[45.158373,42.70753],[45.338452,42.524475],[45.588087,42.537602],[45.609381,42.508641],[45.711488,42.476497],[45.820836,42.498659],[46.178355,42.741379],[46.117027,42.802909],[46.207953,42.889672],[46.239047,42.860175],[46.317497,42.904382],[46.366963,42.840911],[46.525105,42.928403],[46.330092,43.433851],[46.64995,43.807156],[45.435664,44.009498],[45.437971,43.875652],[45.202031,43.876939],[45.202611,43.957486],[45.053299,43.957945],[45.063673,43.719997],[44.80294,43.71941],[44.832273,43.682138]]]},"properties":{"place_id":191530859,"osm_type":"relation","osm_id":109877,"place_rank":8,"category":"boundary","type":"administrative","importance":0.6567364096351006,"addresstype":"state","name":"Чечня","display_name":"Чечня, Северо-Кавказский федеральный округ, Россия","address":{"state":"Чечня","ISO3166-2-lvl4":"RU-CE","region":"Северо-Кавказский федеральный округ","country":"Россия","country_code":"ru"}},"bbox":[44.8322725,42.4755818,46.6627047,44.0105126]}]}