{"type":"FeatureCollection","features":[{"type":"Feature","geometry":{"type":"Polygon","coordinates":[[[57.239442,54.965594],[57.1413,54.856919],[57.246387,54.769602],[57.740768,54.58352],[57.753415,54.502689],[58.012355,54.396461],[58.422745,54.558997],[58.599272,54.461433],[58.714686,54.478191],[59.066472,54.649768],[59.264685,54.6133],[59.617976,54.906112],[59.825031,54.847798],[60.001809,54.864135],[59.853776,54.609024],[59.689025,54.521804],[59.707596,54.141771],[59.526838,54.187402],[59.325654,54.187793],[59.139867,53.965014],[58.929136,53.956497],[58.838291,52.520821],[58.781245,52.520394],[58.770178,52.471171],[58.854927,52.425806],[58.859035,52.4468],[59.824166,52.480058],[60.162998,52.40012],[60.162306,52.280132],[59.907737,52.039946],[60.001992,51.993281],[60.32588,52.048063],[61.066798,52.347091],[60.711907,52.764361],[61.251028,53.036184],[61.306843,52.995954],[62.029335,52.951047],[62.13044,52.99006],[62.119306,53.111815],[61.226235,53.283385],[61.136899,53.904515],[63.350333,54.193055],[63.199821,54.699085],[62.080685,54.675135],[62.525893,55.769909],[61.638328,56.319496],[59.159735,56.345371],[59.042282,56.168689],[59.330524,56.15959],[59.135716,55.789494],[59.642548,55.558453],[58.005082,54.906153],[57.932921,54.948617],[58.008687,55.282699],[57.22047,55.236606],[57.239442,54.965594]]]},"properties":{"place_id":185325755,"osm_type":"relation","osm_id":77687,"place_rank":8,"category":"boundary","type":"administrative","importance":0.6589732149753109,"addresstype":"state","name":"Челябинская область","display_name":"Челябинская область, Уральский федеральный округ, Россия","address":{"state":"Челябинская область","ISO3166-2-lvl4":"RU-CHE","region":"Уральский федеральный округ","country":"Россия","country_code":"ru"}},"bbox":[57.1312877,51.9908827,63.3520149,56.3657203]}]}