{"type":"FeatureCollection","features":[{"type":"Feature","geometry":{"type":"GeometryCollection","geometries":[{"type":"Polygon","coordinates":[[[-180,64.746324],[-178.72785,65.26261],[-176.687448,65.275205],[-174.038996,63.943299],[-171.748847,64.42714],[-171.441693,65.313568],[-168.976944,65.5],[-169.182167,66.156227],[-171.527203,67.134843],[-180,69.289509],[-180,64.746324]]]},{"type":"Polygon","coordinates":[[[-180,70.716602],[-175.658774,70.829821],[-174.796263,71.472562],[-177.107688,71.872907],[-180,71.749075],[-180,70.716602]]]},{"type":"Polygon","coordinates":[[[163.264824,64.693339],[163.49146,64.877789],[169.493012,63.848934],[169.524393,63.563778],[168.479792,63.071929],[170.203794,62.294414],[173.772736,62.522912],[174.502394,61.607801],[179.273153,62.090728],[180,62.875905],[178.902255,64.258018],[180,64.746324],[180,69.289509],[163.298049,71.075173],[162.399885,68.274182],[158.309161,68.018818],[158.498013,66.113599],[158.927563,65.776983],[163.264824,64.693339]]]},{"type":"Polygon","coordinates":[[[180,70.716602],[180,71.749075],[177.740046,71.321668],[178.357373,70.60104],[180,70.716602]]]}]},"properties":{"place_id":253438613,"osm_type":"relation","osm_id":151231,"place_rank":8,"category":"boundary","type":"administrative","importance":0.6054051018937252,"addresstype":"state","name":"Чукотский автономный округ","display_name":"Чукотский автономный округ, Дальневосточный федеральный округ, Россия","address":{"state":"Чукотский автономный округ","ISO3166-2-lvl4":"RU-CHU","region":"Дальневосточный федеральный округ","country":"Россия","country_code":"ru"}},"bbox":[-180,61.6078007,180,71.8052587]}]}