{"type":"FeatureCollection","features":[{"type":"Feature","geometry":{"type":"GeometryCollection","geometries":[{"type":"Polygon","coordinates":[[[45.919676,55.667155],[46.391024,55.458011],[46.012038,55.162781],[46.062037,55.047713],[46.271104,54.962979],[46.483347,54.759612],[46.894071,54.644902],[47.25867,54.67769],[47.38594,54.841392],[47.991083,54.967008],[48.006551,55.289475],[47.669428,55.214214],[47.678722,55.315238],[48.454951,55.822548],[48.034868,55.942541],[47.888946,56.119947],[47.424773,56.156995],[47.431433,56.224805],[47.379797,56.227204],[47.392523,56.322986],[47.251551,56.328518],[47.247416,56.311523],[47.150598,56.315466],[47.146215,56.277258],[46.828034,56.195989],[46.808667,56.20076],[46.656089,56.0987],[46.602689,56.131939],[46.066758,56.03537],[45.919676,55.667155]]]}]},"properties":{"place_id":181237898,"osm_type":"relation","osm_id":80513,"place_rank":8,"category":"boundary","type":"administrative","importance":0.6222495898315572,"addresstype":"state","name":"Чувашия","display_name":"Чувашия, Приволжский федеральный округ, Россия","address":{"state":"Чувашия","ISO3166-2-lvl4":"RU-CU","region":"Приволжский федеральный округ","country":"Россия","country_code":"ru"}},"bbox":[45.9112555,54.6273954,48.4206024,56.3285177]}]}