{"type":"FeatureCollection","features":[{"type":"Feature","geometry":{"type":"Polygon","coordinates":[[[130.993733,47.696167],[132.526534,47.713694],[134.188314,48.383718],[134.862499,48.368997],[134.966521,48.512331],[134.956603,48.618684],[133.281351,48.848458],[133.208725,49.093121],[132.099564,49.487938],[131.988628,49.255894],[131.420028,49.255453],[131.12415,49.23587],[131.046083,48.97668],[130.666056,48.921746],[130.521526,48.619889],[130.993733,47.696167]]]},"properties":{"place_id":251847460,"osm_type":"relation","osm_id":147167,"place_rank":8,"category":"boundary","type":"administrative","importance":0.5932974068804089,"addresstype":"state","name":"Еврейская автономная область","display_name":"Еврейская автономная область, Дальневосточный федеральный округ, Россия","address":{"state":"Еврейская автономная область","ISO3166-2-lvl4":"RU-YEV","region":"Дальневосточный федеральный округ","country":"Россия","country_code":"ru"}},"bbox":[130.5215263,47.6565182,134.9928911,49.4941038]}]}