{"type":"FeatureCollection","features":[{"type":"Feature","geometry":{"type":"GeometryCollection","geometries":[{"type":"Polygon","coordinates":[[[131.439608,53.728501],[131.454406,53.219148],[134.565446,53.619653],[134.822358,53.479781],[134.597403,52.424464],[133.262142,52.682232],[133.417107,52.233231],[132.564464,52.058023],[131.451579,51.49578],[130.672647,50.638403],[131.457229,50.181632],[131.420028,49.255453],[131.988628,49.255894],[132.099564,49.487938],[133.208725,49.093121],[133.281351,48.848458],[134.956603,48.618684],[134.966521,48.512331],[134.57013,47.963967],[134.770398,47.715136],[134.169334,47.318385],[134.009213,46.656359],[134.427494,46.696189],[134.665133,47.124656],[135.287642,47.163697],[135.361119,46.921722],[136.609847,46.795264],[136.610842,46.794656],[136.611492,46.794186],[136.612325,46.794047],[136.612967,46.794136],[136.613217,46.794328],[136.613067,46.794681],[136.612569,46.795275],[136.612681,46.795503],[136.613447,46.796042],[136.614425,46.796531],[136.614992,46.796281],[136.615589,46.796006],[136.616903,46.795408],[136.618067,46.795131],[136.618636,46.7951],[136.619153,46.795408],[136.619519,46.795986],[137.071342,47.301339],[137.511972,47.238375],[138.074517,47.563817],[137.313492,48.106003],[138.398411,48.439058],[138.798683,47.809836],[138.507653,47.672944],[138.54125,47.478883],[139.309393,47.310879],[140.489302,48.551651],[141.415715,51.620122],[141.708374,53.238288],[141.491718,53.556524],[137.83754,55.920488],[142.614367,59.013151],[146.949863,59.151093],[147.037113,59.924438],[145.532055,60.42134],[146.703883,60.949054],[146.154513,61.933622],[144.73642,62.045483],[144.370618,61.790263],[142.396031,61.90198],[141.070223,62.482954],[140.714073,62.485035],[139.630088,61.547771],[138.336002,61.105422],[138.246242,59.695121],[132.750593,59.016327],[130.948747,55.7125],[132.534959,55.716739],[132.972059,55.401858],[131.166637,54.626454],[130.386742,53.927568],[131.439608,53.728501]]]}]},"properties":{"place_id":250173304,"osm_type":"relation","osm_id":151223,"place_rank":8,"category":"boundary","type":"administrative","importance":0.6292709995728215,"addresstype":"state","name":"Хабаровский край","display_name":"Хабаровский край, Дальневосточный федеральный округ, Россия","address":{"state":"Хабаровский край","ISO3166-2-lvl4":"RU-KHA","region":"Дальневосточный федеральный округ","country":"Россия","country_code":"ru"}},"bbox":[130.3867416,46.6388444,147.2167891,62.5317458]}]}