{"type":"FeatureCollection","features":[{"type":"Feature","geometry":{"type":"Polygon","coordinates":[[[59.489022,61.946615],[62.759244,61.061809],[63.999311,59.390422],[65.073284,59.312794],[65.637109,58.65854],[66.785238,58.656545],[66.772472,58.923282],[68.394942,59.298175],[68.573477,59.588587],[70.155393,59.943756],[75.131298,58.663889],[75.898194,59.400331],[76.664888,59.571174],[77.110482,60.85852],[82.151514,60.523182],[83.949694,60.836217],[85.965282,61.459195],[84.677915,61.80813],[84.386936,62.25079],[80.921949,63.156636],[78.092906,62.464098],[70.922692,63.702792],[70.740314,64.204023],[68.858472,64.438539],[67.764454,64.035305],[66.988927,64.183609],[66.957866,64.516283],[62.563451,64.566911],[62.837883,65.294394],[62.000444,65.717736],[59.466195,64.505842],[59.489022,61.946615]]]},"properties":{"place_id":200971533,"osm_type":"relation","osm_id":140296,"place_rank":8,"category":"boundary","type":"administrative","importance":0.6298925143522539,"addresstype":"state","name":"Ханты-Мансийский автономный округ — Югра","display_name":"Ханты-Мансийский автономный округ — Югра, Уральский федеральный округ, Россия","address":{"state":"Ханты-Мансийский автономный округ — Югра","ISO3166-2-lvl4":"RU-KHM","region":"Уральский федеральный округ","country":"Россия","country_code":"ru"}},"bbox":[59.2037939,58.5798531,85.9766731,65.7177356]}]}