{"type":"FeatureCollection","features":[{"type":"Feature","geometry":{"type":"Polygon","coordinates":[[[98.30404,53.09883],[98.948711,53.137604],[99.23044,52.963329],[100.274904,53.367562],[103.808414,51.187466],[108.012655,53.233717],[109.067727,54.425906],[108.575649,54.561735],[108.746911,56.572157],[111.76735,56.946815],[113.881582,56.524144],[114.158218,56.697425],[114.768111,56.68749],[115.077618,57.11123],[115.676873,57.137312],[115.749255,56.978688],[116.799821,56.74994],[117.677128,57.027252],[117.079749,57.827945],[117.656808,58.402446],[118.253314,58.397765],[118.678455,58.178767],[119.173188,58.244553],[118.749395,59.347716],[116.167005,60.429603],[115.213945,60.484273],[113.289862,59.163762],[109.811944,59.004253],[109.271354,59.386699],[110.548786,61.100268],[108.35332,64.041111],[106.664368,64.044317],[106.422636,62.067912],[104.546344,60.801255],[105.455097,59.846559],[104.730024,58.671515],[102.927716,59.287919],[100.940017,57.464484],[100.443023,57.530881],[100.037381,58.076156],[97.9532,57.828574],[97.383541,57.024656],[97.883253,56.381546],[96.593813,55.027032],[96.53861,54.533311],[96.036922,54.532561],[95.689856,54.396397],[95.675908,54.242595],[98.30404,53.09883]]]},"properties":{"place_id":201634265,"osm_type":"relation","osm_id":145454,"place_rank":8,"category":"boundary","type":"administrative","importance":0.6358152566310631,"addresstype":"state","name":"Иркутская область","display_name":"Иркутская область, Сибирский федеральный округ, Россия","address":{"state":"Иркутская область","ISO3166-2-lvl4":"RU-IRK","region":"Сибирский федеральный округ","country":"Россия","country_code":"ru"}},"bbox":[95.6462714,51.1298852,119.1393147,64.321545]}]}