{"type":"FeatureCollection","features":[{"type":"Feature","geometry":{"type":"Polygon","coordinates":[[[39.347053,56.756874],[39.898078,56.772226],[39.947288,56.468472],[40.360304,56.510356],[40.490601,56.583698],[40.767234,56.594363],[40.885921,56.50564],[41.934271,56.494583],[41.979438,56.373575],[42.138893,56.378509],[42.20424,56.450181],[42.732761,56.350956],[42.649752,56.468642],[42.901358,56.469852],[42.862034,56.797285],[43.270058,56.797537],[43.101808,57.198735],[43.330202,57.427221],[42.892508,57.37152],[42.86471,57.389634],[42.852278,57.665245],[42.850662,57.665356],[42.850281,57.665184],[42.122698,57.560613],[41.791019,57.721991],[41.587354,57.720312],[41.567387,57.452531],[40.430698,57.284973],[39.553238,57.000132],[39.400426,56.864658],[39.347053,56.756874]]]},"properties":{"place_id":184316536,"osm_type":"relation","osm_id":85617,"place_rank":8,"category":"boundary","type":"administrative","importance":0.6239981687622976,"addresstype":"state","name":"Ивановская область","display_name":"Ивановская область, Центральный федеральный округ, Россия","address":{"state":"Ивановская область","ISO3166-2-lvl4":"RU-IVA","region":"Центральный федеральный округ","country":"Россия","country_code":"ru"}},"bbox":[39.3740366,56.3523108,43.3246122,57.7405038]}]}