{"type":"FeatureCollection","features":[{"type":"Feature","geometry":{"type":"Polygon","coordinates":[[[19.369389,54.562407],[19.797007,54.43755],[22.792236,54.363869],[22.736439,54.442917],[22.701183,54.453614],[22.741618,54.728253],[22.877909,54.790805],[22.855419,54.886883],[22.591635,55.057688],[22.589236,55.070243],[22.1828,55.053742],[20.655717,55.384217],[19.819646,55.142913],[19.369389,54.562407]]]},"properties":{"place_id":160309472,"osm_type":"relation","osm_id":103906,"place_rank":8,"category":"boundary","type":"administrative","importance":0.6574295289312644,"addresstype":"state","name":"Калининградская область","display_name":"Калининградская область, Северо-Западный федеральный округ, Россия","address":{"state":"Калининградская область","ISO3166-2-lvl4":"RU-KGD","region":"Северо-Западный федеральный округ","country":"Россия","country_code":"ru"}},"bbox":[19.4041722,54.3182154,22.8867048,55.3842167]}]}