{"type":"FeatureCollection","features":[{"type":"Feature","geometry":{"type":"Polygon","coordinates":[[[33.460621,54.052595],[33.521366,53.998326],[33.579107,54.032095],[33.818175,53.986889],[33.80622,53.89639],[34.22499,53.88601],[34.637519,53.384707],[35.229447,53.28074],[36.06707,53.703733],[36.140928,54.177126],[36.966846,54.291658],[36.932763,54.591104],[37.076609,54.545528],[37.120677,54.550748],[37.27969,54.853943],[37.169039,54.865124],[37.044816,55.143376],[36.93724,55.241391],[36.389263,55.295541],[36.274694,55.172982],[35.268106,55.23814],[35.254971,55.092935],[34.887801,54.847345],[34.906719,54.76774],[34.530283,54.662163],[34.415867,54.51374],[33.644287,54.484149],[33.628634,54.207768],[33.460621,54.052595]]]},"properties":{"place_id":182904639,"osm_type":"relation","osm_id":81995,"place_rank":8,"category":"boundary","type":"administrative","importance":0.6401234477135084,"addresstype":"state","name":"Калужская область","display_name":"Калужская область, Центральный федеральный округ, Россия","address":{"state":"Калужская область","ISO3166-2-lvl4":"RU-KLU","region":"Центральный федеральный округ","country":"Россия","country_code":"ru"}},"bbox":[33.4413923,53.2769065,37.2754303,55.3512798]}]}