{"type":"FeatureCollection","features":[{"type":"Feature","geometry":{"type":"GeometryCollection","geometries":[{"type":"Polygon","coordinates":[[[155.215243,55.232256],[155.941794,51.289851],[157.328337,50.364334],[163.716163,56.115537],[163.843194,58.337025],[168.108476,60.333018],[169.382605,60.231086],[170.08905,59.749444],[170.652523,59.795174],[174.502394,61.607801],[173.772736,62.522912],[170.203794,62.294414],[168.479792,63.071929],[169.524393,63.563778],[169.493012,63.848934],[163.49146,64.877789],[163.264824,64.693339],[162.466095,61.665145],[161.075663,60.39451],[157.895937,58.202918],[156.064287,57.737396],[155.215243,55.232256]]]},{"type":"Polygon","coordinates":[[[164.934956,55.148408],[167.475693,54.158732],[168.48762,54.553274],[165.750321,55.628079],[164.934956,55.148408]]]}]},"properties":{"place_id":240007114,"osm_type":"relation","osm_id":151233,"place_rank":8,"category":"boundary","type":"administrative","importance":0.6082545815735052,"addresstype":"state","name":"Камчатский край","display_name":"Камчатский край, Дальневосточный федеральный округ, Россия","address":{"state":"Камчатский край","ISO3166-2-lvl4":"RU-KAM","region":"Дальневосточный федеральный округ","country":"Россия","country_code":"ru"}},"bbox":[155.2152426,50.6856373,174.5188722,64.9374689]}]}