{"type":"FeatureCollection","features":[{"type":"Feature","geometry":{"type":"GeometryCollection","geometries":[{"type":"Polygon","coordinates":[[[84.447895,56.041571],[85.115957,54.43783],[85.159972,54.45311],[86.863926,53.437874],[86.848874,53.320845],[86.630873,53.24131],[87.062859,53.027657],[86.920182,52.829015],[87.168651,52.69609],[87.12695,52.615339],[87.655016,52.422416],[87.891369,52.539479],[88.444961,52.432396],[88.376974,52.177827],[88.377607,52.177563],[88.459239,52.171142],[88.694248,52.24627],[88.694844,52.349283],[89.038361,52.556995],[89.055175,53.233884],[88.912365,53.388898],[89.226378,53.81105],[89.010483,54.049019],[89.171283,54.148321],[89.176242,54.30444],[88.546551,54.43247],[88.747982,54.83802],[88.437237,55.282941],[88.666731,55.510081],[89.399929,55.840229],[88.596581,56.802005],[85.988638,56.451787],[84.447895,56.041571]]]}]},"properties":{"place_id":200156928,"osm_type":"relation","osm_id":144763,"place_rank":8,"category":"boundary","type":"administrative","importance":0.6328313303470642,"addresstype":"state","name":"Кемеровская область","display_name":"Кемеровская область, Сибирский федеральный округ, Россия","address":{"state":"Кемеровская область","ISO3166-2-lvl4":"RU-KEM","region":"Сибирский федеральный округ","country":"Россия","country_code":"ru"}},"bbox":[84.4478947,52.1627035,89.4026437,56.8351312]}]}