{"type":"FeatureCollection","features":[{"type":"Feature","geometry":{"type":"GeometryCollection","geometries":[{"type":"Polygon","coordinates":[[[47.610987,58.934186],[46.392705,58.297328],[46.431912,58.007022],[47.734197,57.933389],[47.481365,57.515179],[46.752933,57.521511],[46.703663,56.940716],[47.158628,56.796628],[49.180807,57.23662],[49.25655,57.040173],[49.673873,57.047331],[49.759534,56.880698],[50.334849,56.677054],[51.408481,55.985008],[51.522966,56.852309],[51.165254,57.440762],[51.569999,57.461166],[51.767267,57.575104],[51.964705,58.453088],[53.791308,58.455029],[53.43759,60.224351],[49.597299,59.211053],[47.955992,60.988545],[47.19318,61.067393],[46.263784,60.237154],[47.610987,58.934186]]]}]},"properties":{"place_id":184802524,"osm_type":"relation","osm_id":115100,"place_rank":8,"category":"boundary","type":"administrative","importance":0.6566843457857632,"addresstype":"state","name":"Кировская область","display_name":"Кировская область, Приволжский федеральный округ, Россия","address":{"state":"Кировская область","ISO3166-2-lvl4":"RU-KIR","region":"Приволжский федеральный округ","country":"Россия","country_code":"ru"}},"bbox":[46.2637837,56.0607618,53.9299468,61.0673929]}]}