{"type":"FeatureCollection","features":[{"type":"Feature","geometry":{"type":"Polygon","coordinates":[[[40.430698,57.284973],[41.567387,57.452531],[41.587354,57.720312],[41.791019,57.721991],[42.122698,57.560613],[42.852278,57.665245],[42.86471,57.389634],[42.892508,57.37152],[43.330202,57.427221],[43.509314,57.605414],[43.915011,57.42091],[44.745535,57.700414],[44.869006,58.076712],[46.427093,58.03757],[46.392705,58.297328],[47.610987,58.934186],[46.911516,59.61699],[45.962356,59.19864],[42.090339,59.15592],[41.349027,58.951944],[40.997627,58.584299],[41.177032,58.354934],[40.661024,57.951422],[40.654514,57.58683],[40.498313,57.581876],[40.419449,57.505232],[40.430698,57.284973]]]},"properties":{"place_id":184419511,"osm_type":"relation","osm_id":85963,"place_rank":8,"category":"boundary","type":"administrative","importance":0.6455212264534587,"addresstype":"state","name":"Костромская область","display_name":"Костромская область, Центральный федеральный округ, Россия","address":{"state":"Костромская область","ISO3166-2-lvl4":"RU-KOS","region":"Центральный федеральный округ","country":"Россия","country_code":"ru"}},"bbox":[40.3901028,57.2721688,47.6395146,59.6236037]}]}