{"type":"Feature","geometry":{"type":"Polygon","coordinates":[[[36.66845,45.626621],[37.287866,45.51708],[37.883266,46.205581],[37.43759,46.71583],[37.620074,46.829891],[38.140864,46.861],[38.338122,46.980752],[38.659663,47.003022],[38.685689,46.826179],[38.895922,46.826464],[38.869418,46.628913],[38.869434,46.628692],[39.209095,46.620566],[39.262562,46.794294],[40.063222,46.771942],[40.272275,46.314493],[40.990422,46.298363],[41.1409979,45.951311],[41.161177,45.879841],[41.24901,45.880051],[41.272136,45.758834],[41.169374,45.759651],[41.167238,45.674439],[40.847968,45.694229],[40.846356,45.553386],[41.036139,45.225292],[41.35348,45.223054],[41.351444,45.091391],[41.456479,44.988263],[41.653974,44.986253],[41.594225,44.768239],[41.427093,44.708476],[41.5999445,44.4681757],[41.7347494,44.4786203],[41.681476,44.164854],[41.47975,44.000926],[41.246593,44.009949],[41.291116,44.085462],[40.891313,44.134778],[40.935459,44.017353],[40.713345,43.532475],[40.103851,43.568192],[39.88448,43.224431],[36.609723,44.940667],[36.66845,45.626621]]]},"properties":{"place_id":190296979,"osm_type":"relation","osm_id":108082,"place_rank":8,"category":"boundary","type":"administrative","importance":0.6632482339829111,"addresstype":"state","name":"Краснодарский край","display_name":"Краснодарский край, Южный федеральный округ, Россия","address":{"state":"Краснодарский край","ISO3166-2-lvl4":"RU-KDA","region":"Южный федеральный округ","country":"Россия","country_code":"ru"}}}