{"type":"FeatureCollection","features":[{"type":"Feature","geometry":{"type":"GeometryCollection","geometries":[{"type":"Polygon","coordinates":[[[76.737948,79.232238],[78.87359,79.45521],[77.52667,79.896348],[74.986851,79.659221],[76.737948,79.232238]]]},{"type":"Polygon","coordinates":[[[81.548085,80.698367],[80.082434,81.143444],[77.107764,80.872033],[79.197043,80.478594],[81.548085,80.698367]]]},{"type":"Polygon","coordinates":[[[77.729901,73.639539],[80.684493,70.480959],[79.000403,69.889887],[79.042148,69.695444],[82.46617,69.152082],[82.184374,67.245977],[85.967046,64.048501],[85.366556,63.853851],[85.161713,63.58106],[85.600042,63.379629],[85.588627,63.049558],[84.386936,62.25079],[84.677915,61.80813],[85.965282,61.459195],[83.949694,60.836217],[84.681664,59.89955],[88.626468,59.295126],[88.596581,56.802005],[89.399929,55.840229],[88.666731,55.510081],[88.601258,55.427377],[89.011422,55.323648],[89.064119,55.120055],[89.457776,55.015038],[90.216932,55.153584],[90.945677,54.848132],[90.951947,54.633703],[91.580759,54.063137],[91.427376,53.861709],[91.917195,53.344479],[91.741206,53.179304],[91.476408,53.153724],[91.465381,52.91298],[91.335061,52.790733],[90.881973,52.587279],[90.488461,52.195602],[90.849343,51.900385],[92.548599,51.79636],[93.576273,52.166857],[94.097255,52.706344],[94.525925,52.910019],[94.618345,53.33111],[97.016496,53.686311],[95.675908,54.242595],[95.689856,54.396397],[96.036922,54.532561],[96.53861,54.533311],[96.593813,55.027032],[97.883253,56.381546],[97.383541,57.024656],[97.9532,57.828574],[100.037381,58.076156],[100.443023,57.530881],[100.940017,57.464484],[102.930161,59.289334],[104.72598,58.672213],[105.455097,59.846559],[104.546344,60.801255],[106.422636,62.067912],[106.664368,64.044317],[108.356944,64.038802],[108.246822,64.250218],[105.793352,64.489702],[106.905551,68.859042],[106.147384,69.418393],[112.719722,71.254776],[110.358926,73.354835],[111.88305,73.989818],[111.873551,74.105136],[110.485274,74.325295],[113.257585,74.823365],[116.034536,76.601512],[99.064277,80.269854],[98.137257,81.392013],[89.315891,81.322153],[89.62673,79.663568],[98.394026,77.937074],[80.204198,73.759312],[77.729901,73.639539]]]},{"type":"Polygon","coordinates":[[[78.796495,74.455766],[80.07757,74.397496],[80.305199,74.630707],[78.923544,74.71606],[78.796495,74.455766]]]},{"type":"Polygon","coordinates":[[[82.102831,74.914046],[84.737039,75.907265],[82.061733,76.458796],[80.455262,75.334636],[82.102831,74.914046]]]},{"type":"Polygon","coordinates":[[[83.303908,77.398784],[83.19937,77.663975],[81.305451,77.534658],[81.751032,77.320811],[83.303908,77.398784]]]},{"type":"Polygon","coordinates":[[[89.593569,76.890665],[93.009826,77.662351],[91.507582,77.84539],[87.806114,77.077762],[89.593569,76.890665]]]},{"type":"Polygon","coordinates":[[[93.208818,77.945523],[94.512452,77.981348],[94.418335,78.376671],[92.814697,78.313431],[93.208818,77.945523]]]}]},"properties":{"place_id":250127286,"osm_type":"relation","osm_id":190090,"place_rank":8,"category":"boundary","type":"administrative","importance":0.6653450580476468,"addresstype":"state","name":"Красноярский край","display_name":"Красноярский край, Сибирский федеральный округ, Россия","address":{"state":"Красноярский край","ISO3166-2-lvl4":"RU-KYA","region":"Сибирский федеральный округ","country":"Россия","country_code":"ru"}},"bbox":[74.9868506,51.7722574,114.7396289,81.4741807]}]}