{"type":"FeatureCollection","features":[{"type":"Feature","geometry":{"type":"Polygon","coordinates":[[[34.23764,51.292528],[34.331339,51.239983],[34.83498,51.172403],[34.967557,51.231784],[35.141404,51.22566],[35.166316,51.07699],[35.389233,50.961278],[35.831359,50.940622],[36.028238,51.155743],[36.59916,51.067292],[37.148927,51.228885],[37.145484,51.354434],[38.005829,51.423132],[38.229799,51.30122],[38.379284,51.303712],[38.37615,51.387975],[38.145539,51.644125],[38.451219,51.694824],[38.413747,52.003861],[37.855836,51.907415],[37.755294,52.014314],[37.710247,51.970256],[37.425341,51.934992],[36.496133,52.232407],[36.357389,52.373204],[35.654225,52.247109],[35.599051,52.441499],[35.050169,52.320366],[34.926751,52.367907],[34.394976,51.84612],[34.435689,51.732711],[34.16056,51.691615],[34.23764,51.292528]]]},"properties":{"place_id":177888187,"osm_type":"relation","osm_id":72223,"place_rank":8,"category":"boundary","type":"administrative","importance":0.6617951523592996,"addresstype":"state","name":"Курская область","display_name":"Курская область, Центральный федеральный округ, Россия","address":{"state":"Курская область","ISO3166-2-lvl4":"RU-KRS","region":"Центральный федеральный округ","country":"Россия","country_code":"ru"}},"bbox":[34.0803409,50.9015572,38.5192703,52.4450602]}]}