{"type":"FeatureCollection","features":[{"type":"Feature","geometry":{"type":"GeometryCollection","geometries":[{"type":"Polygon","coordinates":[[[28.040767,59.474683],[28.208569,59.383744],[28.132677,59.292378],[27.924604,59.254685],[27.738327,58.977775],[28.148346,58.972639],[28.293223,58.830731],[29.123764,58.717756],[29.77769,58.417336],[30.12353,58.488057],[30.102909,58.724361],[30.6824,58.713746],[30.719525,58.858719],[31.469668,59.120713],[31.541028,59.314255],[32.168121,59.335309],[32.451595,59.108135],[32.725908,59.148458],[32.773204,59.301662],[33.62203,59.327798],[34.031739,59.148433],[34.734868,59.088737],[35.441159,59.423321],[35.276628,60.843828],[35.469732,60.860486],[35.696684,61.003459],[35.696907,61.173233],[32.913334,60.681389],[29.008212,61.305621],[27.534682,60.348229],[28.040767,59.474683]]]}]},"properties":{"place_id":156821226,"osm_type":"relation","osm_id":176095,"place_rank":8,"category":"boundary","type":"administrative","importance":0.6915288525864485,"addresstype":"state","name":"Ленинградская область","display_name":"Ленинградская область, Северо-Западный федеральный округ, Россия","address":{"state":"Ленинградская область","ISO3166-2-lvl4":"RU-LEN","region":"Северо-Западный федеральный округ","country":"Россия","country_code":"ru"}},"bbox":[26.44,58.4173356,35.701312,61.329254]}]}