{"type":"FeatureCollection","features":[{"type":"Feature","geometry":{"type":"Polygon","coordinates":[[[38.039305,52.291093],[37.755322,52.014284],[37.855836,51.907415],[38.413747,52.003861],[39.473172,52.073549],[40.523808,51.932523],[40.73386,52.250584],[39.976678,52.596802],[39.915694,52.708851],[40.096981,53.275728],[40.176963,53.312972],[39.88604,53.550446],[39.757765,53.586654],[39.553553,53.523781],[39.54233,53.421642],[39.193199,53.390563],[39.054,53.579227],[38.937522,53.574175],[38.746367,53.536367],[38.637916,53.043931],[38.326953,52.946357],[37.898117,53.072018],[37.896724,52.784903],[37.743055,52.601126],[38.039305,52.291093]]]},"properties":{"place_id":181372593,"osm_type":"relation","osm_id":72169,"place_rank":8,"category":"boundary","type":"administrative","importance":0.6202666084978484,"addresstype":"state","name":"Липецкая область","display_name":"Липецкая область, Центральный федеральный округ, Россия","address":{"state":"Липецкая область","ISO3166-2-lvl4":"RU-LIP","region":"Центральный федеральный округ","country":"Россия","country_code":"ru"}},"bbox":[37.7217164,51.8870621,40.7647752,53.5866538]}]}