{"type":"FeatureCollection","features":[{"type":"Feature","geometry":{"type":"Polygon","coordinates":[[[144.73642,62.045483],[146.154513,61.933622],[146.703883,60.949054],[145.532055,60.42134],[147.037113,59.924438],[146.949863,59.151093],[151.645164,58.643111],[155.867931,59.094871],[155.138523,60.152624],[157.917791,61.536206],[159.072847,61.613803],[159.880342,60.424064],[161.075663,60.39451],[162.466095,61.665145],[163.264824,64.693339],[158.927563,65.776983],[158.498013,66.113599],[154.359207,66.102619],[152.430478,64.412028],[146.336508,64.095046],[145.672334,63.84186],[145.455363,62.550997],[144.73642,62.045483]]]},"properties":{"place_id":250247540,"osm_type":"relation","osm_id":151228,"place_rank":8,"category":"boundary","type":"administrative","importance":0.6054620584424478,"addresstype":"state","name":"Магаданская область","display_name":"Магаданская область, Дальневосточный федеральный округ, Россия","address":{"state":"Магаданская область","ISO3166-2-lvl4":"RU-MAG","region":"Дальневосточный федеральный округ","country":"Россия","country_code":"ru"}},"bbox":[144.7286241,58.6375291,163.4956937,66.3391385]}]}