{"type":"FeatureCollection","features":[{"type":"Feature","geometry":{"type":"GeometryCollection","geometries":[{"type":"Polygon","coordinates":[[[36.803101,55.440833],[37.026037,55.283021],[36.93724,55.241391],[37.044816,55.143376],[37.405988,55.255866],[37.373596,55.445399],[37.445076,55.481955],[37.500003,55.440983],[37.538392,55.437486],[37.545553,55.465298],[37.591161,55.490359],[37.60032,55.575375],[37.670724,55.571668],[37.824164,55.640487],[37.856167,55.698765],[37.856546,55.698994],[37.905442,55.706993],[37.920472,55.676143],[37.963378,55.673656],[37.966706,55.710499],[37.888246,55.748464],[37.84267,55.748884],[37.83605,55.824223],[37.711206,55.89015],[37.555916,55.909283],[37.57443,55.957772],[37.519235,55.941938],[37.536321,55.907567],[37.417164,55.87831],[37.400802,55.897897],[37.422458,55.951315],[37.335026,55.953589],[37.372761,55.881624],[37.411428,55.870958],[37.394693,55.854526],[37.341836,55.859778],[37.345334,55.826075],[37.393919,55.829862],[37.415457,55.664765],[37.092095,55.595687],[37.148848,55.438176],[36.81624,55.508351],[36.803101,55.440833]]]}]},"properties":{"place_id":406293238,"osm_type":"relation","osm_id":102269,"place_rank":8,"category":"boundary","type":"administrative","importance":0.871311709597481,"addresstype":"state","name":"Москва","display_name":"Москва, Центральный федеральный округ, Россия","address":{"state":"Москва","ISO3166-2-lvl4":"RU-MOW","region":"Центральный федеральный округ","country":"Россия","country_code":"ru"}},"bbox":[36.8031012,55.1421745,37.9674277,56.0212238]}]}