{"type":"FeatureCollection","features":[{"type":"Feature","geometry":{"type":"Polygon","coordinates":[[[35.395003,55.594083],[35.299218,55.579968],[35.268106,55.23814],[36.274694,55.172982],[36.389263,55.295541],[36.93724,55.241391],[37.026037,55.283021],[36.803101,55.440833],[36.81624,55.508351],[37.148848,55.438176],[37.092095,55.595687],[37.415457,55.664765],[37.393919,55.829862],[37.345334,55.826075],[37.341836,55.859778],[37.394693,55.854526],[37.411428,55.870958],[37.372761,55.881624],[37.335026,55.953589],[37.422458,55.951315],[37.400802,55.897897],[37.417164,55.87831],[37.536321,55.907567],[37.519235,55.941938],[37.57443,55.957772],[37.555916,55.909283],[37.711206,55.89015],[37.83605,55.824223],[37.84267,55.748884],[37.888246,55.748464],[37.966706,55.710499],[37.963378,55.673656],[37.920472,55.676143],[37.905442,55.706993],[37.856546,55.698994],[37.856167,55.698765],[37.824164,55.640487],[37.670724,55.571668],[37.60032,55.575375],[37.591161,55.490359],[37.545553,55.465298],[37.538392,55.437486],[37.500003,55.440983],[37.445076,55.481955],[37.373596,55.445399],[37.405988,55.255866],[37.044816,55.143376],[37.169039,54.865124],[37.458387,54.835879],[37.547996,54.737604],[37.743357,54.734071],[37.74816,54.83237],[37.941424,54.848385],[37.953996,54.7807],[38.511347,54.596713],[38.378678,54.527482],[38.51291,54.294103],[38.705648,54.27281],[38.945909,54.409829],[38.80649,54.521805],[40.154147,55.272601],[39.900477,55.813927],[38.68389,55.987908],[38.250716,56.765376],[37.99271,56.767322],[37.758185,56.949991],[37.240075,56.74743],[37.243033,56.786994],[37.066831,56.755621],[37.17425,56.696425],[37.055548,56.526247],[36.806922,56.595283],[36.06473,56.335649],[35.62024,56.477053],[35.429612,56.420883],[35.266759,56.039058],[35.066496,56.003244],[35.395003,55.594083]]]},"properties":{"place_id":180912578,"osm_type":"relation","osm_id":51490,"place_rank":8,"category":"boundary","type":"administrative","importance":0.7038938630300783,"addresstype":"state","name":"Московская область","display_name":"Московская область, Центральный федеральный округ, Россия","address":{"state":"Московская область","ISO3166-2-lvl4":"RU-MOS","region":"Центральный федеральный округ","country":"Россия","country_code":"ru"}},"bbox":[35.1484955,54.2556959,40.2047168,56.9585118]}]}