{"type":"FeatureCollection","features":[{"type":"Feature","geometry":{"type":"Polygon","coordinates":[[[28.457497,68.53194],[30.02861,67.69472],[29.086388,66.860825],[29.261989,66.666175],[31.575857,66.654003],[31.621162,66.502378],[31.791938,66.495233],[31.853877,66.36348],[32.342661,66.345393],[32.360389,66.475171],[32.548149,66.479487],[32.557279,66.576101],[33.129223,66.556076],[36.018929,65.790001],[38.37905,65.7077],[42.505704,66.990239],[41.312596,68.597665],[31.796859,70.396112],[30.91,69.548874],[29.29472,69.49527],[28.457497,68.53194]]]},"properties":{"place_id":250950837,"osm_type":"relation","osm_id":2099216,"place_rank":8,"category":"boundary","type":"administrative","importance":0.6217828686226409,"addresstype":"state","name":"Мурманская область","display_name":"Мурманская область, Северо-Западный федеральный округ, Россия","address":{"state":"Мурманская область","ISO3166-2-lvl4":"RU-MUR","region":"Северо-Западный федеральный округ","country":"Россия","country_code":"ru"}},"bbox":[28.4157885,65.691813,42.5057036,70.1529749]}]}