{"type":"FeatureCollection","features":[{"type":"Feature","geometry":{"type":"GeometryCollection","geometries":[{"type":"Polygon","coordinates":[[[42.31274,68.68681],[42.505704,66.990239],[47.158131,65.819042],[49.000469,66.113571],[52.087312,67.069144],[61.662829,67.013408],[64.577997,68.352258],[65.473816,68.418383],[65.667021,68.568226],[65.396133,68.776937],[64.527785,68.974644],[65.13181,69.338696],[64.965044,69.563919],[58.850891,70.730399],[57.208587,70.219927],[58.518464,69.138009],[48.817328,69.633994],[42.31274,68.68681]]]}]},"properties":{"place_id":252264944,"osm_type":"relation","osm_id":274048,"place_rank":8,"category":"boundary","type":"administrative","importance":0.6177567308171591,"addresstype":"state","name":"Ненецкий автономный округ","display_name":"Ненецкий автономный округ, Северо-Западный федеральный округ, Россия","address":{"state":"Ненецкий автономный округ","ISO3166-2-lvl4":"RU-NEN","region":"Северо-Западный федеральный округ","country":"Россия","country_code":"ru"}}}]}