{"type":"FeatureCollection","features":[{"type":"Feature","geometry":{"type":"Polygon","coordinates":[[[42.442326,54.825399],[43.099972,54.782572],[43.289408,54.954105],[45.098115,54.468083],[45.018253,54.705283],[45.593126,55.16577],[45.72766,55.184633],[45.712991,54.996791],[45.960197,54.996871],[46.062037,55.047713],[46.012038,55.162781],[46.391024,55.458011],[45.919676,55.667155],[46.110599,56.144452],[45.920333,56.256469],[45.941401,56.859383],[46.764653,56.967786],[46.752933,57.521511],[47.481365,57.515179],[47.738116,57.920565],[47.296928,58.0157],[44.869006,58.076712],[44.745535,57.700414],[43.915011,57.42091],[43.509314,57.605414],[43.101808,57.198735],[43.270058,56.797537],[42.862034,56.797285],[42.901358,56.469852],[42.649752,56.468642],[42.732761,56.350956],[42.756861,56.197302],[42.917623,56.206881],[42.966919,56.145462],[42.702371,56.101116],[42.718545,55.96922],[42.20091,55.715341],[41.783954,55.129753],[42.442326,54.825399]]]},"properties":{"place_id":184188493,"osm_type":"relation","osm_id":72195,"place_rank":8,"category":"boundary","type":"administrative","importance":0.6565017956752585,"addresstype":"state","name":"Нижегородская область","display_name":"Нижегородская область, Приволжский федеральный округ, Россия","address":{"state":"Нижегородская область","ISO3166-2-lvl4":"RU-NIZ","region":"Приволжский федеральный округ","country":"Россия","country_code":"ru"}},"bbox":[41.7764767,54.4621026,47.7717876,58.0911755]}]}