{"type":"FeatureCollection","features":[{"type":"Feature","geometry":{"type":"Polygon","coordinates":[[[29.618726,58.251673],[29.937911,57.944359],[30.520657,57.883525],[30.464249,57.350097],[30.765501,56.9457],[31.531003,56.946578],[31.755728,57.114047],[32.001669,57.113838],[32.76576,57.440478],[33.263986,57.438852],[33.705874,58.170305],[34.721495,58.090303],[36.196341,58.532513],[36.19928,58.61869],[34.734868,59.088737],[34.031739,59.148433],[33.62203,59.327798],[32.773204,59.301662],[32.725908,59.148458],[32.451595,59.108135],[32.168121,59.335309],[31.541028,59.314255],[31.469668,59.120713],[30.719525,58.858719],[30.6824,58.713746],[30.102909,58.724361],[30.12353,58.488057],[29.885568,58.439411],[29.899891,58.302653],[29.618726,58.251673]]]},"properties":{"place_id":183482495,"osm_type":"relation","osm_id":89331,"place_rank":8,"category":"boundary","type":"administrative","importance":0.6697042062142268,"addresstype":"state","name":"Новгородская область","display_name":"Новгородская область, Северо-Западный федеральный округ, Россия","address":{"state":"Новгородская область","ISO3166-2-lvl4":"RU-NGR","region":"Северо-Западный федеральный округ","country":"Россия","country_code":"ru"}},"bbox":[29.6187256,56.9090665,36.2289187,59.4327634]}]}