{"type":"FeatureCollection","features":[{"type":"Feature","geometry":{"type":"Polygon","coordinates":[[[75.689282,54.122864],[76.44044,54.167331],[77.906506,53.29141],[80.951725,54.375455],[82.376001,53.513109],[85.115957,54.43783],[84.447895,56.041571],[76.094728,57.235314],[75.987114,56.536056],[76.302743,56.15562],[75.104415,55.756425],[75.689282,54.122864]]]},"properties":{"place_id":201098263,"osm_type":"relation","osm_id":140294,"place_rank":8,"category":"boundary","type":"administrative","importance":0.6339340505577163,"addresstype":"state","name":"Новосибирская область","display_name":"Новосибирская область, Сибирский федеральный округ, Россия","address":{"state":"Новосибирская область","ISO3166-2-lvl4":"RU-NVS","region":"Сибирский федеральный округ","country":"Россия","country_code":"ru"}},"bbox":[75.08801,53.29141,85.1159569,57.2378336]}]}