{"type":"FeatureCollection","features":[{"type":"Feature","geometry":{"type":"GeometryCollection","geometries":[{"type":"Polygon","coordinates":[[[70.395853,57.893638],[70.685693,57.515541],[70.369983,57.353673],[70.684071,57.201002],[70.786795,57.364979],[70.983217,57.387105],[71.677329,56.765223],[70.735458,56.424589],[70.401979,55.215615],[70.798881,55.271488],[71.122355,54.129279],[73.767675,54.054055],[73.238533,53.567274],[74.393545,53.459396],[75.689282,54.122864],[75.104415,55.756425],[76.302743,56.15562],[75.987114,56.536056],[76.094728,57.235314],[75.131298,58.663889],[74.219631,58.136298],[73.128288,58.155304],[72.865762,58.001245],[72.167156,58.014698],[71.996218,58.115163],[71.213879,58.054482],[71.243802,58.409586],[70.84622,58.521679],[70.395853,57.893638]]]}]},"properties":{"place_id":201719455,"osm_type":"relation","osm_id":140292,"place_rank":8,"category":"boundary","type":"administrative","importance":0.6249351835008377,"addresstype":"state","name":"Омская область","display_name":"Омская область, Сибирский федеральный округ, Россия","address":{"state":"Омская область","ISO3166-2-lvl4":"RU-OMS","region":"Сибирский федеральный округ","country":"Россия","country_code":"ru"}},"bbox":[70.3583036,53.4353948,76.3035917,58.5757191]}]}