{"type":"FeatureCollection","features":[{"type":"Feature","geometry":{"type":"Polygon","coordinates":[[[50.768163,51.773037],[50.769013,51.772876],[50.871439,51.753462],[50.893614,51.681375],[51.272353,51.684568],[51.286546,51.487785],[51.813551,51.497016],[51.770475,51.583197],[51.894095,51.683408],[52.359421,51.776124],[52.560611,51.453031],[53.407603,51.482544],[54.45241,50.851195],[55.126498,50.898675],[55.056233,50.819419],[55.736246,50.5503],[56.137177,50.753568],[56.181283,50.938126],[57.184771,51.114961],[57.32623,50.940797],[57.503938,50.87736],[57.761816,50.920212],[57.771942,51.138416],[58.544292,51.072704],[58.874303,50.699816],[59.813177,50.535508],[61.449001,50.806123],[61.599407,51.299459],[60.001992,51.993281],[59.907737,52.039946],[60.162306,52.280132],[60.162998,52.40012],[59.824166,52.480058],[58.859035,52.4468],[58.854927,52.425806],[58.837006,52.355784],[58.936087,52.342399],[58.953164,52.283989],[58.897507,52.244048],[58.660028,52.263057],[58.574905,51.771697],[57.655329,51.86881],[57.210926,51.571272],[57.160507,51.575738],[56.610932,51.826913],[56.630789,51.899309],[56.731117,51.906112],[56.605442,52.13234],[56.201352,52.140201],[56.454007,52.317821],[56.423485,52.604664],[56.053138,52.590947],[55.842453,52.378576],[55.520014,52.391049],[54.836659,53.273743],[54.61439,53.218586],[54.547572,53.355178],[54.151671,53.387978],[53.500606,54.056129],[53.36886,53.974244],[53.287244,54.087367],[53.062389,54.065377],[53.096764,54.125968],[53.044023,54.131547],[52.982441,54.235834],[52.84457,54.313596],[52.696425,54.360757],[52.568276,54.340128],[52.521138,54.300519],[52.345442,54.294073],[52.408185,53.893012],[51.39142,52.069258],[50.768163,51.773037]]]},"properties":{"place_id":186753531,"osm_type":"relation","osm_id":77669,"place_rank":8,"category":"boundary","type":"administrative","importance":0.6565075987441688,"addresstype":"state","name":"Оренбургская область","display_name":"Оренбургская область, Приволжский федеральный округ, Россия","address":{"state":"Оренбургская область","ISO3166-2-lvl4":"RU-ORE","region":"Приволжский федеральный округ","country":"Россия","country_code":"ru"}},"bbox":[50.7681628,50.4953129,61.6897852,54.3656388]}]}