{"type":"FeatureCollection","features":[{"type":"Feature","geometry":{"type":"Polygon","coordinates":[[[34.826267,52.862175],[35.111087,52.696917],[34.848439,52.398047],[35.050169,52.320366],[35.599051,52.441499],[35.654225,52.247109],[36.357389,52.373204],[36.496133,52.232407],[37.425341,51.934992],[37.710247,51.970256],[38.039305,52.291093],[37.743055,52.601126],[37.896724,52.784903],[37.898115,53.072019],[35.941678,53.640679],[35.229447,53.28074],[35.28358,53.019737],[34.826267,52.862175]]]},"properties":{"place_id":181897678,"osm_type":"relation","osm_id":72224,"place_rank":8,"category":"boundary","type":"administrative","importance":0.6323128225795941,"addresstype":"state","name":"Орловская область","display_name":"Орловская область, Центральный федеральный округ, Россия","address":{"state":"Орловская область","ISO3166-2-lvl4":"RU-ORL","region":"Центральный федеральный округ","country":"Россия","country_code":"ru"}},"bbox":[34.7919712,51.9349918,38.0672135,53.6524906]}]}