{"type":"FeatureCollection","features":[{"type":"Feature","geometry":{"type":"GeometryCollection","geometries":[{"type":"Polygon","coordinates":[[[42.360456,53.328381],[43.237617,52.652381],[43.024243,52.487403],[43.039706,52.370635],[43.117153,52.37877],[43.143268,52.438448],[44.888545,52.420867],[44.893357,52.356545],[45.075697,52.349092],[45.652083,52.508327],[45.962098,52.397151],[46.020782,52.514485],[46.58252,52.728048],[46.744176,52.61141],[46.80107,52.620828],[46.908163,53.362605],[45.95926,53.995986],[45.88996,54.002839],[45.298483,53.871534],[45.210634,53.958816],[44.871526,53.968503],[44.603137,53.876896],[44.586662,53.666202],[43.862846,53.801308],[43.906434,53.81661],[43.883341,53.895404],[43.749058,53.967509],[43.723497,53.953811],[43.313424,54.024612],[43.189972,53.993625],[43.100064,53.928203],[43.10762,53.894195],[43.168698,53.886182],[43.169308,53.886253],[43.180034,53.834538],[43.156781,53.820004],[43.097417,53.874123],[42.955662,53.802426],[42.350969,53.853729],[42.14363,53.802798],[42.08174,53.748005],[42.360456,53.328381]]]}]},"properties":{"place_id":179924296,"osm_type":"relation","osm_id":72182,"place_rank":8,"category":"boundary","type":"administrative","importance":0.6165716367098821,"addresstype":"state","name":"Пензенская область","display_name":"Пензенская область, Приволжский федеральный округ, Россия","address":{"state":"Пензенская область","ISO3166-2-lvl4":"RU-PNZ","region":"Приволжский федеральный округ","country":"Россия","country_code":"ru"}},"bbox":[42.0817395,52.2912662,46.9813651,54.03078]}]}