{"type":"FeatureCollection","features":[{"type":"Feature","geometry":{"type":"Polygon","coordinates":[[[52.317417,60.227461],[53.43759,60.224351],[53.791308,58.455029],[54.436131,57.031004],[53.884968,56.662533],[54.432255,56.359278],[54.577615,56.534608],[54.736003,56.430584],[56.532578,56.397138],[56.918629,56.107103],[57.408395,56.339924],[57.233507,56.847524],[58.032066,57.150658],[58.127278,57.690332],[58.536819,57.563884],[58.842374,57.719732],[59.197619,59.146439],[58.37126,59.472402],[59.472095,60.868574],[59.348927,61.663234],[56.653124,61.5243],[51.892312,60.881543],[52.317417,60.227461]]]},"properties":{"place_id":185312966,"osm_type":"relation","osm_id":115135,"place_rank":8,"category":"boundary","type":"administrative","importance":0.6701533237430347,"addresstype":"state","name":"Пермский край","display_name":"Пермский край, Приволжский федеральный округ, Россия","address":{"state":"Пермский край","ISO3166-2-lvl4":"RU-PER","region":"Приволжский федеральный округ","country":"Россия","country_code":"ru"}},"bbox":[51.7723768,56.1052433,59.482505,61.663234]}]}