{"type":"FeatureCollection","features":[{"type":"Feature","geometry":{"type":"Polygon","coordinates":[[[130.394993,42.724175],[130.616423,42.612887],[130.562845,42.518112],[130.918877,42.122712],[135.554049,43.423217],[139.309393,47.310879],[138.54125,47.478883],[138.507653,47.672944],[138.798683,47.809836],[138.398411,48.439058],[137.313492,48.106003],[138.074517,47.563817],[137.511972,47.238375],[137.071342,47.301339],[136.618636,46.7951],[135.361119,46.921722],[135.287642,47.163697],[134.665133,47.124656],[134.427494,46.696189],[134.009213,46.656359],[133.415337,45.582861],[133.175106,45.478812],[132.954329,45.026434],[131.873958,45.339003],[131.599658,45.059124],[131.009697,44.866652],[131.295611,44.069484],[131.134063,42.934308],[130.394993,42.724175]]]},"properties":{"place_id":251209175,"osm_type":"relation","osm_id":151225,"place_rank":8,"category":"boundary","type":"administrative","importance":0.6417863682770681,"addresstype":"state","name":"Приморский край","display_name":"Приморский край, Дальневосточный федеральный округ, Россия","address":{"state":"Приморский край","ISO3166-2-lvl4":"RU-PRI","region":"Дальневосточный федеральный округ","country":"Россия","country_code":"ru"}},"bbox":[130.39465,42.1227116,139.3093931,48.4652417]}]}