{"type":"FeatureCollection","features":[{"type":"Feature","geometry":{"type":"Polygon","coordinates":[[[27.351565,57.518208],[27.866976,57.294999],[27.737156,56.920078],[28.132023,56.580105],[28.157419,56.143574],[29.422613,55.968931],[29.362281,55.758335],[29.515286,55.701576],[30.165678,55.85719],[30.283109,55.860112],[30.764773,55.590351],[30.809487,55.590519],[31.113384,55.75815],[31.473302,55.733816],[31.352788,55.940146],[31.517841,56.305606],[30.765501,56.9457],[30.464249,57.350097],[30.520657,57.883525],[29.937911,57.944359],[29.618726,58.251673],[29.899891,58.302653],[29.885568,58.439411],[29.77769,58.417336],[29.123764,58.717756],[28.293223,58.830731],[28.148346,58.972639],[27.738327,58.977775],[27.35704,58.787261],[27.757438,57.83486],[27.351565,57.518208]]]},"properties":{"place_id":158739910,"osm_type":"relation","osm_id":155262,"place_rank":8,"category":"boundary","type":"administrative","importance":0.674086931261385,"addresstype":"state","name":"Псковская область","display_name":"Псковская область, Северо-Западный федеральный округ, Россия","address":{"state":"Псковская область","ISO3166-2-lvl4":"RU-PSK","region":"Северо-Западный федеральный округ","country":"Россия","country_code":"ru"}},"bbox":[27.3174804,55.5883033,31.5178603,59.021159]}]}