{"type":"FeatureCollection","features":[{"type":"Feature","geometry":{"type":"Polygon","coordinates":[[[45.920333,56.256469],[46.110599,56.144452],[46.066758,56.03537],[46.602689,56.131939],[46.656089,56.0987],[46.808667,56.20076],[46.828034,56.195989],[47.146215,56.277258],[47.150598,56.315466],[47.247416,56.311523],[47.251551,56.328518],[47.392523,56.322986],[47.379797,56.227204],[47.431433,56.224805],[47.424773,56.156995],[47.888946,56.119947],[48.034868,55.942541],[48.454016,55.822548],[48.705428,55.985654],[50.334849,56.677054],[49.759534,56.880698],[49.673873,57.047331],[49.25655,57.040173],[49.180807,57.23662],[47.158628,56.796628],[46.764653,56.967786],[45.941401,56.859383],[45.920333,56.256469]]]},"properties":{"place_id":184822871,"osm_type":"relation","osm_id":115114,"place_rank":8,"category":"boundary","type":"administrative","importance":0.6173464932355067,"addresstype":"state","name":"Марий Эл","display_name":"Марий Эл, Приволжский федеральный округ, Россия","address":{"state":"Марий Эл","ISO3166-2-lvl4":"RU-ME","region":"Приволжский федеральный округ","country":"Россия","country_code":"ru"}},"bbox":[45.6237398,55.8294544,50.202985,57.3428646]}]}