{"type":"FeatureCollection","features":[{"type":"Feature","geometry":{"type":"GeometryCollection","geometries":[{"type":"Polygon","coordinates":[[[42.350969,53.853729],[42.955662,53.802426],[43.189972,53.993625],[43.749058,53.967509],[43.883341,53.895404],[43.862846,53.801308],[44.586662,53.666202],[44.603137,53.876896],[44.871526,53.968503],[45.210634,53.958816],[45.298483,53.871534],[45.88996,54.002839],[45.968141,54.154366],[46.687187,54.306791],[46.729149,54.402274],[46.535883,54.399143],[46.405012,54.877972],[46.062037,55.047713],[45.960197,54.996871],[45.712991,54.996791],[45.72766,55.184633],[45.593126,55.16577],[45.018253,54.705283],[45.098115,54.468083],[43.289408,54.954105],[43.099972,54.782572],[42.442326,54.825399],[42.620713,54.663259],[42.350969,53.853729]]]}]},"properties":{"place_id":180014296,"osm_type":"relation","osm_id":72196,"place_rank":8,"category":"boundary","type":"administrative","importance":0.6226546519920366,"addresstype":"state","name":"Мордовия","display_name":"Мордовия, Приволжский федеральный округ, Россия","address":{"state":"Мордовия","ISO3166-2-lvl4":"RU-MO","region":"Приволжский федеральный округ","country":"Россия","country_code":"ru"}},"bbox":[42.1642551,53.6431667,46.7296022,55.1902678]}]}