{"type":"FeatureCollection","features":[{"type":"Feature","geometry":{"type":"Polygon","coordinates":[[[84.490696,50.948059],[84.077553,50.640312],[84.347398,50.218383],[84.825375,50.142985],[85.039482,50.048421],[85.21068,49.62735],[87.315634,49.231083],[87.286345,49.115765],[87.424886,49.070443],[87.503475,49.090977],[87.493079,49.138723],[87.989382,49.18215],[88.169899,49.291391],[88.183694,49.454875],[89.1476,49.5021],[89.725637,49.72726],[89.517211,50.193213],[89.311723,50.206017],[89.503339,50.460006],[89.589891,50.428129],[89.613229,50.374267],[89.655164,50.369729],[89.8189,50.411201],[89.85135,50.524889],[89.643555,50.581689],[89.648652,50.60181],[88.963164,51.208482],[89.008876,51.394259],[88.799712,51.548832],[88.65756,51.52845],[88.687247,51.386394],[88.447291,51.284146],[88.156395,51.348495],[88.106272,51.443919],[87.914792,51.479799],[87.927811,51.552366],[88.10219,51.722589],[88.084121,51.758335],[87.882821,51.78279],[88.151791,52.095988],[88.379216,52.159056],[88.444961,52.432396],[87.891369,52.539479],[87.655016,52.422416],[87.12695,52.615339],[86.809816,52.648098],[86.657025,52.425446],[86.801044,52.158722],[85.801344,52.052413],[85.718524,51.751459],[83.932919,51.138087],[84.490696,50.948059]]]},"properties":{"place_id":200911383,"osm_type":"relation","osm_id":145194,"place_rank":8,"category":"boundary","type":"administrative","importance":0.604345588612058,"addresstype":"state","name":"Республика Алтай","display_name":"Республика Алтай, Сибирский федеральный округ, Россия","address":{"state":"Республика Алтай","ISO3166-2-lvl4":"RU-AL","region":"Сибирский федеральный округ","country":"Россия","country_code":"ru"}},"bbox":[83.9328028,49.070443,89.8656495,52.660268]}]}