{"type":"FeatureCollection","features":[{"type":"Feature","geometry":{"type":"Polygon","coordinates":[[[42.413776,43.256982],[42.44214,43.250846],[42.457196,43.212929],[42.675096,43.1357],[42.679674,43.172704],[42.789798,43.184961],[43.334799,42.890121],[43.398487,42.896923],[44.321252,43.4505],[44.355254,43.3924],[44.442242,43.427733],[44.413879,43.452715],[44.430211,43.683811],[44.297178,43.68946],[44.268033,43.810898],[44.292523,43.809673],[44.26857,43.918155],[43.7705,43.927527],[43.745413,43.817839],[42.649058,43.824137],[42.675528,43.69786],[42.456074,43.621092],[42.413776,43.256982]]]},"properties":{"place_id":192827907,"osm_type":"relation","osm_id":109879,"place_rank":8,"category":"boundary","type":"administrative","importance":0.6074740520020792,"addresstype":"state","name":"Кабардино-Балкария","display_name":"Кабардино-Балкария, Северо-Кавказский федеральный округ, Россия","address":{"state":"Кабардино-Балкария","ISO3166-2-lvl4":"RU-KB","region":"Северо-Кавказский федеральный округ","country":"Россия","country_code":"ru"}},"bbox":[42.3972675,42.889536,44.4753684,44.0203143]}]}