{"type":"FeatureCollection","features":[{"type":"Feature","geometry":{"type":"Polygon","coordinates":[[[99.025468,52.065671],[102.152462,51.328304],[102.478973,50.59743],[103.25629,50.192893],[104.139193,50.13935],[104.387422,50.300898],[105.478729,50.444387],[106.820841,50.295144],[107.078694,50.062112],[107.754305,49.970584],[108.555582,51.166591],[114.243703,52.809917],[113.783138,53.596877],[116.655529,54.507441],[116.849656,54.770249],[116.472253,55.31553],[115.950193,55.368167],[115.749255,56.978688],[115.676873,57.137312],[115.077618,57.11123],[114.768111,56.68749],[114.158218,56.697425],[113.881582,56.524144],[111.76735,56.946815],[108.746911,56.572157],[108.575649,54.561735],[109.067727,54.425906],[108.012655,53.233717],[103.808414,51.187466],[100.274904,53.367562],[99.23044,52.963329],[98.629919,52.41472],[99.025468,52.065671]]]},"properties":{"place_id":201433879,"osm_type":"relation","osm_id":145729,"place_rank":8,"category":"boundary","type":"administrative","importance":0.6270571376169248,"addresstype":"state","name":"Республика Бурятия","display_name":"Республика Бурятия, Дальневосточный федеральный округ, Россия","address":{"state":"Республика Бурятия","ISO3166-2-lvl4":"RU-BU","region":"Дальневосточный федеральный округ","country":"Россия","country_code":"ru"}},"bbox":[98.6299185,49.9697792,116.9217303,57.24988]}]}