{"type":"FeatureCollection","features":[{"type":"Feature","geometry":{"type":"Polygon","coordinates":[[[88.799712,51.548832],[89.008876,51.394259],[88.963164,51.208482],[89.648652,50.60181],[89.643555,50.581689],[89.85135,50.524889],[89.8189,50.411201],[89.655164,50.369729],[89.613229,50.374267],[89.589891,50.428129],[89.503339,50.460006],[89.311723,50.206017],[89.517211,50.193213],[89.638536,49.92253],[92.406778,50.846096],[93.110724,50.586316],[94.272791,50.576207],[94.613412,50.036455],[94.999164,50.04431],[95.016529,49.980528],[96.246839,49.980073],[96.417126,49.876889],[96.994987,49.892965],[97.231114,49.74293],[98.1823,50.1581],[98.324948,50.488834],[97.9497,50.8081],[98.033343,50.864706],[97.825138,51.009144],[99.025468,52.065671],[98.629919,52.41472],[99.23044,52.963329],[98.948711,53.137604],[98.30404,53.09883],[97.01902,53.684059],[94.618345,53.33111],[94.525925,52.910019],[94.097255,52.706344],[93.576273,52.166857],[92.548599,51.79636],[90.849343,51.900385],[90.488461,52.195602],[90.169172,52.151187],[90.06014,51.936925],[90.135832,51.762236],[89.9294,51.757431],[89.659675,51.539168],[89.207623,51.659066],[89.071366,51.587758],[88.799712,51.548832]]]},"properties":{"place_id":202700012,"osm_type":"relation","osm_id":145195,"place_rank":8,"category":"boundary","type":"administrative","importance":0.6190339768967371,"addresstype":"state","name":"Республика Тыва","display_name":"Республика Тыва, Сибирский федеральный округ, Россия","address":{"state":"Республика Тыва","ISO3166-2-lvl4":"RU-TY","region":"Сибирский федеральный округ","country":"Россия","country_code":"ru"}},"bbox":[88.7920033,49.7429299,99.2737021,53.7289299]}]}