{"type":"FeatureCollection","features":[{"type":"Feature","geometry":{"type":"Polygon","coordinates":[[[38.684018,44.951415],[38.782866,44.953832],[38.860972,44.893484],[39.090759,44.817163],[39.559578,44.806959],[39.641958,44.894728],[39.473901,44.989498],[39.471249,45.035691],[39.52318,45.054618],[39.620824,45.049111],[39.652424,45.033683],[39.692425,44.951403],[39.885148,45.02305],[40.029017,44.746998],[39.942818,44.736303],[39.896248,44.661805],[39.864685,44.34051],[39.974611,44.338574],[39.989763,44.26131],[40.06524,44.26679],[40.093517,44.246829],[40.088282,44.124977],[40.048503,44.131147],[39.993302,44.076403],[39.865187,44.1836],[39.768375,44.184755],[39.804815,43.938804],[39.950451,43.938207],[40.089574,43.845964],[40.188201,43.873226],[40.216865,43.779116],[40.365667,43.773269],[40.47669,43.959051],[40.359823,44.246747],[40.482902,44.315372],[40.349074,44.617467],[40.429997,44.762462],[40.570077,44.747626],[40.619524,44.465084],[40.775739,44.465024],[40.73156,44.610953],[40.527814,44.933474],[40.231798,45.116586],[39.948534,45.088466],[39.68009,45.166019],[39.68812,45.192771],[39.616262,45.21681],[39.203906,45.000076],[38.699333,45.066337],[38.684018,44.951415]]]},"properties":{"place_id":191862411,"osm_type":"relation","osm_id":253256,"place_rank":8,"category":"boundary","type":"administrative","importance":0.6012762899944555,"addresstype":"state","name":"Адыгея","display_name":"Адыгея, Южный федеральный округ, Россия","address":{"state":"Адыгея","ISO3166-2-lvl4":"RU-AD","region":"Южный федеральный округ","country":"Россия","country_code":"ru"}},"bbox":[38.6840182,43.7601459,40.7776469,45.2171133]}]}