{"type":"Topology","objects":{"республика-кабардино-балкария":{"type":"GeometryCollection","geometries":[{"type":"Polygon","arcs":[[0]],"bbox":[42.3972675,42.889536,44.4753684,44.0203143],"properties":{"place_id":192827907,"osm_type":"relation","osm_id":109879,"place_rank":8,"category":"boundary","type":"administrative","importance":0.6074740520020792,"addresstype":"state","name":"Кабардино-Балкария","display_name":"Кабардино-Балкария, Северо-Кавказский федеральный округ, Россия","address":{"state":"Кабардино-Балкария","ISO3166-2-lvl4":"RU-KB","region":"Северо-Кавказский федеральный округ","country":"Россия","country_code":"ru"}}}]}},"arcs":[[[42.3972675,43.2903699],[42.4038086,43.2865215],[42.4094104,43.2784009],[42.415984,43.2747245],[42.4129974,43.2672935],[42.4151015,43.2610733],[42.4137762,43.2569824],[42.4255733,43.2532318],[42.4421403,43.2508457],[42.4433938,43.249277],[42.4466737,43.2406312],[42.452077,43.2376181],[42.444023,43.2283925],[42.444193,43.2264985],[42.4476664,43.2223519],[42.4477104,43.2198225],[42.4571956,43.212929],[42.4691448,43.2096683],[42.4745457,43.2058151],[42.480997,43.2046331],[42.4867064,43.2056147],[42.4949947,43.2000992],[42.5098048,43.1993396],[42.5226735,43.1901472],[42.5304884,43.1877767],[42.5343483,43.1834492],[42.540322,43.1808901],[42.5432518,43.1765921],[42.5483614,43.1765023],[42.5552299,43.1738246],[42.5673752,43.1733064],[42.5698843,43.1748403],[42.5763499,43.1747392],[42.583351,43.1721135],[42.5862091,43.1725126],[42.5901183,43.1699657],[42.5931766,43.17187],[42.5964004,43.1714402],[42.5987024,43.1633883],[42.601918,43.1627367],[42.6155569,43.1645805],[42.6243089,43.1572064],[42.6326756,43.1560345],[42.6399284,43.1529846],[42.6395299,43.1507416],[42.660559,43.1405023],[42.6656037,43.1395172],[42.6665346,43.136019],[42.6692867,43.135204],[42.6750957,43.1357003],[42.6790505,43.1383648],[42.6741782,43.1395308],[42.6715706,43.1455931],[42.6801472,43.1572465],[42.6796743,43.1727039],[42.68565,43.1745096],[42.6983874,43.1721034],[42.7063913,43.1743491],[42.7102213,43.178819],[42.7165223,43.1780514],[42.7308459,43.1819391],[42.7349576,43.1812647],[42.7350822,43.1787728],[42.7406012,43.1776882],[42.7445821,43.1836761],[42.7499367,43.1876888],[42.7635769,43.188417],[42.7766211,43.1887713],[42.7775108,43.1870598],[42.7897976,43.1849607],[42.7907267,43.1827006],[42.7955485,43.1807795],[42.7968999,43.1731918],[42.8076761,43.1711049],[42.8082411,43.1690973],[42.8115871,43.16726],[42.8245961,43.1734721],[42.8529903,43.1789178],[42.8602669,43.1785579],[42.8633807,43.1755743],[42.877524,43.1696916],[42.8743929,43.1626914],[42.8819398,43.1562149],[42.8811096,43.1535365],[42.8889692,43.1574114],[42.8979804,43.1588332],[42.9035048,43.1531645],[42.931189,43.149132],[42.9321726,43.146029],[42.9294623,43.1449297],[42.9292038,43.1426595],[42.9213762,43.1356986],[42.924436,43.1348357],[42.9264378,43.1321272],[42.92624,43.1256937],[42.9338205,43.1220106],[42.9369854,43.1235398],[42.9405872,43.1224726],[42.9487893,43.1253097],[42.9535054,43.1241678],[42.9635231,43.1251372],[42.9801569,43.1179004],[42.9857375,43.1170205],[42.990075,43.119118],[43.0008105,43.1134725],[43.0168584,43.1018743],[43.027746,43.0990185],[43.032147,43.0926395],[43.0412311,43.0907638],[43.0430542,43.0880049],[43.0418587,43.08615],[43.0361405,43.0824879],[43.0286478,43.0815171],[43.027075,43.0789344],[43.0156191,43.0711493],[43.0179352,43.0667275],[43.0229111,43.0629838],[43.0235743,43.0585363],[43.027544,43.0528153],[43.0257681,43.0480084],[43.0358098,43.0432046],[43.0386537,43.0387251],[43.0375799,43.0331197],[43.0350352,43.0298707],[43.043586,43.0287649],[43.0441091,43.0252433],[43.0478345,43.0235054],[43.0509247,43.0192119],[43.0696142,43.0139478],[43.0716971,43.0077975],[43.0784655,43.007707],[43.0866584,42.9997254],[43.1131333,42.9993155],[43.1170489,42.991332],[43.1333339,42.985133],[43.132724,42.980504],[43.1414865,42.9764804],[43.1437127,42.9692859],[43.1532614,42.9672918],[43.1588743,42.9681561],[43.173163,42.962769],[43.179411,42.9573207],[43.180372,42.9531693],[43.185238,42.946531],[43.184001,42.941004],[43.1862957,42.9376125],[43.1988613,42.9347844],[43.2049107,42.930534],[43.2106353,42.932467],[43.2331816,42.9307466],[43.2383354,42.9241614],[43.250295,42.922429],[43.273291,42.9224141],[43.2778327,42.9198658],[43.2906593,42.9180017],[43.293165,42.9167784],[43.2944178,42.9126377],[43.2976945,42.911673],[43.3003884,42.9073332],[43.306259,42.911201],[43.317549,42.914819],[43.321476,42.91003],[43.326816,42.908345],[43.334352,42.899294],[43.332282,42.894564],[43.334799,42.890121],[43.340008,42.889536],[43.3501503,42.8922639],[43.354881,42.889824],[43.365044,42.890704],[43.368674,42.893179],[43.3901817,42.8993462],[43.3984872,42.8969234],[43.4006559,42.9035037],[43.4074491,42.9082745],[43.4080808,42.9118901],[43.4137781,42.9205554],[43.4266651,42.9269517],[43.4253344,42.9359508],[43.4272385,42.944973],[43.4251367,42.9482053],[43.4292931,42.9499226],[43.4320923,42.9579844],[43.4352082,42.9591739],[43.4324731,42.9641635],[43.4393728,42.9660092],[43.4429628,42.9693803],[43.4576332,42.9681132],[43.4679764,42.9605175],[43.4854209,42.9621739],[43.4907508,42.9598035],[43.4996816,42.9631206],[43.507871,42.9632221],[43.5133764,42.9571253],[43.5192524,42.9552244],[43.5217917,42.9518288],[43.5264909,42.9527947],[43.5338187,42.9447453],[43.5568047,42.9447228],[43.5631624,42.9416034],[43.571792,42.943063],[43.5723552,42.9472228],[43.5772612,42.9505524],[43.578515,42.9611022],[43.5820013,42.9646619],[43.5887499,42.96489],[43.5935761,42.9678972],[43.5950696,42.9732787],[43.5942757,42.9781141],[43.6015724,42.9797123],[43.6027622,42.9836242],[43.601582,42.9872266],[43.6106559,42.9899106],[43.6133891,42.9959453],[43.6128795,42.997962],[43.6231724,43.0105759],[43.6239825,43.0138688],[43.6173811,43.0189049],[43.6177917,43.0251434],[43.6098844,43.0307913],[43.609987,43.0376715],[43.6120407,43.0412657],[43.6186128,43.0456815],[43.6326813,43.0474274],[43.6359572,43.0491961],[43.6354629,43.0515611],[43.6382746,43.0540413],[43.6376095,43.0567067],[43.6393559,43.0604692],[43.6439769,43.0630365],[43.6483812,43.0697813],[43.643682,43.0755182],[43.6452913,43.0790761],[43.6435747,43.0832449],[43.6498807,43.099158],[43.6570689,43.1036765],[43.672575,43.1091193],[43.6873622,43.1195939],[43.697015,43.1230855],[43.7033816,43.1311981],[43.7240224,43.1316092],[43.7344967,43.1340739],[43.7421985,43.1334578],[43.7449711,43.135717],[43.7461006,43.1401327],[43.7443548,43.1430851],[43.744252,43.1478088],[43.7461003,43.1522246],[43.75068,43.1568097],[43.7262808,43.1661902],[43.7264861,43.1694764],[43.7322366,43.1756379],[43.7362413,43.1828262],[43.7443537,43.1900147],[43.7470233,43.2052643],[43.7510281,43.21235],[43.750378,43.222031],[43.7563676,43.2291913],[43.7702964,43.2412063],[43.7746382,43.248907],[43.7782891,43.2510487],[43.7896155,43.2772054],[43.8298745,43.3232655],[43.8596724,43.2988168],[43.862679,43.2894284],[43.8607281,43.2703721],[43.9121737,43.255867],[43.9127532,43.2507622],[43.9198443,43.2412623],[43.9262108,43.2438097],[43.9193577,43.249555],[43.9209281,43.256586],[43.9402362,43.2865376],[44.0047072,43.2710674],[43.9945569,43.2616701],[43.9852476,43.2478221],[43.9754658,43.2458737],[43.9717441,43.243398],[44.0022792,43.211956],[44.0314527,43.2290675],[44.0420417,43.2426593],[44.0541957,43.2525917],[44.0630516,43.2523261],[44.0727044,43.2563311],[44.0829734,43.2549963],[44.0982319,43.2671901],[44.0883947,43.2926748],[44.0374433,43.3525758],[44.0426679,43.3590261],[44.0618352,43.3748465],[44.0777844,43.3952203],[44.0848699,43.3978903],[44.1038159,43.4161438],[44.108334,43.4269264],[44.1056827,43.4310647],[44.1463461,43.437676],[44.147921,43.433191],[44.1548014,43.4241543],[44.1563419,43.4163498],[44.1655842,43.4115235],[44.1703082,43.4011518],[44.1727734,43.3742725],[44.172061,43.3681932],[44.1760498,43.3563888],[44.1763878,43.3482974],[44.2672634,43.408633],[44.3212517,43.4505004],[44.3334821,43.4440528],[44.3389248,43.4374806],[44.3389311,43.4309707],[44.3438887,43.4245154],[44.3436306,43.4201535],[44.3558525,43.4083506],[44.3553562,43.3972261],[44.3530853,43.3940284],[44.3552536,43.3923997],[44.3814909,43.3965076],[44.3813881,43.3995883],[44.384058,43.4029771],[44.4422421,43.427733],[44.4331662,43.4343215],[44.4267128,43.444392],[44.4235973,43.4441866],[44.4210457,43.4466699],[44.4185748,43.4466665],[44.4138794,43.4527146],[44.435234,43.4903544],[44.4479805,43.497633],[44.4405866,43.5077993],[44.4457852,43.5352575],[44.4445153,43.5427231],[44.4753684,43.5829428],[44.4615694,43.5939019],[44.4350358,43.6068788],[44.43966,43.6104129],[44.4414192,43.6216618],[44.4388255,43.6234618],[44.4360656,43.6230181],[44.4374004,43.6286661],[44.4345249,43.6362652],[44.4357572,43.6377029],[44.4337032,43.6445831],[44.4347301,43.64561],[44.4288766,43.6501283],[44.4312385,43.651566],[44.4264119,43.6573167],[44.4274387,43.6616297],[44.4308274,43.6629647],[44.4302108,43.6838109],[44.4268856,43.6858411],[44.410751,43.6839647],[44.4017141,43.6909475],[44.374193,43.693001],[44.3704962,43.6914606],[44.3622812,43.6818076],[44.3585844,43.6804726],[44.3385458,43.6834964],[44.3332713,43.6766727],[44.3264734,43.6812225],[44.3189973,43.6791371],[44.3103712,43.6857092],[44.2971782,43.6894595],[44.2893569,43.7097163],[44.2841634,43.7090618],[44.2816173,43.7110734],[44.2777148,43.7218559],[44.274326,43.7260405],[44.2750775,43.7349937],[44.2725365,43.7416091],[44.2674355,43.7453232],[44.2680325,43.8108975],[44.292523,43.809673],[44.2931199,43.891862],[44.3190103,43.8934157],[44.324573,43.8948916],[44.3358119,43.9020438],[44.3435766,43.9043784],[44.3437927,43.9457964],[44.4189116,43.9454969],[44.419364,44.0164506],[44.4131201,44.0172452],[44.4126446,44.0116295],[44.4000648,44.0085035],[44.3863382,44.0102857],[44.381547,44.0095307],[44.3815381,44.0062407],[44.3692043,44.0045631],[44.3688476,43.9726069],[44.3184964,43.9729723],[44.3184398,43.963932],[44.2690297,43.9640218],[44.2685698,43.9181546],[44.2253374,43.918464],[44.2247626,43.9282484],[44.1439037,43.9284712],[44.1440452,43.970237],[43.9873376,43.9706842],[43.9871647,43.9862639],[43.9446801,43.9864498],[43.9444726,44.0098399],[43.932006,44.0099486],[43.9320896,44.0182816],[43.9268835,44.018046],[43.9254029,44.020111],[43.9221636,44.0203143],[43.9194628,44.0177474],[43.9167936,44.0177242],[43.9171971,44.0155877],[43.9091755,44.0130343],[43.9076141,44.0106572],[43.8961161,44.0102588],[43.8926186,44.0032453],[43.8843805,43.9992237],[43.8848434,43.9977719],[43.8766152,43.9914361],[43.8629678,43.9875624],[43.8634726,43.9776783],[43.8586977,43.975243],[43.8585088,43.9707312],[43.8565866,43.9680507],[43.8579248,43.96022],[43.819676,43.9597661],[43.7990796,43.9489954],[43.7931336,43.9421047],[43.7876742,43.939339],[43.7848222,43.9403917],[43.7831513,43.9393086],[43.7812587,43.9375357],[43.7807116,43.9326731],[43.7770274,43.9286522],[43.7705002,43.9275269],[43.7705505,43.8728582],[43.7659756,43.8727307],[43.7559186,43.8528765],[43.7511054,43.8547609],[43.7502836,43.8535993],[43.7551791,43.8430893],[43.7509538,43.8341587],[43.7464201,43.8307825],[43.7454128,43.8178388],[43.7352637,43.8233914],[43.7327038,43.8183973],[43.723457,43.8228236],[43.7211864,43.8266835],[43.7120475,43.8303162],[43.7026201,43.8308343],[43.6935154,43.8284501],[43.686466,43.8297482],[43.687804,43.8315021],[43.6835514,43.8332874],[43.6755236,43.8313681],[43.6735747,43.8332478],[43.6695267,43.8337438],[43.6628777,43.8320769],[43.6598791,43.8344539],[43.6570655,43.8321172],[43.6557769,43.8339438],[43.6447985,43.8365364],[43.6279622,43.8372896],[43.6171099,43.8409485],[43.6115474,43.8398881],[43.6018629,43.8446701],[43.5894579,43.847978],[43.5845012,43.8468894],[43.5712187,43.8496139],[43.5673589,43.8471162],[43.5455053,43.8431426],[43.5389207,43.8470024],[43.5123556,43.8547218],[43.5045222,43.8602845],[43.4738702,43.8656198],[43.4344769,43.8625541],[43.4241935,43.8583579],[43.413516,43.859499],[43.4002284,43.8457075],[43.3738003,43.8378633],[43.3714267,43.8343859],[43.3631269,43.8297443],[43.3533543,43.818791],[43.3447981,43.8143764],[43.3342355,43.8127138],[43.3307326,43.8083046],[43.3256739,43.8066283],[43.316073,43.7988541],[43.31259,43.8010445],[43.3173476,43.8054118],[43.31591,43.806728],[43.312584,43.804018],[43.2379275,43.936078],[43.2277449,43.9504206],[43.2250081,43.9590461],[43.1890325,43.9558693],[43.1796927,43.9615107],[43.1639409,43.9615376],[43.1461088,43.9594901],[43.1448713,43.9480355],[43.1572426,43.9397533],[43.1533152,43.9382884],[43.1493884,43.9335658],[43.1438926,43.931754],[43.1443942,43.9287734],[43.1417495,43.9263819],[43.1419801,43.9184068],[43.1477322,43.8956169],[43.1344434,43.8954467],[43.1312945,43.8935431],[43.119901,43.8962301],[43.1063715,43.8944913],[43.088903,43.8977992],[43.0775387,43.8962979],[43.0720391,43.8968753],[43.0695622,43.8990119],[43.0602406,43.8995843],[43.0484894,43.8965503],[43.0439483,43.8980261],[43.0288807,43.8976125],[43.022654,43.9001498],[42.9965186,43.8966554],[42.9814408,43.8988742],[42.9688522,43.8965437],[42.9544337,43.8898511],[42.94626,43.8825854],[42.9402433,43.8795201],[42.9349645,43.8733329],[42.9248608,43.8706081],[42.9185035,43.8652723],[42.8661055,43.8676908],[42.8670765,43.8627741],[42.8722989,43.8534651],[42.8718449,43.8477604],[42.8657146,43.8435599],[42.8543622,43.8404945],[42.8557251,43.8119995],[42.8547037,43.8018957],[42.8172403,43.8014412],[42.801233,43.8071173],[42.7922645,43.8065495],[42.7728516,43.8107497],[42.7632019,43.8102955],[42.7321525,43.8192637],[42.7205729,43.8177877],[42.7161454,43.8186958],[42.7061553,43.8151764],[42.6810662,43.8107486],[42.6782891,43.809695],[42.6761745,43.8065727],[42.6685997,43.8031977],[42.6665945,43.7924455],[42.6665947,43.7822156],[42.6691931,43.7692253],[42.6770382,43.7457699],[42.6765008,43.740403],[42.6795861,43.7368307],[42.678937,43.7220541],[42.6813728,43.7160461],[42.6779629,43.7106876],[42.6787749,43.7071153],[42.6752027,43.7017567],[42.6755276,43.6978596],[42.6657848,43.7006199],[42.6623748,43.6991584],[42.6620501,43.6970475],[42.6592897,43.6952613],[42.6540936,43.6946117],[42.6501966,43.690877],[42.6389925,43.6886035],[42.6368817,43.6855183],[42.6266519,43.6817834],[42.6204816,43.676506],[42.6195075,43.670498],[42.6048936,43.6597806],[42.6026204,43.6562084],[42.5966124,43.6540973],[42.5680338,43.6503623],[42.5620259,43.6461403],[42.5054046,43.6295318],[42.4560743,43.621092],[42.4534763,43.6163829],[42.4555876,43.6027431],[42.4625701,43.5938123],[42.4630573,43.5899152],[42.4604594,43.5845566],[42.4690657,43.572703],[42.4679292,43.5658019],[42.4632203,43.5638533],[42.4658185,43.5586571],[42.4640324,43.5554096],[42.4651691,43.5519996],[42.464195,43.545342],[42.4744252,43.5299161],[42.4762116,43.5219595],[42.4713403,43.5187119],[42.4671187,43.5065333],[42.4598117,43.5037728],[42.4578633,43.50085],[42.4562396,43.4969529],[42.4589437,43.4913056],[42.456937,43.4871511],[42.4514525,43.4823792],[42.4559668,43.4719872],[42.4559884,43.4677518],[42.4515487,43.4628728],[42.4571728,43.4541314],[42.4580302,43.4499542],[42.4562965,43.4433805],[42.4469159,43.4396411],[42.4212176,43.4371415],[42.4194145,43.4259024],[42.4242685,43.4244154],[42.4242513,43.422218],[42.4223888,43.4192038],[42.4101983,43.4131666],[42.4118761,43.410319],[42.4175041,43.4070144],[42.4176701,43.4047951],[42.4079897,43.3985641],[42.4077506,43.3962085],[42.4028305,43.3928315],[42.4054678,43.3857569],[42.4038095,43.3826919],[42.4070757,43.3810428],[42.4132972,43.3731512],[42.4119886,43.3703243],[42.4155836,43.3647861],[42.4311796,43.3545179],[42.4378432,43.3524103],[42.4154862,43.3431295],[42.4140778,43.340422],[42.4152795,43.3345851],[42.4112515,43.3299477],[42.4099388,43.3145093],[42.4065694,43.3122316],[42.4038667,43.3019722],[42.4002952,43.3007496],[42.4005009,43.2966733],[42.3972675,43.2903699]]],"bbox":[42.3972675,42.889536,44.4753684,44.0203143]}