{"type":"FeatureCollection","features":[{"type":"Feature","geometry":{"type":"GeometryCollection","geometries":[{"type":"Polygon","coordinates":[[[41.647071,46.140198],[41.718261,45.981794],[42.103461,45.935126],[42.52467,46.003019],[42.913775,46.236222],[43.733005,45.978275],[45.705116,44.977363],[47.293609,44.718891],[47.826803,45.262264],[47.574749,45.392682],[47.528429,45.653518],[46.550708,45.682444],[46.962178,46.97422],[45.756632,48.001333],[44.960978,48.270856],[44.909748,48.21939],[44.925662,48.120248],[44.359057,47.85165],[44.08259,47.899435],[43.945831,47.753096],[43.716835,47.719002],[43.667597,47.548888],[43.697178,47.490946],[44.312238,47.477872],[44.24846,46.889673],[43.862428,46.270766],[43.630337,46.175384],[43.333073,46.169188],[42.931714,46.446892],[42.679888,46.368331],[42.215054,46.556352],[42.049723,46.546164],[42.17037,46.297814],[41.693792,46.204987],[41.647071,46.140198]]]}]},"properties":{"place_id":189080026,"osm_type":"relation","osm_id":108083,"place_rank":8,"category":"boundary","type":"administrative","importance":0.5954993543766803,"addresstype":"state","name":"Калмыкия","display_name":"Калмыкия, Южный федеральный округ, Россия","address":{"state":"Калмыкия","ISO3166-2-lvl4":"RU-KL","region":"Южный федеральный округ","country":"Россия","country_code":"ru"}},"bbox":[41.6343079,44.7188913,47.8268033,48.2708558]}]}