{"type":"FeatureCollection","features":[{"type":"Feature","geometry":{"type":"Polygon","coordinates":[[[45.435664,44.009498],[46.64995,43.807156],[46.330092,43.433851],[46.525105,42.928403],[46.366963,42.840911],[46.317497,42.904382],[46.239047,42.860175],[46.207953,42.889672],[46.117027,42.802909],[46.178355,42.741379],[45.820836,42.498659],[45.77538,42.489447],[45.736944,42.293152],[45.652072,42.292134],[45.606212,42.221415],[45.647516,42.186408],[46.538095,41.878036],[46.584325,41.802598],[46.760265,41.862533],[47.53077,41.212481],[47.783264,41.185097],[48.809044,41.961321],[47.903902,42.999567],[47.589631,44.689055],[45.705116,44.977363],[45.225406,44.467069],[45.428468,44.424968],[45.435664,44.009498]]]},"properties":{"place_id":191729729,"osm_type":"relation","osm_id":109876,"place_rank":8,"category":"boundary","type":"administrative","importance":0.6699386043560389,"addresstype":"state","name":"Дагестан","display_name":"Дагестан, Северо-Кавказский федеральный округ, Россия","address":{"state":"Дагестан","ISO3166-2-lvl4":"RU-DA","region":"Северо-Кавказский федеральный округ","country":"Россия","country_code":"ru"}},"bbox":[45.1034215,41.1850968,48.8090441,44.9917214]}]}