{"type":"FeatureCollection","features":[{"type":"Feature","geometry":{"type":"Polygon","coordinates":[[[32.913334,60.681389],[37.785939,61.537389],[37.513466,62.651627],[36.528467,62.793114],[35.892773,63.576226],[36.455216,63.626485],[36.018929,65.790001],[33.129223,66.556076],[32.557279,66.576101],[32.548149,66.479487],[32.360389,66.475171],[32.342661,66.345393],[31.853877,66.36348],[31.791938,66.495233],[31.621162,66.502378],[31.575857,66.654003],[29.261989,66.666175],[30.13361,65.676941],[30.254719,63.58972],[31.588928,62.914413],[29.008212,61.305621],[32.913334,60.681389]]]},"properties":{"place_id":182725068,"osm_type":"relation","osm_id":393980,"place_rank":8,"category":"boundary","type":"administrative","importance":0.6304736539562477,"addresstype":"state","name":"Карелия","display_name":"Карелия, Северо-Западный федеральный округ, Россия","address":{"state":"Карелия","ISO3166-2-lvl4":"RU-KR","region":"Северо-Западный федеральный округ","country":"Россия","country_code":"ru"}},"bbox":[29.306154,60.6813889,37.9466381,66.6673243],"id":0}]}