{"type":"FeatureCollection","features":[{"type":"Feature","geometry":{"type":"Polygon","coordinates":[[[44.51247,43.405754],[44.577704,43.413603],[44.570721,43.236097],[44.677734,43.209705],[44.669619,43.278164],[44.697001,43.270951],[44.956413,43.032145],[44.953859,42.946579],[44.853651,42.835576],[44.631861,42.891994],[44.679969,42.75591],[44.752849,42.714098],[44.767476,42.641407],[44.800397,42.615748],[44.829035,42.617159],[44.886156,42.746792],[44.979751,42.744936],[45.034745,42.692732],[45.051266,42.692517],[45.087856,42.712806],[45.194208,42.823108],[45.084431,42.844165],[45.077801,43.00832],[45.194209,43.102423],[45.185056,43.166356],[45.126384,43.192984],[45.13652,43.421267],[44.972221,43.469033],[44.95689,43.521139],[44.847401,43.564662],[44.789316,43.557122],[44.795215,43.596742],[44.695502,43.594965],[44.705925,43.5517],[44.62187,43.54732],[44.631067,43.614089],[44.503346,43.587919],[44.478436,43.467693],[44.51247,43.405754]]]},"properties":{"place_id":192846818,"osm_type":"relation","osm_id":253252,"place_rank":8,"category":"boundary","type":"administrative","importance":0.5951448715943346,"addresstype":"state","name":"Ингушетия","display_name":"Ингушетия, Северо-Кавказский федеральный округ, Россия","address":{"state":"Ингушетия","ISO3166-2-lvl4":"RU-IN","region":"Северо-Кавказский федеральный округ","country":"Россия","country_code":"ru"}},"bbox":[44.478436,42.61473,45.1953824,43.6140893]}]}