{"type":"FeatureCollection","features":[{"type":"Feature","geometry":{"type":"GeometryCollection","geometries":[{"type":"Polygon","coordinates":[[[105.793352,64.489702],[108.246822,64.250218],[110.548786,61.100268],[109.271354,59.386699],[109.811944,59.004253],[113.289862,59.163762],[115.213945,60.484273],[116.167005,60.429603],[118.749395,59.347716],[119.633789,57.005391],[121.440965,56.975217],[123.878475,56.39667],[124.474815,55.902922],[126.333758,55.583958],[130.948747,55.7125],[132.750593,59.016327],[138.246242,59.695121],[138.336002,61.105422],[139.630088,61.547771],[140.714073,62.485035],[141.070223,62.482954],[142.396031,61.90198],[144.370618,61.790263],[145.455363,62.550997],[145.672334,63.84186],[146.336508,64.095046],[152.430478,64.412028],[154.359207,66.102619],[158.498013,66.113599],[158.309161,68.018818],[162.399885,68.274182],[163.284055,71.052055],[147.699356,73.002373],[153.049981,75.658855],[137.432342,76.755621],[129.429186,73.611781],[113.257585,74.823365],[110.485274,74.325295],[111.873551,74.105136],[110.358926,73.354835],[112.719722,71.254776],[106.147384,69.418393],[106.905551,68.859042],[105.793352,64.489702]]]}]},"properties":{"place_id":250272567,"osm_type":"relation","osm_id":151234,"place_rank":8,"category":"boundary","type":"administrative","importance":0.6516144890668153,"addresstype":"state","name":"Республика Саха (Якутия)","display_name":"Республика Саха (Якутия), Дальневосточный федеральный округ, Россия","address":{"state":"Республика Саха (Якутия)","ISO3166-2-lvl4":"RU-SA","region":"Дальневосточный федеральный округ","country":"Россия","country_code":"ru"}},"bbox":[105.508341,55.4876715,163.105983,77.3102287]}]}