{"type":"FeatureCollection","features":[{"type":"Feature","geometry":{"type":"Polygon","coordinates":[[[45.39935,64.174919],[46.749458,63.780519],[47.280562,62.21353],[48.278393,62.224782],[48.730638,62.87789],[49.640276,62.771121],[49.320819,61.152773],[47.913201,61.096015],[49.597299,59.211053],[52.317417,60.227461],[51.8922,60.881246],[51.892312,60.881543],[56.653124,61.5243],[59.348927,61.663234],[59.489022,61.946615],[59.466195,64.505842],[62.000444,65.717736],[62.788659,65.860986],[63.230182,66.327288],[65.082128,66.890903],[65.697849,67.380137],[66.010179,67.409108],[66.133509,67.914682],[65.350718,67.965233],[65.473816,68.418383],[64.577997,68.352258],[61.662829,67.013408],[52.087312,67.069144],[49.000469,66.113571],[50.360683,64.510388],[45.39935,64.174919]]]},"properties":{"place_id":184162184,"osm_type":"relation","osm_id":115136,"place_rank":8,"category":"boundary","type":"administrative","importance":0.6407390832944757,"addresstype":"state","name":"Республика Коми","display_name":"Республика Коми, Северо-Западный федеральный округ, Россия","address":{"state":"Республика Коми","ISO3166-2-lvl4":"RU-KO","region":"Северо-Западный федеральный округ","country":"Россия","country_code":"ru"}},"bbox":[45.3993499,59.1982886,66.2516859,68.4226624]}]}