{"type":"FeatureCollection","features":[{"type":"Feature","geometry":{"type":"Polygon","coordinates":[[[87.914792,51.479799],[88.106272,51.443919],[88.156395,51.348495],[88.447291,51.284146],[88.687247,51.386394],[88.65756,51.52845],[89.071366,51.587758],[89.207623,51.659066],[89.659675,51.539168],[89.9294,51.757431],[90.135832,51.762236],[90.06014,51.936925],[90.169172,52.151187],[90.488461,52.195602],[90.881973,52.587279],[91.335061,52.790733],[91.465381,52.91298],[91.476408,53.153724],[91.741206,53.179304],[91.917195,53.344479],[91.863571,53.456917],[91.565151,53.608613],[91.427376,53.861709],[91.580759,54.063137],[91.260237,54.506586],[90.951947,54.633703],[90.945677,54.848132],[90.216932,55.153584],[89.457776,55.015038],[89.064119,55.120055],[89.011422,55.323648],[88.601258,55.427377],[88.437237,55.282941],[88.747982,54.83802],[88.546551,54.43247],[89.176242,54.30444],[89.226378,53.81105],[88.912365,53.388898],[89.055175,53.233884],[89.038361,52.556995],[88.694844,52.349283],[88.694248,52.24627],[88.151791,52.095988],[87.882825,51.783122],[87.882821,51.78279],[88.084121,51.758335],[88.10219,51.722589],[87.927811,51.552366],[87.914792,51.479799]]]},"properties":{"place_id":201672039,"osm_type":"relation","osm_id":190911,"place_rank":8,"category":"boundary","type":"administrative","importance":0.6038676948114978,"addresstype":"state","name":"Республика Хакасия","display_name":"Республика Хакасия, Сибирский федеральный округ, Россия","address":{"state":"Республика Хакасия","ISO3166-2-lvl4":"RU-KK","region":"Сибирский федеральный округ","country":"Россия","country_code":"ru"}},"bbox":[87.8559784,51.284146,91.9247307,55.4373407]}]}