{"type":"FeatureCollection","features":[{"type":"Feature","geometry":{"type":"GeometryCollection","geometries":[{"type":"Polygon","coordinates":[[[47.25867,54.67769],[47.334299,54.667393],[47.389323,54.513878],[47.584983,54.535177],[47.717419,54.735069],[48.881741,54.625206],[48.88178,54.79602],[49.288299,54.891446],[49.543618,54.66949],[49.565075,54.563293],[50.092459,54.5066],[50.951261,54.342639],[51.008365,54.549436],[51.389252,54.677007],[52.251127,54.438735],[52.486742,54.4666],[52.568276,54.340128],[52.696425,54.360757],[52.982441,54.235834],[53.062389,54.065377],[53.287244,54.087367],[53.36886,53.974244],[53.500606,54.056129],[53.420975,54.508331],[53.432479,54.571393],[53.62708,54.711543],[53.611115,54.84986],[53.2035,55.104741],[53.207989,55.158837],[54.259003,55.697237],[53.703886,55.927928],[53.271712,55.859569],[53.207832,55.933549],[53.475272,56.039445],[53.575332,56.236981],[53.427429,56.275196],[53.233604,56.239378],[53.33362,56.062376],[53.33283,56.062106],[52.973836,56.23683],[52.981652,56.38823],[53.129737,56.50367],[53.144828,56.524698],[52.945487,56.538285],[52.55531,56.242864],[52.884148,56.156458],[52.661294,56.009492],[52.219295,56.093498],[52.156222,55.904398],[51.412424,55.984143],[50.334849,56.677054],[48.705428,55.985654],[47.678722,55.315238],[47.669428,55.214214],[48.006551,55.289475],[47.991083,54.967008],[47.38594,54.841392],[47.25867,54.67769]]]}]},"properties":{"place_id":190154931,"osm_type":"relation","osm_id":79374,"place_rank":8,"category":"boundary","type":"administrative","importance":0.6747227238175286,"addresstype":"state","name":"Татарстан","display_name":"Татарстан, Приволжский федеральный округ, Россия","address":{"state":"Татарстан","ISO3166-2-lvl4":"RU-TA","region":"Приволжский федеральный округ","country":"Россия","country_code":"ru"}},"bbox":[47.2370189,53.9742444,54.2656971,56.6781671]}]}