{"type":"Topology","objects":{"республика-ингушетия":{"type":"GeometryCollection","geometries":[{"type":"Polygon","arcs":[[0]],"bbox":[44.478436,42.61473,45.1953824,43.6140893],"properties":{"place_id":192846818,"osm_type":"relation","osm_id":253252,"place_rank":8,"category":"boundary","type":"administrative","importance":0.5951448715943346,"addresstype":"state","name":"Ингушетия","display_name":"Ингушетия, Северо-Кавказский федеральный округ, Россия","address":{"state":"Ингушетия","ISO3166-2-lvl4":"RU-IN","region":"Северо-Кавказский федеральный округ","country":"Россия","country_code":"ru"}}}]}},"arcs":[[[44.478436,43.4676932],[44.4793366,43.4650294],[44.4809877,43.4657035],[44.4804976,43.4634506],[44.4848152,43.4613639],[44.482216,43.4603294],[44.4828596,43.4535382],[44.4816813,43.4526985],[44.486262,43.4482472],[44.4916091,43.4482981],[44.4901495,43.4448268],[44.4933138,43.4428782],[44.4916038,43.4407625],[44.4922453,43.4379686],[44.4887446,43.4362924],[44.4895964,43.4344709],[44.5124704,43.4057541],[44.5151424,43.4107841],[44.5256352,43.4148056],[44.5303559,43.4125455],[44.5338535,43.4169721],[44.5498089,43.4173649],[44.5555687,43.4154485],[44.5578357,43.4181461],[44.5619904,43.4192647],[44.5777037,43.4136031],[44.5731461,43.2720146],[44.5707208,43.2360974],[44.5967759,43.2285175],[44.6093769,43.2265781],[44.6147667,43.2231087],[44.6198229,43.222756],[44.6207637,43.220757],[44.6241736,43.2229912],[44.6239385,43.2204043],[44.6256525,43.2201062],[44.6324047,43.2219331],[44.6353443,43.2209924],[44.6346389,43.2187582],[44.6359323,43.2185231],[44.6374609,43.2201693],[44.644516,43.2209925],[44.6427523,43.2175825],[44.6439282,43.2169946],[44.6455744,43.218876],[44.6536878,43.219464],[44.6599199,43.2167596],[44.6594496,43.2149958],[44.6623892,43.2162893],[44.6630948,43.2137024],[44.6653289,43.2159365],[44.6710318,43.2148783],[44.6706791,43.2132321],[44.6743243,43.2134673],[44.6748541,43.2107874],[44.6777343,43.2097046],[44.6800232,43.2155838],[44.679079,43.2173978],[44.6806134,43.233793],[44.6687208,43.2344163],[44.6675885,43.239005],[44.6696185,43.278164],[44.6803172,43.2782305],[44.6823187,43.2759058],[44.6970013,43.2709508],[44.7415852,43.2050272],[44.7388646,43.202823],[44.7426877,43.2023629],[44.7427006,43.1999335],[44.7458683,43.1982639],[44.7502667,43.1921436],[44.7484624,43.1887588],[44.7492671,43.1877105],[44.7524214,43.189189],[44.7734072,43.1577287],[44.796256,43.1654361],[44.798432,43.1630568],[44.7971862,43.1589436],[44.8002122,43.1547535],[44.7979175,43.1522253],[44.8007671,43.1518411],[44.8006131,43.1499722],[44.7984481,43.1495324],[44.7982506,43.1463506],[44.8108506,43.1455715],[44.8314209,43.1398601],[44.8451786,43.1324524],[44.8421214,43.1301006],[44.8467075,43.1196355],[44.8354192,43.1202233],[44.8341258,43.1186946],[44.8516463,43.1089352],[44.8662198,43.1051082],[44.8705423,43.0982356],[44.8941885,43.0961346],[44.8970353,43.0978503],[44.9017477,43.0960719],[44.9086172,43.0880643],[44.9101015,43.08292],[44.9145124,43.0788836],[44.9182199,43.0793395],[44.9212761,43.0774316],[44.9219828,43.0742834],[44.9311954,43.0712605],[44.9324004,43.0632305],[44.9538874,43.0525543],[44.9588363,43.0455986],[44.9604307,43.0376943],[44.9571487,43.0373835],[44.9564133,43.032145],[44.9375879,43.0265589],[44.9341937,43.0225102],[44.9322431,43.0161657],[44.9352522,43.0109867],[44.9346645,42.9996102],[44.9438366,42.9847944],[44.9374869,42.9849119],[44.9254933,42.9795028],[44.9261988,42.9775039],[44.9347825,42.980914],[44.9462175,42.9791381],[44.9538594,42.946579],[44.9481881,42.9471668],[44.9471298,42.9458734],[44.9410153,42.948813],[44.9428969,42.9396412],[44.9258471,42.9307633],[44.9053283,42.9369939],[44.9053177,42.9242657],[44.8817182,42.9151093],[44.8788497,42.8825262],[44.8634593,42.8848045],[44.8599306,42.8835093],[44.8595284,42.8805396],[44.8638805,42.8747326],[44.864931,42.8639004],[44.8700554,42.8611071],[44.8688141,42.8586383],[44.8657234,42.860607],[44.860674,42.8603254],[44.8565641,42.856686],[44.8596306,42.856113],[44.8575287,42.8522144],[44.8595638,42.8447038],[44.8547114,42.8393948],[44.8536514,42.8355762],[44.8301341,42.8400442],[44.8243723,42.8448652],[44.8164939,42.8482751],[44.8100336,42.8549298],[44.7957985,42.8603862],[44.790207,42.8583128],[44.7770436,42.8597981],[44.7733985,42.8552122],[44.7666962,42.8507438],[44.7543906,42.8498989],[44.7534722,42.8433205],[44.7508359,42.842615],[44.7408274,42.8463928],[44.7338897,42.8520369],[44.7027969,42.8565808],[44.7005127,42.8596476],[44.7019988,42.8632768],[44.704157,42.864471],[44.7016858,42.8679345],[44.6938493,42.8660673],[44.6745397,42.8702294],[44.6735643,42.8730772],[44.6638663,42.8786412],[44.652601,42.8813984],[44.6470102,42.8811403],[44.640789,42.8852404],[44.6402687,42.8878508],[44.6371031,42.8906904],[44.6318612,42.8919938],[44.6317348,42.8841818],[44.6336969,42.8772538],[44.6478922,42.8589714],[44.6465076,42.8447951],[44.647586,42.8429554],[44.6544605,42.8417471],[44.6662145,42.8317991],[44.6585767,42.8112629],[44.6680008,42.7975753],[44.6687067,42.7785799],[44.6666994,42.7732314],[44.6783491,42.7652612],[44.6799687,42.7559099],[44.687545,42.7530833],[44.690954,42.747379],[44.695444,42.744206],[44.6984681,42.742506],[44.714347,42.7420096],[44.7150281,42.7388653],[44.718011,42.735848],[44.7300387,42.728546],[44.7413422,42.7274122],[44.743287,42.723397],[44.7528491,42.7140979],[44.7521989,42.7108961],[44.744617,42.700113],[44.747443,42.687722],[44.752239,42.683525],[44.757208,42.674095],[44.7545242,42.6686632],[44.763749,42.656367],[44.7674764,42.6414066],[44.771044,42.641895],[44.777525,42.638723],[44.779231,42.635655],[44.785094,42.632709],[44.7894358,42.6254493],[44.800397,42.615748],[44.803788,42.61473],[44.823493,42.616582],[44.827336,42.6157105],[44.829035,42.617159],[44.8264289,42.6284254],[44.8226255,42.6332878],[44.8229052,42.6413028],[44.8298836,42.6462393],[44.8339847,42.6639278],[44.8369002,42.6669473],[44.8355967,42.6736565],[44.8393625,42.6750646],[44.8459768,42.6736013],[44.8563999,42.6767683],[44.8563302,42.6796788],[44.8609543,42.6864261],[44.8689902,42.6914378],[44.8672521,42.6949587],[44.8685503,42.6992167],[44.8639047,42.7044757],[44.8704332,42.7115553],[44.8685342,42.7203879],[44.8693818,42.7249712],[44.8706317,42.7280716],[44.879164,42.7338],[44.8861563,42.7467916],[44.9054468,42.7489188],[44.9095452,42.7507427],[44.9211645,42.7478119],[44.9260783,42.7504236],[44.9460107,42.7509297],[44.9707995,42.7481288],[44.979751,42.744936],[44.983148,42.736634],[44.9943869,42.7301812],[44.996417,42.723329],[45.0009139,42.7210259],[45.0058385,42.7153636],[45.0109198,42.7127979],[45.0164326,42.7123197],[45.0206058,42.7083241],[45.0294019,42.7043636],[45.0324657,42.7007171],[45.0319775,42.6958697],[45.0347448,42.6927319],[45.0512656,42.6925171],[45.055779,42.695067],[45.0655931,42.6965313],[45.069506,42.6998316],[45.0695643,42.7031117],[45.071381,42.7050089],[45.0878556,42.7128059],[45.0886506,42.7159509],[45.0851188,42.720307],[45.0915672,42.7308049],[45.1082732,42.7400697],[45.1164696,42.750865],[45.1239086,42.7525417],[45.1380684,42.7633351],[45.1434617,42.7639118],[45.1444856,42.7733825],[45.1479532,42.7769861],[45.1533559,42.7790239],[45.1566869,42.7828979],[45.164929,42.7798187],[45.1713909,42.7802708],[45.1802552,42.7971787],[45.1942315,42.8048441],[45.1942081,42.8231081],[45.1898074,42.8252965],[45.1803642,42.8228189],[45.1762843,42.8283144],[45.1712635,42.8291304],[45.1691683,42.831458],[45.1631359,42.833704],[45.0867832,42.841772],[45.0844314,42.8441648],[45.0841913,42.8483091],[45.089172,42.8580002],[45.0867854,42.8636956],[45.0872182,42.8695186],[45.0816608,42.8761755],[45.0841033,42.8795088],[45.083825,42.881808],[45.0781377,42.8877216],[45.0780745,42.8898556],[45.0746054,42.8917228],[45.071623,42.8990274],[45.0736208,42.9006446],[45.0743481,42.9044668],[45.0820147,42.9094378],[45.0812272,42.9143205],[45.0895644,42.9274385],[45.091928,42.9283795],[45.0910481,42.9324555],[45.0945368,42.9382954],[45.0863681,42.9500964],[45.0812162,42.9531071],[45.0805422,42.9555785],[45.0777666,42.9557577],[45.0755277,42.9601807],[45.0742609,42.9599214],[45.0738561,42.9636719],[45.0707063,42.9677796],[45.0716506,42.9696559],[45.0686143,42.9719599],[45.0724015,42.9741894],[45.0731239,42.9755117],[45.0715554,42.9771926],[45.0736245,42.9786946],[45.0690421,42.9830659],[45.0700088,42.9880449],[45.0689815,42.9919073],[45.0736844,42.9958839],[45.073375,42.9976318],[45.0769031,42.9987116],[45.0778012,43.0083203],[45.0810558,43.0090125],[45.0809639,43.0120193],[45.0842867,43.0165525],[45.0874431,43.015293],[45.0870457,43.0193902],[45.0901789,43.0188053],[45.0960615,43.0218805],[45.099112,43.0264143],[45.101582,43.0252731],[45.1058501,43.0281741],[45.1088222,43.0272942],[45.1111451,43.0309464],[45.1180183,43.0323249],[45.1174067,43.0337953],[45.1199656,43.0383437],[45.1255445,43.039967],[45.1256096,43.0421797],[45.1283179,43.040563],[45.1297663,43.0418744],[45.1280604,43.0447756],[45.1332022,43.044562],[45.1324135,43.0475179],[45.1373059,43.0483862],[45.1376814,43.0510382],[45.1425155,43.0521445],[45.1430859,43.0545152],[45.1508157,43.0593019],[45.1524628,43.0570078],[45.1524904,43.0591125],[45.1568877,43.0616061],[45.1566841,43.0650979],[45.1622283,43.0667212],[45.1608364,43.0693733],[45.1628435,43.0733261],[45.1655281,43.0737472],[45.1693536,43.0780708],[45.1719626,43.0780996],[45.1714578,43.0801349],[45.1695976,43.0802554],[45.1715332,43.0810116],[45.1710568,43.0825382],[45.1755847,43.0841542],[45.1754511,43.0862947],[45.1780333,43.0865081],[45.1773826,43.0890903],[45.1826164,43.0917314],[45.1832964,43.0960629],[45.1855436,43.0967352],[45.1896356,43.1024367],[45.1908212,43.1010231],[45.1942089,43.1024233],[45.1953824,43.105486],[45.1923264,43.108401],[45.1951718,43.1177909],[45.1937209,43.1187222],[45.1942022,43.1208293],[45.190838,43.1192743],[45.1903794,43.1232746],[45.1883041,43.1241681],[45.1760657,43.1413848],[45.1693574,43.1411892],[45.17439,43.1416091],[45.1850559,43.1663556],[45.1713721,43.1666276],[45.165819,43.1706079],[45.1643994,43.1740284],[45.1662159,43.1766371],[45.1632266,43.177563],[45.1481548,43.1743072],[45.1376385,43.1753392],[45.136037,43.1771541],[45.141235,43.1847163],[45.1263841,43.1929843],[45.1281153,43.2133076],[45.1266292,43.2226224],[45.106459,43.2813211],[45.1089799,43.3118782],[45.1122466,43.3181408],[45.1093996,43.3198237],[45.1155748,43.3194223],[45.1159794,43.3222238],[45.1193433,43.3216494],[45.1199265,43.3228876],[45.1204984,43.3214563],[45.1190125,43.3204845],[45.121228,43.3199849],[45.1255225,43.3268292],[45.1258956,43.337468],[45.1283803,43.3443693],[45.137383,43.417529],[45.1365201,43.4212666],[45.1147903,43.4531526],[45.0653025,43.4538308],[45.0643855,43.4628997],[45.0153166,43.4626561],[45.0110745,43.4613135],[44.9722209,43.4690327],[44.972336,43.4801485],[44.9565254,43.4802208],[44.9568895,43.521139],[44.9356222,43.5190304],[44.9060901,43.5212834],[44.9059968,43.5197138],[44.8947447,43.5237497],[44.8828439,43.5306924],[44.8733197,43.5339535],[44.8671149,43.5400467],[44.859967,43.549333],[44.8640139,43.5532279],[44.8608425,43.5637837],[44.8474013,43.5646615],[44.8277321,43.5531756],[44.8156266,43.5547903],[44.8119918,43.5582854],[44.8001543,43.5582367],[44.8011292,43.555762],[44.7927687,43.555693],[44.7893157,43.5571222],[44.7989454,43.569757],[44.7976114,43.5812931],[44.8024608,43.5819219],[44.802416,43.587057],[44.7981949,43.5870647],[44.7989568,43.5927144],[44.7952148,43.5967423],[44.6955016,43.5949647],[44.7017724,43.570388],[44.7025048,43.5598702],[44.7059252,43.5517004],[44.6986089,43.5479195],[44.6843921,43.5479646],[44.6755871,43.5508346],[44.6690852,43.5509383],[44.6518091,43.5416883],[44.6432802,43.5428343],[44.6281144,43.5480162],[44.6218703,43.5473202],[44.6310674,43.6140893],[44.5033457,43.5879191],[44.5000611,43.5614939],[44.5074918,43.5426105],[44.5002312,43.5288008],[44.4807386,43.5158439],[44.4850043,43.5045418],[44.4834953,43.5017224],[44.4856315,43.499342],[44.4905163,43.4980036],[44.4895521,43.4953494],[44.4921944,43.4894159],[44.4880728,43.4849531],[44.493923,43.4798315],[44.4916337,43.4773662],[44.4970598,43.4757922],[44.494609,43.4732694],[44.4824118,43.4755184],[44.4817051,43.4705378],[44.478436,43.4676932]]],"bbox":[44.478436,42.61473,45.1953824,43.6140893]}