{"type":"FeatureCollection","features":[{"type":"Feature","geometry":{"type":"Polygon","coordinates":[[[53.2035,55.104741],[53.611115,54.84986],[53.62708,54.711543],[53.432479,54.571393],[53.420975,54.508331],[53.500606,54.056129],[54.151671,53.387978],[54.547572,53.355178],[54.61439,53.218586],[54.836659,53.273743],[55.520014,52.391049],[55.842453,52.378576],[56.053138,52.590947],[56.423485,52.604664],[56.454007,52.317821],[56.201352,52.140201],[56.605442,52.13234],[56.731117,51.906112],[56.630789,51.899309],[56.610932,51.826913],[57.160507,51.575738],[57.210926,51.571272],[57.655329,51.86881],[58.574905,51.771697],[58.660028,52.263057],[58.897507,52.244048],[58.953164,52.283989],[58.936087,52.342399],[58.837006,52.355784],[58.854927,52.425806],[58.770178,52.471171],[58.781245,52.520394],[58.838291,52.520821],[58.929136,53.956497],[59.139867,53.965014],[59.325654,54.187793],[59.526838,54.187402],[59.707596,54.141771],[59.689025,54.521804],[59.853776,54.609024],[60.001809,54.864135],[59.825031,54.847798],[59.617976,54.906112],[59.264685,54.6133],[59.066472,54.649768],[58.714686,54.478191],[58.599272,54.461433],[58.422745,54.558997],[58.012355,54.396461],[57.753415,54.502689],[57.740768,54.58352],[57.246387,54.769602],[57.1413,54.856919],[57.239442,54.965594],[57.22047,55.236606],[58.008687,55.282699],[57.932921,54.948617],[58.005082,54.906153],[59.642548,55.558453],[59.135716,55.789494],[59.330524,56.15959],[59.042282,56.168689],[58.943945,56.061278],[57.408395,56.339924],[56.918629,56.107103],[56.532578,56.397138],[54.736003,56.430584],[54.577615,56.534608],[54.333479,56.239675],[53.703886,55.927928],[54.259003,55.697237],[53.207989,55.158837],[53.2035,55.104741]]]},"properties":{"place_id":185679449,"osm_type":"relation","osm_id":77677,"place_rank":8,"category":"boundary","type":"administrative","importance":0.6997596386801471,"addresstype":"state","name":"Башкортостан","display_name":"Башкортостан, Приволжский федеральный округ, Россия","address":{"state":"Башкортостан","ISO3166-2-lvl4":"RU-BA","region":"Приволжский федеральный округ","country":"Россия","country_code":"ru"}},"bbox":[53.1575416,51.569554,60.0018089,56.5346084]}]}