{"type":"Feature","geometry":{"type":"Polygon","coordinates":[[[40.713345,43.532475],[41.684343,43.216983],[42.413776,43.256982],[42.456074,43.621092],[42.675528,43.69786],[42.649058,43.824137],[42.579146,43.973354],[42.373982,43.973613],[42.298903,44.053928],[42.441132,44.202111],[42.552023,44.223795],[42.553418,44.368318],[42.030276,44.35275],[41.920231,44.412714],[41.924572,44.49611],[41.734223,44.480019],[41.681476,44.164854],[41.47975,44.000926],[41.246593,44.009949],[41.291116,44.085462],[40.8913129,44.134778],[40.9351541,44.019318],[40.713345,43.532475]]]},"properties":{"place_id":193351725,"osm_type":"relation","osm_id":109878,"place_rank":8,"category":"boundary","type":"administrative","importance":0.5926544371450502,"addresstype":"state","name":"Карачаево-Черкесия","display_name":"Карачаево-Черкесия, Северо-Кавказский федеральный округ, Россия","address":{"state":"Карачаево-Черкесия","ISO3166-2-lvl4":"RU-KC","region":"Северо-Кавказский федеральный округ","country":"Россия","country_code":"ru"}},"bbox":[40.6751802,43.1868227,42.6813728,44.4976366]}