{"type":"FeatureCollection","features":[{"type":"Feature","geometry":{"type":"Polygon","coordinates":[[[43.398487,42.896923],[43.587312,42.851034],[43.807159,42.73968],[43.714582,42.633268],[43.963716,42.547111],[44.021778,42.597196],[44.149096,42.604273],[44.232011,42.626702],[44.249905,42.681088],[44.319465,42.722842],[44.518111,42.696941],[44.509006,42.749738],[44.555112,42.764674],[44.580175,42.744751],[44.679969,42.75591],[44.631861,42.891994],[44.853651,42.835576],[44.953859,42.946579],[44.956413,43.032145],[44.697001,43.270951],[44.669619,43.278164],[44.677734,43.209705],[44.570721,43.236097],[44.577704,43.413603],[44.51247,43.405754],[44.478436,43.467693],[44.503346,43.587919],[44.631067,43.614089],[44.62187,43.54732],[44.705925,43.5517],[44.695502,43.594965],[44.795215,43.596742],[44.789316,43.557122],[44.847401,43.564662],[44.832273,43.682138],[44.80294,43.71941],[44.800236,43.807817],[44.292523,43.809673],[44.268033,43.810898],[44.297178,43.68946],[44.430211,43.683811],[44.413879,43.452715],[44.442242,43.427733],[44.355254,43.3924],[44.321252,43.4505],[43.398487,42.896923]]]},"properties":{"place_id":193067991,"osm_type":"relation","osm_id":110032,"place_rank":8,"category":"boundary","type":"administrative","importance":0.6101249278548804,"addresstype":"state","name":"Северная Осетия — Алания","display_name":"Северная Осетия — Алания, Северо-Кавказский федеральный округ, Россия","address":{"state":"Северная Осетия — Алания","ISO3166-2-lvl4":"RU-SE","region":"Северо-Кавказский федеральный округ","country":"Россия","country_code":"ru"}},"bbox":[43.3984872,42.5471109,44.9604307,43.8351158]}]}