{"type":"FeatureCollection","features":[{"type":"Feature","geometry":{"type":"Polygon","coordinates":[[[38.338122,46.980752],[38.659663,47.003022],[38.685689,46.826179],[38.895922,46.826464],[38.869434,46.628692],[39.209095,46.620566],[39.262562,46.794294],[40.063222,46.771942],[40.272275,46.314493],[40.990422,46.298363],[41.140998,45.951311],[41.718262,45.981794],[41.647071,46.140198],[41.693792,46.204987],[42.17037,46.297814],[42.049723,46.546164],[42.215054,46.556352],[42.679888,46.368331],[42.931714,46.446892],[43.333073,46.169188],[43.630337,46.175384],[43.862428,46.270766],[44.24846,46.889673],[44.312238,47.477872],[42.92499,47.507356],[42.720174,47.87587],[42.525202,48.018645],[42.018502,48.026265],[42.100387,48.398259],[42.704474,48.586865],[42.681618,48.937591],[42.029998,49.342203],[42.184355,49.675666],[41.400995,50.202806],[41.3682,50.203689],[41.38435,50.081111],[40.921005,49.700488],[40.139213,49.600677],[40.200461,49.345772],[39.67052,48.595614],[39.738678,47.828065],[38.88057,47.875832],[38.772605,47.685079],[38.285578,47.544487],[38.338122,46.980752]]]},"properties":{"place_id":180112361,"osm_type":"relation","osm_id":85606,"place_rank":8,"category":"boundary","type":"administrative","importance":0.6526166377413409,"addresstype":"state","name":"Ростовская область","display_name":"Ростовская область, Южный федеральный округ, Россия","address":{"state":"Ростовская область","ISO3166-2-lvl4":"RU-ROS","region":"Южный федеральный округ","country":"Россия","country_code":"ru"}},"bbox":[38.2208267,45.9516883,44.3241519,50.2144494]}]}