{"type":"FeatureCollection","features":[{"type":"Feature","geometry":{"type":"GeometryCollection","geometries":[{"type":"Polygon","coordinates":[[[38.937522,53.574175],[39.054,53.579227],[39.193199,53.390563],[39.54233,53.421642],[39.553553,53.523781],[39.757765,53.586654],[39.88604,53.550446],[40.176963,53.312972],[40.700912,53.556151],[41.353868,53.525427],[41.363107,53.766212],[42.14363,53.802798],[42.350969,53.853729],[42.620713,54.663259],[42.442326,54.825399],[41.783953,55.129753],[40.190923,55.365007],[40.154147,55.272601],[38.80649,54.521805],[38.945909,54.409829],[38.705648,54.27281],[38.937522,53.574175]]]}]},"properties":{"place_id":181489340,"osm_type":"relation","osm_id":71950,"place_rank":8,"category":"boundary","type":"administrative","importance":0.6263942028870829,"addresstype":"state","name":"Рязанская область","display_name":"Рязанская область, Центральный федеральный округ, Россия","address":{"state":"Рязанская область","ISO3166-2-lvl4":"RU-RYA","region":"Центральный федеральный округ","country":"Россия","country_code":"ru"}},"bbox":[38.6659818,53.3090699,42.6920937,55.3664944]}]}