{"type":"FeatureCollection","features":[{"type":"Feature","geometry":{"type":"GeometryCollection","geometries":[{"type":"Polygon","coordinates":[[[141.421006,46.347539],[141.010104,46.341092],[141.059465,46.119602],[141.409907,46.144684],[141.421006,46.347539]]]},{"type":"Polygon","coordinates":[[[141.415715,51.620122],[141.930952,51.078094],[141.570985,48.859233],[141.7024,46.970529],[141.590127,46.308923],[141.821033,45.791752],[142.389677,45.628666],[142.628245,46.414739],[143.044052,46.398213],[143.236326,45.864426],[143.634732,45.891693],[143.903581,46.350373],[143.656898,46.987401],[142.834266,47.764573],[143.264894,49.042876],[143.953518,49.038668],[144.328929,48.531011],[145.000307,48.534265],[144.896033,49.011751],[143.150106,54.610481],[141.954052,54.39937],[142.348308,53.881628],[141.491718,53.556524],[141.708374,53.238288],[141.415715,51.620122]]]},{"type":"Polygon","coordinates":[[[145.531462,43.508376],[145.694112,43.541363],[146.059467,43.141881],[150.416346,45.250608],[157.328337,50.364334],[155.941794,51.289851],[149.759377,46.476124],[145.926912,44.646682],[145.242916,43.784517],[145.531462,43.508376]]]}]},"properties":{"place_id":251421475,"osm_type":"relation","osm_id":394235,"place_rank":8,"category":"boundary","type":"administrative","importance":0.6151249889871221,"addresstype":"state","name":"Сахалинская область","display_name":"Сахалинская область, Дальневосточный федеральный округ, Россия","address":{"state":"Сахалинская область","ISO3166-2-lvl4":"RU-SAK","region":"Дальневосточный федеральный округ","country":"Россия","country_code":"ru"}},"bbox":[140.9220557,43.1390818,156.8028831,54.6259808]}]}