{"type":"FeatureCollection","features":[{"type":"Feature","geometry":{"type":"GeometryCollection","geometries":[{"type":"Polygon","coordinates":[[[47.94393,53.333991],[48.592476,52.884687],[48.428632,52.814407],[48.307898,52.683012],[48.493184,52.670047],[50.768163,51.773037],[51.39142,52.069258],[52.408185,53.893012],[52.345442,54.294073],[52.521138,54.300519],[52.568276,54.340128],[52.486742,54.4666],[52.251127,54.438735],[51.389252,54.677007],[51.008365,54.549436],[50.951261,54.342639],[50.092459,54.5066],[50.188688,54.019835],[49.97804,53.978772],[50.035857,53.819146],[48.995609,53.874945],[48.994808,53.706596],[48.48891,53.770663],[48.371074,53.476002],[48.035817,53.471305],[47.94393,53.333991]]]}]},"properties":{"place_id":186598846,"osm_type":"relation","osm_id":72194,"place_rank":8,"category":"boundary","type":"administrative","importance":0.623988635239587,"addresstype":"state","name":"Самарская область","display_name":"Самарская область, Приволжский федеральный округ, Россия","address":{"state":"Самарская область","ISO3166-2-lvl4":"RU-SAM","region":"Приволжский федеральный округ","country":"Россия","country_code":"ru"}},"bbox":[47.9304408,51.7730366,52.568276,54.6771616]}]}