{"type":"FeatureCollection","features":[{"type":"Feature","geometry":{"type":"Polygon","coordinates":[[[42.504041,51.665184],[42.566273,51.53758],[42.75045,51.492412],[42.941504,51.256251],[43.358549,50.998713],[44.993072,51.145638],[45.193355,50.585199],[46.853656,50.642277],[47.431703,50.377886],[47.542028,50.460775],[47.612552,50.463969],[48.101992,50.092443],[48.226959,49.871211],[48.442106,49.801835],[48.903429,50.018387],[48.658885,50.527806],[50.67891,51.574547],[50.812034,51.585043],[50.768163,51.773037],[48.498069,52.676028],[48.493184,52.670047],[48.307898,52.683012],[48.428632,52.814407],[47.519049,52.615284],[47.516923,52.586885],[46.80107,52.620828],[46.744176,52.61141],[46.58252,52.728048],[46.020782,52.514485],[45.962098,52.397151],[45.652083,52.508327],[45.075697,52.349092],[44.893357,52.356545],[44.888545,52.420867],[44.535063,52.423388],[43.143268,52.438448],[43.117153,52.37877],[43.039706,52.370635],[42.920796,52.360329],[42.937466,52.326145],[42.504041,51.665184]]]},"properties":{"place_id":179925847,"osm_type":"relation","osm_id":72193,"place_rank":8,"category":"boundary","type":"administrative","importance":0.6344724325214761,"addresstype":"state","name":"Саратовская область","display_name":"Саратовская область, Приволжский федеральный округ, Россия","address":{"state":"Саратовская область","ISO3166-2-lvl4":"RU-SAR","region":"Приволжский федеральный округ","country":"Россия","country_code":"ru"}},"bbox":[42.5040406,49.8012132,50.8325797,52.8193706]}]}