{"type":"FeatureCollection","features":[{"type":"Feature","geometry":{"type":"Polygon","coordinates":[[[30.75451,54.80504],[31.200781,54.648144],[31.10826,54.492122],[32.77006,53.408691],[33.628634,54.207768],[33.644287,54.484149],[34.415867,54.51374],[34.530283,54.662163],[34.906719,54.76774],[34.887801,54.847345],[35.254971,55.092935],[35.299218,55.579968],[35.395003,55.594083],[35.331783,55.773311],[35.066496,56.003244],[34.620406,55.923348],[33.863614,56.059824],[33.123608,55.641765],[31.113384,55.75815],[30.922005,55.652668],[30.75451,54.80504]]]},"properties":{"place_id":182208656,"osm_type":"relation","osm_id":81996,"place_rank":8,"category":"boundary","type":"administrative","importance":0.6720021101230843,"addresstype":"state","name":"Смоленская область","display_name":"Смоленская область, Центральный федеральный округ, Россия","address":{"state":"Смоленская область","ISO3166-2-lvl4":"RU-SMO","region":"Центральный федеральный округ","country":"Россия","country_code":"ru"}},"bbox":[30.7515697,53.4086906,35.3950027,56.0670541]}]}