{"type":"FeatureCollection","features":[{"type":"Feature","geometry":{"type":"Polygon","coordinates":[[[41.036139,45.225292],[41.35348,45.223054],[41.351444,45.091391],[41.456479,44.988263],[41.653974,44.986253],[41.594225,44.768239],[41.427093,44.708476],[41.599914,44.468663],[41.924572,44.49611],[41.920231,44.412714],[42.030276,44.35275],[42.553418,44.368318],[42.552023,44.223795],[42.441132,44.202111],[42.298903,44.053928],[42.373982,43.973613],[42.490874,43.967082],[42.502637,44.026397],[42.584568,44.026146],[42.579146,43.973354],[42.649058,43.824137],[43.745413,43.817839],[43.7705,43.927527],[44.26857,43.918155],[44.292523,43.809673],[44.800236,43.807817],[44.80294,43.71941],[45.063673,43.719997],[45.053299,43.957945],[45.202611,43.957486],[45.202031,43.876939],[45.437971,43.875652],[45.428468,44.424968],[45.225406,44.467069],[45.715953,44.995842],[45.590027,45.125784],[44.181222,45.63541],[43.915216,45.946596],[43.433461,45.999943],[42.926799,46.236517],[42.557359,46.00833],[42.318035,45.969724],[42.332037,46.135382],[42.17069,46.111465],[42.151569,45.94308],[41.392726,45.996498],[41.393082,45.952427],[41.140998,45.951311],[41.161177,45.879841],[41.24901,45.880051],[41.272136,45.758834],[41.169374,45.759651],[41.167238,45.674439],[40.847968,45.694229],[40.846356,45.553386],[41.036139,45.225292]]]},"properties":{"place_id":188537172,"osm_type":"relation","osm_id":108081,"place_rank":8,"category":"boundary","type":"administrative","importance":0.625566456255465,"addresstype":"state","name":"Ставропольский край","display_name":"Ставропольский край, Северо-Кавказский федеральный округ, Россия","address":{"state":"Ставропольский край","ISO3166-2-lvl4":"RU-STA","region":"Северо-Кавказский федеральный округ","country":"Россия","country_code":"ru"}},"bbox":[40.8460433,43.6584258,45.7159533,46.2365165],"id":1}]}