{"type":"FeatureCollection","features":[{"type":"Feature","geometry":{"type":"Polygon","coordinates":[[[57.233507,56.847524],[57.408395,56.339924],[58.943945,56.061278],[59.042282,56.168689],[59.159735,56.345371],[61.638328,56.319496],[61.976627,56.110942],[62.517338,56.563474],[64.178716,56.461031],[64.549117,56.803542],[65.169683,56.764035],[64.833088,57.64825],[66.184857,58.01097],[65.073284,59.312794],[63.999311,59.390422],[62.759244,61.061809],[59.489022,61.946615],[59.348927,61.663234],[59.472095,60.868574],[58.37126,59.472402],[59.197619,59.146439],[58.842374,57.719732],[58.536819,57.563884],[58.127278,57.690332],[58.032066,57.150658],[57.233507,56.847524]]]},"properties":{"place_id":185474631,"osm_type":"relation","osm_id":79379,"place_rank":8,"category":"boundary","type":"administrative","importance":0.6834166674539858,"addresstype":"state","name":"Свердловская область","display_name":"Свердловская область, Уральский федеральный округ, Россия","address":{"state":"Свердловская область","ISO3166-2-lvl4":"RU-SVE","region":"Уральский федеральный округ","country":"Россия","country_code":"ru"}},"bbox":[57.226554,56.0539408,66.1848568,61.9466153]}]}