{"type":"FeatureCollection","features":[{"type":"Feature","geometry":{"type":"Polygon","coordinates":[[[39.976678,52.596802],[40.73386,52.250584],[40.523808,51.932523],[41.473393,51.804678],[42.566273,51.53758],[42.504041,51.665184],[42.937466,52.326145],[42.920796,52.360329],[43.039706,52.370635],[43.024243,52.487403],[43.237617,52.652381],[42.360456,53.328381],[42.08174,53.748005],[42.14363,53.802798],[41.363107,53.766212],[41.353868,53.525427],[40.700912,53.556151],[40.096981,53.275728],[39.915694,52.708851],[39.976678,52.596802]]]},"properties":{"place_id":180397681,"osm_type":"relation","osm_id":72180,"place_rank":8,"category":"boundary","type":"administrative","importance":0.6141517269172444,"addresstype":"state","name":"Тамбовская область","display_name":"Тамбовская область, Центральный федеральный округ, Россия","address":{"state":"Тамбовская область","ISO3166-2-lvl4":"RU-TAM","region":"Центральный федеральный округ","country":"Россия","country_code":"ru"}},"bbox":[39.915694,51.5880843,43.2480873,53.8225773]}]}