{"type":"FeatureCollection","features":[{"type":"Feature","geometry":{"type":"Polygon","coordinates":[[[76.094728,57.235314],[84.447895,56.041571],[85.988638,56.451787],[88.596581,56.802005],[88.626468,59.295126],[84.681664,59.89955],[83.949694,60.836217],[82.151514,60.523182],[77.110482,60.85852],[76.664888,59.571174],[75.898194,59.400331],[75.131298,58.663889],[76.094728,57.235314]]]},"properties":{"place_id":201429873,"osm_type":"relation","osm_id":140295,"place_rank":8,"category":"boundary","type":"administrative","importance":0.6275556148889595,"addresstype":"state","name":"Томская область","display_name":"Томская область, Сибирский федеральный округ, Россия","address":{"state":"Томская область","ISO3166-2-lvl4":"RU-TOM","region":"Сибирский федеральный округ","country":"Россия","country_code":"ru"}},"bbox":[75.0566645,55.6058384,89.3790331,61.0356717]}]}