{"type":"FeatureCollection","features":[{"type":"Feature","geometry":{"type":"Polygon","coordinates":[[[36.06707,53.703733],[35.941678,53.640679],[38.326953,52.946357],[38.637916,53.043931],[38.746367,53.536367],[38.900358,53.535917],[38.705648,54.27281],[38.51291,54.294103],[38.378678,54.527482],[38.511347,54.596713],[37.953996,54.7807],[37.941424,54.848385],[37.74816,54.83237],[37.743357,54.734071],[37.547996,54.737604],[37.458387,54.835879],[37.27969,54.853943],[37.120677,54.550748],[37.076609,54.545528],[36.932763,54.591104],[36.966846,54.291658],[36.140928,54.177126],[36.06707,53.703733]]]},"properties":{"place_id":183030394,"osm_type":"relation","osm_id":81993,"place_rank":8,"category":"boundary","type":"administrative","importance":0.6290639808642856,"addresstype":"state","name":"Тульская область","display_name":"Тульская область, Центральный федеральный округ, Россия","address":{"state":"Тульская область","ISO3166-2-lvl4":"RU-TUL","region":"Центральный федеральный округ","country":"Россия","country_code":"ru"}},"bbox":[35.8985554,52.9463569,38.9515452,54.8518365]}]}