{"type":"FeatureCollection","features":[{"type":"Feature","geometry":{"type":"Polygon","coordinates":[[[31.517841,56.305606],[31.352788,55.940146],[31.473302,55.733816],[33.123608,55.641765],[33.863614,56.059824],[34.620406,55.923348],[35.266759,56.039058],[35.429612,56.420883],[35.62024,56.477053],[36.06473,56.335649],[36.806922,56.595283],[37.055548,56.526247],[37.17425,56.696425],[37.066831,56.755621],[37.243033,56.786994],[37.240075,56.74743],[37.758185,56.949991],[37.99271,56.767322],[38.250716,56.765376],[38.116488,57.331665],[37.349122,57.891089],[37.703369,58.086387],[37.365603,58.246222],[37.665122,58.450785],[37.121601,58.853441],[36.765447,58.800944],[36.520438,58.525277],[36.196341,58.532513],[34.721495,58.090303],[33.705874,58.170305],[33.263986,57.438852],[32.76576,57.440478],[32.001669,57.113838],[31.755728,57.114047],[31.531003,56.946578],[30.765501,56.9457],[31.517841,56.305606]]]},"properties":{"place_id":183153966,"osm_type":"relation","osm_id":2095259,"place_rank":8,"category":"boundary","type":"administrative","importance":0.6887636928738717,"addresstype":"state","name":"Тверская область","display_name":"Тверская область, Центральный федеральный округ, Россия","address":{"state":"Тверская область","ISO3166-2-lvl4":"RU-TVE","region":"Центральный федеральный округ","country":"Россия","country_code":"ru"}},"bbox":[30.7283868,55.6320349,38.3268583,58.8631393],"id":0}]}