{"type":"FeatureCollection","features":[{"type":"Feature","geometry":{"type":"GeometryCollection","geometries":[{"type":"Polygon","coordinates":[[[65.169683,56.764035],[64.927705,56.779445],[65.094151,56.334932],[68.79,55.3678],[70.401979,55.215615],[70.735458,56.424589],[71.677329,56.765223],[70.983217,57.387105],[70.786795,57.364979],[70.684071,57.201002],[70.369983,57.353673],[70.685693,57.515541],[70.395853,57.893638],[70.84622,58.521679],[71.243802,58.409586],[71.213879,58.054482],[71.996218,58.115163],[72.167156,58.014698],[72.865762,58.001245],[73.128288,58.155304],[74.219631,58.136298],[75.131298,58.663889],[70.155393,59.943756],[68.573477,59.588587],[68.394942,59.298175],[66.772472,58.923282],[66.785238,58.656545],[65.637109,58.65854],[66.184857,58.01097],[64.833088,57.64825],[65.169683,56.764035]]]}]},"properties":{"place_id":199624963,"osm_type":"relation","osm_id":140291,"place_rank":8,"category":"boundary","type":"administrative","importance":0.64103739581734,"addresstype":"state","name":"Тюменская область","display_name":"Тюменская область, Уральский федеральный округ, Россия","address":{"state":"Тюменская область","ISO3166-2-lvl4":"RU-TYU","region":"Уральский федеральный округ","country":"Россия","country_code":"ru"}},"bbox":[64.8271919,55.1463726,75.1992954,59.9895586]}]}