{"type":"FeatureCollection","features":[{"type":"Feature","geometry":{"type":"GeometryCollection","geometries":[{"type":"Polygon","coordinates":[[[51.522966,56.852309],[51.412424,55.984143],[52.156222,55.904398],[52.219295,56.093498],[52.661294,56.009492],[52.945487,56.538285],[53.144828,56.524698],[53.703886,55.927928],[54.333479,56.239675],[54.432255,56.359278],[53.884968,56.662533],[54.436131,57.031004],[53.791308,58.455029],[51.964705,58.453088],[51.767267,57.575104],[51.569999,57.461166],[51.165254,57.440762],[51.522966,56.852309]]]}]},"properties":{"place_id":185657626,"osm_type":"relation","osm_id":115134,"place_rank":8,"category":"boundary","type":"administrative","importance":0.6556577999419507,"addresstype":"state","name":"Удмуртия","display_name":"Удмуртия, Приволжский федеральный округ, Россия","address":{"state":"Удмуртия","ISO3166-2-lvl4":"RU-UD","region":"Приволжский федеральный округ","country":"Россия","country_code":"ru"}},"bbox":[51.1241646,55.8505778,54.436131,58.5458421]}]}