{"type":"FeatureCollection","features":[{"type":"Feature","geometry":{"type":"GeometryCollection","geometries":[{"type":"Polygon","coordinates":[[[45.95926,53.995986],[46.908163,53.362605],[46.80107,52.620828],[47.516923,52.586885],[47.519049,52.615284],[48.428632,52.814407],[48.592476,52.884687],[47.94393,53.333991],[48.035817,53.471305],[48.371074,53.476002],[48.48891,53.770663],[48.994808,53.706596],[48.995609,53.874945],[50.035857,53.819146],[49.97804,53.978772],[50.188688,54.019835],[50.092459,54.5066],[49.565075,54.563293],[49.543618,54.66949],[49.288299,54.891446],[48.88178,54.79602],[48.881741,54.625206],[47.717419,54.735069],[47.584983,54.535177],[47.389323,54.513878],[47.334299,54.667393],[47.034094,54.705496],[46.826185,54.632065],[46.442798,54.761625],[46.409433,54.73996],[46.687187,54.306791],[45.965379,54.135543],[45.892959,54.0598],[45.88996,54.002839],[45.95926,53.995986]]]}]},"properties":{"place_id":186656808,"osm_type":"relation","osm_id":72192,"place_rank":8,"category":"boundary","type":"administrative","importance":0.6117022477988551,"addresstype":"state","name":"Ульяновская область","display_name":"Ульяновская область, Приволжский федеральный округ, Россия","address":{"state":"Ульяновская область","ISO3166-2-lvl4":"RU-ULY","region":"Приволжский федеральный округ","country":"Россия","country_code":"ru"}},"bbox":[45.7967195,52.5326688,50.2434406,54.8914462]}]}