{"type":"FeatureCollection","features":[{"type":"Feature","geometry":{"type":"Polygon","coordinates":[[[38.68389,55.987908],[39.900477,55.813927],[40.190923,55.365007],[41.783954,55.129753],[42.20091,55.715341],[42.718545,55.96922],[42.702371,56.101116],[42.966919,56.145462],[42.917623,56.206881],[42.756861,56.197302],[42.732761,56.350956],[42.20424,56.450181],[42.138893,56.378509],[41.979438,56.373575],[41.934271,56.494583],[40.885921,56.50564],[40.767234,56.594363],[40.490601,56.583698],[40.360304,56.510356],[39.947288,56.468472],[39.898078,56.772226],[39.347053,56.756874],[39.277947,56.539261],[38.543346,56.581675],[38.422891,56.70089],[38.31222,56.655953],[38.68389,55.987908]]]},"properties":{"place_id":181761921,"osm_type":"relation","osm_id":72197,"place_rank":8,"category":"boundary","type":"administrative","importance":0.6473317344870976,"addresstype":"state","name":"Владимирская область","display_name":"Владимирская область, Центральный федеральный округ, Россия","address":{"state":"Владимирская область","ISO3166-2-lvl4":"RU-VLA","region":"Центральный федеральный округ","country":"Россия","country_code":"ru"}},"bbox":[38.2681027,55.10142,42.976134,56.8126824]}]}