{"type":"FeatureCollection","features":[{"type":"Feature","geometry":{"type":"Polygon","coordinates":[[[41.3682,50.203689],[41.400995,50.202806],[42.184355,49.675666],[42.029998,49.342203],[42.681618,48.937591],[42.704474,48.586865],[42.100387,48.398259],[42.018502,48.026265],[42.525202,48.018645],[42.720174,47.87587],[42.92499,47.507356],[43.697178,47.490946],[43.667597,47.548888],[43.716835,47.719002],[43.945831,47.753096],[44.08259,47.899435],[44.359057,47.85165],[44.925662,48.120248],[44.909748,48.21939],[44.960978,48.270856],[45.201132,48.538841],[45.805922,48.682752],[46.622036,48.667749],[47.431703,50.377886],[46.853656,50.642277],[45.193355,50.585199],[44.993072,51.145638],[43.358549,50.998713],[42.941504,51.256251],[42.595525,51.153082],[41.928097,51.194125],[41.772854,51.01556],[41.287667,50.810251],[41.3682,50.203689]]]},"properties":{"place_id":180128887,"osm_type":"relation","osm_id":77665,"place_rank":8,"category":"boundary","type":"administrative","importance":0.6388631434938513,"addresstype":"state","name":"Волгоградская область","display_name":"Волгоградская область, Южный федеральный округ, Россия","address":{"state":"Волгоградская область","ISO3166-2-lvl4":"RU-VGG","region":"Южный федеральный округ","country":"Россия","country_code":"ru"}},"bbox":[41.1681048,47.4437326,47.4317029,51.2476078]}]}