{"type":"FeatureCollection","features":[{"type":"Feature","geometry":{"type":"Polygon","coordinates":[[[36.19928,58.61869],[36.196341,58.532513],[36.520438,58.525277],[36.765447,58.800944],[37.121601,58.853441],[37.665122,58.450785],[37.710128,58.604245],[37.90093,58.611944],[38.064554,58.730111],[38.923263,58.733332],[38.948762,58.943357],[40.013501,58.73088],[40.185873,58.555134],[40.997627,58.584299],[41.349027,58.951944],[42.090339,59.15592],[45.979028,59.171649],[47.173112,61.062704],[38.620793,60.718757],[37.785939,61.537389],[35.696907,61.173233],[35.696684,61.003459],[35.469732,60.860486],[35.276628,60.843828],[35.441159,59.423321],[34.734868,59.088737],[36.19928,58.61869]]]},"properties":{"place_id":182699936,"osm_type":"relation","osm_id":115106,"place_rank":8,"category":"boundary","type":"administrative","importance":0.6832240027641237,"addresstype":"state","name":"Вологодская область","display_name":"Вологодская область, Северо-Западный федеральный округ, Россия","address":{"state":"Вологодская область","ISO3166-2-lvl4":"RU-VLG","region":"Северо-Западный федеральный округ","country":"Россия","country_code":"ru"}},"bbox":[34.7190928,58.4773149,47.1528776,61.6142319]}]}