{"type":"FeatureCollection","features":[{"type":"Feature","geometry":{"type":"Polygon","coordinates":[[[38.387686,51.077056],[38.388113,51.076847],[38.803496,51.076693],[38.879778,50.902882],[38.726105,50.900035],[38.721038,50.788247],[38.988541,50.698117],[39.252776,49.986518],[39.067077,49.815662],[39.806409,49.558126],[40.921005,49.700488],[41.38435,50.081111],[41.287667,50.810251],[41.772854,51.01556],[41.928097,51.194125],[42.595525,51.153082],[42.941504,51.256251],[42.75045,51.492412],[41.473393,51.804678],[39.473172,52.073549],[38.413747,52.003861],[38.451219,51.694824],[38.145539,51.644125],[38.387686,51.077056]]]},"properties":{"place_id":181072456,"osm_type":"relation","osm_id":72181,"place_rank":8,"category":"boundary","type":"administrative","importance":0.6419713750326882,"addresstype":"state","name":"Воронежская область","display_name":"Воронежская область, Центральный федеральный округ, Россия","address":{"state":"Воронежская область","ISO3166-2-lvl4":"RU-VOR","region":"Центральный федеральный округ","country":"Россия","country_code":"ru"}},"bbox":[38.1377516,49.5581257,42.9473374,52.1031203]}]}