{"type":"FeatureCollection","features":[{"type":"Feature","geometry":{"type":"Polygon","coordinates":[[[62.000444,65.717736],[62.837883,65.294394],[62.563451,64.566911],[66.957866,64.516283],[66.988927,64.183609],[67.764454,64.035305],[68.858472,64.438539],[70.740314,64.204023],[70.922692,63.702792],[78.092906,62.464098],[80.921949,63.156636],[84.386936,62.25079],[85.588627,63.049558],[85.600042,63.379629],[85.161713,63.58106],[85.366556,63.853851],[85.967046,64.048501],[82.184374,67.245977],[82.46617,69.152082],[79.042148,69.695444],[79.000403,69.889887],[80.684493,70.480959],[77.729901,73.639539],[69.725404,73.565412],[64.965044,69.563919],[65.13181,69.338696],[64.527785,68.974644],[65.396133,68.776937],[65.667021,68.568226],[65.473816,68.418383],[65.350718,67.965233],[66.133509,67.914682],[66.010179,67.409108],[65.697849,67.380137],[65.082128,66.890903],[63.230182,66.327288],[62.788659,65.860986],[62.000444,65.717736]]]},"properties":{"place_id":253222199,"osm_type":"relation","osm_id":191706,"place_rank":8,"category":"boundary","type":"administrative","importance":0.6272297681481744,"addresstype":"state","name":"Ямало-Ненецкий автономный округ","display_name":"Ямало-Ненецкий автономный округ, Уральский федеральный округ, Россия","address":{"state":"Ямало-Ненецкий автономный округ","ISO3166-2-lvl4":"RU-YAN","region":"Уральский федеральный округ","country":"Россия","country_code":"ru"}},"bbox":[62.0004438,62.1956567,86.007285,73.7217556]}]}