{"type":"FeatureCollection","features":[{"type":"Feature","geometry":{"type":"Polygon","coordinates":[[[37.703369,58.086387],[37.349122,57.891089],[38.116488,57.331665],[38.250716,56.765376],[38.31222,56.655953],[38.422891,56.70089],[38.543346,56.581675],[39.277947,56.539261],[39.347053,56.756874],[39.400426,56.864658],[39.553238,57.000132],[40.430698,57.284973],[40.419449,57.505232],[40.498313,57.581876],[40.654514,57.58683],[40.661024,57.951422],[41.177032,58.354934],[40.997627,58.584299],[40.185873,58.555134],[40.013501,58.73088],[38.948762,58.943357],[38.923263,58.733332],[38.064554,58.730111],[37.90093,58.611944],[37.710128,58.604245],[37.665122,58.450785],[37.365603,58.246222],[37.703369,58.086387]]]},"properties":{"place_id":183516590,"osm_type":"relation","osm_id":81994,"place_rank":8,"category":"boundary","type":"administrative","importance":0.6469165367042784,"addresstype":"state","name":"Ярославская область","display_name":"Ярославская область, Центральный федеральный округ, Россия","address":{"state":"Ярославская область","ISO3166-2-lvl4":"RU-YAR","region":"Центральный федеральный округ","country":"Россия","country_code":"ru"}},"bbox":[37.3279086,56.5343441,41.1934982,58.9560117]}]}