{"type":"FeatureCollection","features":[{"type":"Feature","geometry":{"type":"Polygon","coordinates":[[[107.754305,49.970584],[107.9683,49.6548],[109.8739,49.2009],[112.1946,49.4466],[114.3388,50.2827],[115.682482,49.886104],[116.232963,50.035867],[117.792856,49.520222],[119.159058,50.035486],[119.987928,51.469066],[120.655281,51.930813],[120.726274,52.539935],[120.074048,52.583964],[120.025626,52.774672],[120.815525,53.268292],[122.098426,53.437878],[121.68464,54.008627],[121.943778,55.529475],[121.336304,55.530157],[121.209493,56.038809],[120.120565,55.865797],[120.050926,56.157982],[120.533436,56.276252],[119.681054,56.745062],[119.633789,57.005391],[119.173188,58.244553],[118.678455,58.178767],[118.253314,58.397765],[117.656808,58.402446],[117.079749,57.827945],[117.677128,57.027252],[116.799821,56.74994],[115.749255,56.978688],[115.950193,55.368167],[116.472253,55.31553],[116.849656,54.770249],[116.655529,54.507441],[113.783138,53.596877],[114.243703,52.809917],[108.555582,51.166591],[107.754305,49.970584]]]},"properties":{"place_id":201703407,"osm_type":"relation","osm_id":145730,"place_rank":8,"category":"boundary","type":"administrative","importance":0.6191931776462567,"addresstype":"state","name":"Забайкальский край","display_name":"Забайкальский край, Дальневосточный федеральный округ, Россия","address":{"state":"Забайкальский край","ISO3166-2-lvl4":"RU-ZAB","region":"Дальневосточный федеральный округ","country":"Россия","country_code":"ru"}},"bbox":[107.7342132,49.1542,122.1458196,58.4373932]}]}