{"type":"Feature","geometry":{"type":"Polygon","coordinates":[[[28.082037,41.9791175],[27.566666,41.907776],[27.233051,42.109993],[26.350277,41.79332],[26.361095,41.711052],[26.277222,41.709991],[26.222759,41.7435],[26.08083,41.71666],[26.068604,41.660271],[26.099159,41.628876],[26.137215,41.629433],[26.198051,41.439438],[26.139996,41.354713],[25.279716,41.24305],[24.903889,41.411942],[24.819443,41.404999],[24.809444,41.352219],[24.46611,41.551941],[24.101665,41.550827],[24.066387,41.485275],[23.978886,41.441109],[23.29472,41.406105],[23.180832,41.322777],[22.926388,41.343048],[22.960831,41.358604],[22.952499,41.634438],[23.031387,41.720551],[23.00972,41.767494],[22.967499,41.773605],[22.828609,42.026939],[22.517776,42.150833],[22.365276,42.323883],[22.519444,42.399162],[22.558052,42.479164],[22.44722,42.599442],[22.44083,42.818604],[22.745552,42.893608],[23.004997,43.192772],[22.536388,43.480827],[22.367222,43.826942],[22.416943,44.006943],[22.614719,44.117493],[22.619164,44.169998],[22.650276,44.211937],[22.681435,44.224701],[23.046108,44.06916],[22.879719,43.981667],[22.857471,43.853256],[23.138885,43.808327],[23.418224,43.856171],[24.224163,43.689438],[24.598331,43.753883],[25.609161,43.662209],[26.301941,44.030823],[27.272713,44.132149],[28.047218,43.831657],[28.583244,43.747765],[28.640769,43.3818266],[28.2367298,43.352608],[27.8261592,42.5285456],[27.9398941,42.1502258],[28.082037,41.9791175]]]},"properties":{"cca2":"bg"}}