{"type":"Feature","geometry":{"type":"GeometryCollection","geometries":[{"type":"Polygon","coordinates":[[[24.0228759,58.0985976],[23.9285672,58.0959203],[23.9277878,58.1627941],[24.0560008,58.1646442],[24.0228759,58.0985976]]]},{"type":"Polygon","coordinates":[[[23.4437841,58.4367177],[22.0628859,57.8828675],[21.9130982,57.9255037],[22.145275,58.1586],[21.7523838,58.2655823],[21.83194,58.504997],[22.4837178,58.6445847],[23.4027692,58.6969473],[23.4437841,58.4367177]]]},{"type":"Polygon","coordinates":[[[23.1412471,58.9465038],[23.0874329,59.0485074],[23.3608091,59.0547803],[23.3981203,58.9576058],[23.1412471,58.9465038]]]},{"type":"Polygon","coordinates":[[[23.2330848,58.7393559],[22.3807253,58.6715897],[21.8502311,59.0396105],[22.7982259,59.1310773],[23.2330848,58.7393559]]]},{"type":"Polygon","coordinates":[[[28.040767,59.474683],[28.208569,59.383744],[28.132677,59.292378],[27.924604,59.254685],[27.738327,58.977775],[27.35704,58.787261],[27.7574379,57.83486],[27.3515651,57.518208],[26.906105,57.633049],[26.602776,57.525826],[26.51139,57.5261],[26.034996,57.823326],[25.307499,58.081383],[24.2902302,57.8969505],[24.3538874,58.1761609],[23.5124519,58.4398375],[23.4020626,59.2208043],[24.363609,59.473602],[25.780277,59.628876],[28.040767,59.474683]]]}]},"properties":{"cca2":"ee"}}