{"type":"FeatureCollection","features":[{"type":"Feature","geometry":{"type":"GeometryCollection","geometries":[{"type":"Polygon","coordinates":[[[-114.068501,48.99903],[-120.000261,53.807785],[-119.99996,60.00006],[-139.07842,60.007851],[-137.480056,58.903655],[-135.48276,59.79248],[-131.846737,56.607823],[-130.084986,56.123329],[-130.57896,54.721424],[-133.961655,54.250002],[-133.891936,52.925241],[-127.792731,48.89402],[-123.302518,48.27521],[-123.09051,48.99251],[-117.03815,48.99251],[-114.068501,48.99903]]]}]},"properties":{"name":"Британская Колумбия","name_original":"British Columbia","country":"Канада","country_code":"ca","region_code":"CA-BC","address":{"ISO3166-2-lvl4":"CA-BC"}},"id":"CA-BC"}]}