{"type":"FeatureCollection","features":[{"type":"Feature","geometry":{"type":"Polygon","coordinates":[[[-95.153238,48.998913],[-95.1528,52.841252],[-88.947,56.85322],[-90.567401,57.301468],[-92.143942,57.219868],[-93.112337,58.755144],[-94.48834,58.931892],[-94.80313,60.00007],[-102.0016,60.00006],[-102.00081,55.815062],[-101.36438,48.99306],[-101.36434,48.99267],[-97.22609,48.99267],[-95.153238,48.998913]]]},"properties":{"name":"Манитоба","name_original":"Manitoba","country":"Канада","country_code":"ca","region_code":"CA-MB","address":{"ISO3166-2-lvl4":"CA-MB"}},"id":"CA-MB"}]}