{"type":"FeatureCollection","features":[{"type":"Feature","geometry":{"type":"GeometryCollection","geometries":[{"type":"Polygon","coordinates":[[[-66.87914,44.70517],[-63.77111,46.11522],[-64.796067,46.804787],[-64.34508,48.006723],[-68.381605,47.915674],[-68.383375,47.551689],[-67.8087,47.07514],[-67.80012,45.69985],[-67.43131,45.59794],[-66.87914,44.70517]]]}]},"properties":{"name":"Нью-Брансуик","name_original":"New Brunswick","country":"Канада","country_code":"ca","region_code":"CA-NB","address":{"ISO3166-2-lvl4":"CA-NB"}},"id":"CA-NB"}]}