{"type":"FeatureCollection","features":[{"type":"Feature","geometry":{"type":"GeometryCollection","geometries":[{"type":"Polygon","coordinates":[[[-63.74009,54.62347],[-66.853322,55.282095],[-67.342673,54.071189],[-67.370844,53.012414],[-67.193377,52.830956],[-66.861672,52.66181],[-66.760622,52.676558],[-66.483011,53.005824],[-66.363506,53.003276],[-66.463377,52.308619],[-66.193281,52.003624],[-57.10098,52.00008],[-57.107995,51.412636],[-55.975609,51.83622],[-55.55426,52.24842],[-55.693315,53.478667],[-57.241703,54.571271],[-60.020561,55.573452],[-64.352106,60.315153],[-64.839405,60.284731],[-64.692026,59.950159],[-63.74009,54.62347]]]},{"type":"Polygon","coordinates":[[[-53.250281,49.407209],[-55.49299,50.01439],[-55.373591,51.83372],[-56.775864,51.333629],[-59.382723,48.327211],[-59.499306,47.611166],[-56.77746,47.53339],[-56.485064,46.682939],[-52.975021,46.525701],[-52.6442,47.52936],[-52.809538,48.546885],[-53.250281,49.407209]]]}]},"properties":{"name":"Ньюфаундленд и Лабрадор","name_original":"Newfoundland and Labrador","country":"Канада","country_code":"ca","region_code":"CA-NF","address":{"ISO3166-2-lvl4":"CA-NF"}},"id":"CA-NF"}]}