{"type":"FeatureCollection","features":[{"type":"Feature","geometry":{"type":"GeometryCollection","geometries":[{"type":"Polygon","coordinates":[[[-136.449761,67.64992],[-136.165742,66.99947],[-133.829657,67.000001],[-128.895214,62.149539],[-123.8191,60.00006],[-102.0016,60.00006],[-102.0016,60.0007],[-102.0016,60.00135],[-102.0016,60.00202],[-102.0016,60.00269],[-101.99219,64.17603],[-108.97288,64.77817],[-110.66942,65.49611],[-112.47067,65.49585],[-120.6779,68.00182],[-120.678101,69.993741],[-109.861559,69.998218],[-109.792264,79.129605],[-123.999696,79.121856],[-128.169588,70.6831],[-132.94689,69.63459],[-134.354832,69.763674],[-135.344198,69.627886],[-136.467096,68.90533],[-136.449761,67.64992]]]}]},"properties":{"name":"Северо-Западные территории","name_original":"Northwest Territories","country":"Канада","country_code":"ca","region_code":"CA-NT","address":{"ISO3166-2-lvl4":"CA-NT"}},"id":"CA-NT"}]}