{"type":"FeatureCollection","features":[{"type":"Feature","geometry":{"type":"GeometryCollection","geometries":[{"type":"Polygon","coordinates":[[[-65.180951,45.411984],[-64.793876,45.243741],[-66.260868,44.447412],[-66.191813,43.670739],[-65.624318,43.361844],[-64.451972,43.99054],[-60.881386,45.268284],[-61.193101,45.447587],[-61.496667,45.703412],[-61.87629,45.69269],[-61.897521,45.921757],[-62.30938,45.711827],[-62.526811,45.681479],[-62.67496,45.77196],[-62.97997,45.79597],[-63.49193,45.88264],[-63.771122,46.11523],[-65.180951,45.411984]]]},{"type":"Polygon","coordinates":[[[-59.562076,46.07071],[-60.335701,46.424783],[-60.283271,46.860392],[-60.443792,46.925149],[-60.369617,47.035496],[-60.629783,47.047354],[-61.569482,46.041392],[-61.480159,45.714872],[-61.284981,45.541923],[-61.03016,45.429088],[-60.08764,45.81977],[-59.562076,46.07071]]]}]},"properties":{"name":"Новая Шотландия","name_original":"Nova Scotia","country":"Канада","country_code":"ca","region_code":"CA-NS","address":{"ISO3166-2-lvl4":"CA-NS"}},"id":"CA-NS"}]}