{"type":"FeatureCollection","features":[{"type":"Feature","geometry":{"type":"GeometryCollection","geometries":[{"type":"Polygon","coordinates":[[[-94.80313,60.00007],[-93.87755,61.52058],[-81.472297,61.832152],[-75.127537,63.381893],[-67.716767,61.591431],[-60.894933,60.571032],[-60.404153,67.736466],[-79.122694,74.97341],[-73.449535,79.043298],[-57.966237,82.670586],[-77.737641,83.657752],[-108.130915,80.838052],[-109.792264,79.129605],[-109.861559,69.998218],[-120.678101,69.993741],[-120.6779,68.00182],[-112.47067,65.49585],[-110.66942,65.49611],[-108.97288,64.77817],[-101.99219,64.17603],[-102.0016,60.00269],[-102.0016,60.00202],[-102.0016,60.00135],[-102.0016,60.0007],[-102.0016,60.00006],[-94.80313,60.00007]]]}]},"properties":{"name":"Нунавут","name_original":"Nunavut","country":"Канада","country_code":"ca","region_code":"CA-NU","address":{"ISO3166-2-lvl4":"CA-NU"}},"id":"CA-NU"}]}