{"type":"FeatureCollection","features":[{"type":"Feature","geometry":{"type":"GeometryCollection","geometries":[{"type":"Polygon","coordinates":[[[-89.337213,47.975958],[-88.37646,48.30511],[-84.133468,46.528686],[-82.520213,45.34083],[-82.14565,43.57641],[-82.826785,42.376641],[-83.083334,42.304574],[-83.191518,41.898512],[-82.516955,41.613674],[-78.903473,42.837331],[-79.17431,43.46453],[-76.797234,43.63109],[-75.45596,44.74177],[-74.88651,45.0094],[-74.442835,44.998238],[-74.406749,45.576939],[-74.966244,45.633225],[-75.836703,45.372576],[-78.708454,46.320274],[-79.550423,47.375615],[-79.342428,51.6711],[-80.060952,51.324435],[-82.038857,53.238934],[-82.204323,55.152869],[-85.116811,55.402471],[-88.947,56.85322],[-95.152809,52.841044],[-95.153238,48.998913],[-89.337213,47.975958]]]}]},"properties":{"name":"Онтарио","name_original":"Ontario","country":"Канада","country_code":"ca","region_code":"CA-ON","address":{"ISO3166-2-lvl4":"CA-ON"}},"id":"CA-ON"}]}