{"type":"FeatureCollection","features":[{"type":"Feature","geometry":{"type":"Polygon","coordinates":[[[-63.99706,47.06733],[-64.501166,46.720796],[-64.363609,46.585909],[-64.222225,46.614411],[-64.127951,46.567563],[-64.157994,46.390819],[-62.782565,45.930108],[-62.422605,45.965652],[-61.925177,46.449441],[-62.153589,46.522061],[-62.691895,46.481357],[-63.67167,46.622941],[-63.99706,47.06733]]]},"properties":{"name":"Остров Принца Эдуарда","name_original":"Prince Edward Island","country":"Канада","country_code":"ca","region_code":"CA-PE","address":{"ISO3166-2-lvl4":"CA-PE"}},"id":"CA-PE"}]}