{"type":"FeatureCollection","features":[{"type":"Feature","geometry":{"type":"GeometryCollection","geometries":[{"type":"Polygon","coordinates":[[[-78.709019,46.319466],[-75.834354,45.373821],[-74.9664,45.63316],[-74.406804,45.576709],[-74.442837,44.998253],[-71.500873,45.0137],[-70.293294,45.884351],[-69.052388,47.300103],[-68.383275,47.551771],[-68.381927,47.915693],[-64.345083,48.006721],[-59.891828,50.26793],[-57.782478,51.385421],[-57.107995,51.412636],[-57.10098,52.00008],[-66.193281,52.003624],[-66.463377,52.308619],[-66.363506,53.003276],[-66.483011,53.005824],[-66.760622,52.676558],[-66.861672,52.66181],[-67.193377,52.830956],[-67.370844,53.012414],[-67.342673,54.071189],[-66.853322,55.282095],[-63.74009,54.62347],[-64.692026,59.950159],[-64.839405,60.284731],[-64.352106,60.315153],[-64.380494,60.464242],[-64.822874,60.50799],[-66.064848,59.067712],[-67.187871,58.444602],[-68.208494,58.631197],[-69.282273,61.093056],[-73.529539,62.521932],[-76.815654,62.723316],[-78.733447,62.218876],[-79.549158,47.370569],[-78.709019,46.319466]]]}]},"properties":{"name":"Квебек","name_original":"Québec","country":"Канада","country_code":"ca","region_code":"CA-QC","address":{"ISO3166-2-lvl4":"CA-QC"}},"id":"CA-QC"}]}