{"type":"FeatureCollection","features":[{"type":"Feature","geometry":{"type":"GeometryCollection","geometries":[{"type":"Polygon","coordinates":[[[-141.00556,69.65095],[-141.00539,69.35939],[-141.001611,60.306829],[-139.079244,60.008005],[-123.8191,60.00006],[-128.895214,62.149539],[-133.829657,67.000001],[-136.165742,66.99947],[-136.449761,67.64992],[-136.467096,68.90533],[-137.86946,69.09186],[-138.363125,69.303101],[-138.829095,69.383178],[-139.213978,69.528734],[-139.91796,69.62132],[-140.64354,69.61636],[-141.00556,69.65095]]]}]},"properties":{"name":"Юкон","name_original":"Yukon","country":"Канада","country_code":"ca","region_code":"CA-YT","address":{"ISO3166-2-lvl4":"CA-YT"}},"id":"CA-YT"}]}