{"type":"Feature","geometry":{"type":"GeometryCollection","geometries":[{"type":"Polygon","coordinates":[[[35.62363,33.245728],[35.681938,33.249161],[35.614464,32.8949],[35.664993,32.79666],[35.648888,32.685272],[35.627762,32.686096],[35.571938,32.645828],[35.552567,32.3941961],[35.48111,32.412773],[35.412216,32.500832],[35.208054,32.546387],[35.06435,32.4631399],[34.979164,32.15305],[35.0301101,31.85701],[34.9985399,31.85384],[34.97874,31.83733],[34.98031,31.83132],[35.0015501,31.8285],[35.02749,31.8327299],[35.0560201,31.85332],[35.13696,31.81429],[35.18617,31.8087399],[35.18359,31.82512],[35.19664,31.82644],[35.2132701,31.8187599],[35.21576,31.82011],[35.2052499,31.87725],[35.2220199,31.87918],[35.2333499,31.84261],[35.2572299,31.8385901],[35.25157,31.83128],[35.26494,31.8262699],[35.24242,31.71085],[35.14895,31.73735],[35.001663,31.64694],[34.961365,31.603355],[34.884438,31.40472],[34.922775,31.352219],[35.211105,31.374996],[35.39608,31.492119],[35.478195,31.497322],[35.411385,31.225277],[35.462219,31.121109],[35.158607,30.444164],[35.164719,30.126389],[34.974625,29.577015],[34.97998,29.545753],[34.96256,29.55146],[34.9092825,29.4896328],[34.267578,31.216541],[34.367775,31.291111],[34.364166,31.360832],[34.5668689,31.5414568],[34.490547,31.596096],[34.744227,32.1715973],[34.9386743,32.8435356],[35.0320923,32.8432064],[35.10083,33.093605],[35.32194,33.088051],[35.34916,33.06305],[35.50471,33.09416],[35.585548,33.270271],[35.62363,33.245728]]]}]},"properties":{"cca2":"il"}}