{"type":"FeatureCollection","features":[{"type":"Feature","geometry":{"type":"Polygon","coordinates":[[[-65.6575,-22.10889],[-64.594727,-22.21167],[-64.343903,-22.869446],[-64.299759,-22.869981],[-63.941116,-22.000835],[-62.561229,-21.998145],[-61.7425,-19.645],[-59.09584,-19.348892],[-58.15139,-19.828056],[-58.15889,-20.168056],[-57.848747,-19.978794],[-58.121117,-19.74139],[-57.521118,-18.203892],[-57.756218,-17.580269],[-58.371117,-17.278893],[-58.476395,-16.721668],[-58.327507,-16.279167],[-60.160278,-16.263058],[-60.47084,-13.807222],[-65.008347,-11.989445],[-65.31279,-11.493057],[-65.371948,-9.708889],[-68.757782,-11.140556],[-68.848892,-11.016111],[-69.567505,-10.950556],[-69.568436,-10.951092],[-68.673904,-12.50115],[-69.421951,-15.618057],[-69.233643,-16.175977],[-68.935928,-16.218443],[-68.828031,-16.351887],[-69.656189,-17.287247],[-69.469116,-17.500614],[-67.876404,-22.828056],[-66.745297,-22.836968],[-66.22301,-21.78052],[-65.6575,-22.10889]]]},"properties":{"cca2":"bo"}}]}