{"type":"Feature","geometry":{"type":"Polygon","coordinates":[[[13.833611,48.773605],[14.278332,48.582497],[14.608889,48.628883],[14.70028,48.581379],[14.812498,48.781387],[14.958887,48.794716],[14.996944,49.0075],[15.353333,48.985832],[16.103333,48.75],[16.403332,48.74305],[16.457497,48.811943],[16.54361,48.811943],[16.78833,48.719162],[16.8962168,48.7352918],[16.943333,48.573326],[16.855831,48.44944],[17.116665,48.038605],[17.166386,48.012497],[17.108055,47.971382],[17.053886,47.709442],[16.7575,47.686943],[16.715832,47.734718],[16.555832,47.756104],[16.425831,47.668327],[16.668888,47.611664],[16.713886,47.543884],[16.592499,47.425278],[16.451942,47.415276],[16.491665,47.279999],[16.420555,47.213333],[16.510555,47.00666],[16.302776,47.011383],[16.111805,46.86972],[15.985554,46.831108],[15.988054,46.751106],[14.870554,46.615829],[14.811666,46.509995],[14.544998,46.407494],[14.159443,46.440826],[14.112499,46.48111],[13.718655,46.526611],[12.486174,46.682365],[12.1687112,46.9255273],[12.1282114,47.012969],[12.204443,47.039162],[12.230833,47.07222],[12.2009387,47.0877915],[11.164444,46.962219],[11.014721,46.772499],[10.7775218,46.7934164],[10.6708391,46.8801935],[10.4825152,46.8545867],[10.488913,46.934212],[10.357222,46.997215],[10.122776,46.849716],[9.879444,46.939156],[9.875555,47.022491],[9.5918652,47.0505612],[9.634998,47.094994],[9.633888,47.130554],[9.566387,47.243889],[9.5401047,47.2684513],[9.673332,47.398605],[9.607064,47.529514],[9.81361,47.593605],[10.231388,47.381386],[10.909443,47.518051],[10.97361,47.400551],[12.911943,47.720833],[13.008888,47.854164],[12.754444,48.105553],[13.725996,48.515587],[13.833611,48.773605]]]},"properties":{"cca2":"at"}}