{"type":"Feature","geometry":{"type":"GeometryCollection","geometries":[{"type":"Polygon","coordinates":[[[16.7719736,42.7216099],[16.7672026,42.7886076],[16.9467106,42.7903582],[16.9490961,42.7154758],[16.7719736,42.7216099]]]},{"type":"Polygon","coordinates":[[[17.752452,42.6813571],[17.3001185,42.7714027],[17.339216,42.8225579],[17.7661126,42.7111308],[17.752452,42.6813571]]]},{"type":"Polygon","coordinates":[[[17.1874707,42.9617815],[17.2109551,42.8853935],[16.619981,42.9110338],[16.6031537,43.0174255],[17.1874707,42.9617815]]]},{"type":"Polygon","coordinates":[[[17.2935579,43.0178732],[17.426109,42.959999],[17.5372934,42.9291798],[17.64984,42.889076],[17.698055,42.927216],[18.455555,42.56583],[18.5322224,42.3849925],[17.2181221,42.9661767],[17.0056422,42.994221],[17.004166,43.046661],[17.2935579,43.0178732]]]},{"type":"Polygon","coordinates":[[[16.0548262,42.9947707],[16.0289887,43.0751867],[16.254025,43.0983172],[16.2773621,43.0167127],[16.0548262,42.9947707]]]},{"type":"Polygon","coordinates":[[[17.1967126,43.1072798],[16.6717124,43.1071148],[16.3610384,43.1637925],[16.3385801,43.21769],[16.562035,43.23085],[17.1940364,43.1502489],[17.1967126,43.1072798]]]},{"type":"Polygon","coordinates":[[[16.1405041,43.370137],[16.1834727,43.4312474],[16.8954572,43.3580293],[16.8980429,43.2532866],[16.6325807,43.2495201],[16.1405041,43.370137]]]},{"type":"Polygon","coordinates":[[[16.866108,46.355827],[16.892776,46.28249],[17.185555,46.151939],[17.311386,45.975273],[17.62611,45.90583],[17.657219,45.84083],[18.424164,45.749161],[18.8265502,45.8902326],[18.955276,45.784721],[18.988609,45.370827],[19.418331,45.234718],[19.41111,45.174995],[19.163609,45.212219],[19.039719,44.86138],[18.634163,45.083328],[16.50228,45.209633],[16.35121,45.003586],[16.248055,45.014999],[16.015274,45.21833],[15.81111,45.195549],[15.736387,44.81694],[15.864166,44.711388],[15.956944,44.699997],[16.265,44.189438],[17.160275,43.497772],[17.261665,43.459717],[17.289719,43.296944],[17.63028,43.07694],[17.688015,42.974609],[17.5372934,42.9291797],[16.8830837,43.3890066],[16.3730176,43.4578124],[16.0435861,43.4456815],[13.7244248,44.8161228],[13.4833525,45.4868209],[13.5237793,45.5283557],[13.703609,45.44416],[14.3975,45.486938],[14.485832,45.529716],[14.564999,45.664993],[14.612221,45.664162],[14.609444,45.63916],[14.818054,45.46611],[14.979067,45.500473],[15.090555,45.472771],[15.162794,45.42664],[15.277222,45.462776],[15.307089,45.629868],[15.352591,45.651756],[15.365555,45.709717],[15.283333,45.694717],[15.2710256,45.7351748],[15.322498,45.761383],[15.49944,45.835831],[15.602777,45.84861],[15.646387,45.823883],[15.656666,45.823326],[15.694443,45.841942],[15.718332,46.047218],[15.629444,46.086937],[15.611944,46.166939],[15.676666,46.226662],[15.797777,46.23333],[16.266109,46.419441],[16.24944,46.49027],[16.292507,46.530815],[16.461388,46.52166],[16.57932,46.4644935],[16.607872,46.476234],[16.866108,46.355827]]]}]},"properties":{"cca2":"hr"}}