{"type":"Feature","geometry":{"type":"GeometryCollection","geometries":[{"type":"Polygon","coordinates":[[[88.90749,26.37508],[88.938782,26.44582],[89.07426,26.382959],[89.140266,26.148149],[89.504356,26.00564],[89.60242,26.06896],[89.559868,26.16146],[89.6386,26.2278],[89.77887,26.088886],[89.849014,25.90617],[89.833054,25.306664],[92.332489,25.079441],[92.113037,24.38666],[91.26971,23.971107],[91.164429,23.622498],[91.36998,23.069164],[91.613602,22.94305],[91.820541,23.097775],[91.844986,23.410275],[92.272766,23.716385],[92.600815,21.982216],[92.669342,21.296982],[92.583054,21.26833],[92.386383,21.469994],[92.222214,21.358051],[92.207489,21.14361],[92.365342,20.7492508],[92.3171979,20.7327479],[91.7548586,21.5056136],[91.7162381,22.1106891],[89.0992611,21.5901109],[88.79443,23.487217],[88.583328,23.60583],[88.605881,23.86629],[88.736649,23.919796],[88.721649,24.280552],[88.114151,24.51944],[88.04387,24.689716],[88.229706,24.94833],[88.342484,24.870274],[88.486374,25.20055],[88.948868,25.172218],[89.008881,25.300831],[88.446091,25.604996],[88.44693,25.666107],[88.257492,25.814999],[88.15193,25.77861],[88.09553,25.915272],[88.184418,26.152496],[88.358322,26.227219],[88.35609,26.284443],[88.525543,26.359718],[88.486511,26.458546],[88.334717,26.48666],[88.409149,26.631939],[88.419983,26.620274],[88.433044,26.55139],[88.680817,26.420271],[88.735764,26.29351],[89.020477,26.23517],[89.041344,26.28179],[88.90749,26.37508]]]}]},"properties":{"cca2":"bd"}}