{"type":"FeatureCollection","features":[{"type":"Feature","geometry":{"type":"Polygon","coordinates":[[[-92.232835,14.524044],[-92.164459,14.483891],[-91.514589,13.945809],[-90.10556,13.747221],[-89.194458,14.584166],[-88.98056,15.135555],[-88.214737,15.724443],[-88.564478,15.979611],[-88.910568,15.89361],[-89.216171,15.889851],[-89.141953,17.818886],[-90.983063,17.817776],[-90.983902,17.256107],[-91.436951,17.2575],[-90.393341,16.401108],[-90.458069,16.074718],[-91.729172,16.074997],[-92.211395,15.26222],[-92.072197,15.085834],[-92.185837,14.843611],[-92.152237,14.700277],[-92.232835,14.524044]]]},"properties":{"cca2":"gt"}}]}