{"type":"Feature","geometry":{"type":"Polygon","coordinates":[[[45.652214,34.73999],[45.722214,34.556656],[45.562923,34.586105],[45.435547,34.448601],[45.493607,34.333878],[45.551933,34.344154],[45.562767,34.140549],[45.406162,33.970837],[45.508049,33.94249],[45.87471,33.491661],[46.00647,33.485779],[46.199432,33.195824],[46.097771,32.979988],[46.491104,32.903877],[47.419441,32.332771],[47.864441,31.798607],[47.693878,31.00111],[48.036385,30.997494],[48.032494,30.491383],[48.545555,29.96303],[47.199158,30.031109],[46.546944,29.104198],[46.42667,29.061661],[44.721661,29.19833],[40.41333,31.94833],[39.196743,32.154942],[38.794701,33.377594],[41.003876,34.419434],[41.403046,36.525551],[41.835274,36.598885],[42.379166,37.068314],[42.355614,37.106926],[42.578331,37.150826],[42.724709,37.351944],[43.903603,37.221657],[44.014153,37.320541],[44.233887,37.274155],[44.193329,37.100266],[44.255272,36.986664],[44.321106,36.971931],[44.349709,37.038322],[44.646378,37.189438],[44.787338,37.149712],[44.768044,37.105263],[44.81749,37.055817],[44.909714,37.023872],[44.906647,36.888329],[44.844147,36.808037],[45.025551,36.736382],[45.066666,36.68055],[45.013088,36.542858],[45.121368,36.411934],[45.239159,36.431374],[45.405823,35.990829],[45.520073,36.011169],[45.765831,35.811935],[46.128326,35.853607],[46.181664,35.804161],[46.31694,35.83416],[46.33416,35.777489],[46.02166,35.680275],[45.992218,35.481102],[46.192764,35.204163],[46.166382,35.107216],[46.025826,35.05999],[45.933769,35.098755],[45.652214,34.73999]]]},"properties":{"cca2":"iq"}}