{"type":"Feature","geometry":{"type":"GeometryCollection","geometries":[{"type":"Polygon","coordinates":[[[45.083321,39.768044],[45.330826,39.535271],[45.823044,39.545273],[46.178246,38.84115],[45.427528,39.008324],[44.813042,39.63081],[44.816376,39.64582],[44.778862,39.706383],[45.083321,39.768044]]]},{"type":"Polygon","coordinates":[[[46.760265,41.862533],[47.53077,41.2124809],[47.7832639,41.185097],[48.809044,41.961321],[49.6841717,40.6361579],[50.3694247,40.6559598],[50.5332408,40.2604558],[49.6511543,40.1810758],[49.2178723,38.9389917],[49.0534182,38.9501462],[49.049431,39.176941],[48.955544,39.165268],[48.888283,38.442406],[48.62305,38.39526],[48.441933,38.62165],[48.322762,38.606102],[48.014153,38.905823],[48.326935,39.038048],[48.11998,39.263611],[48.35979,39.385216],[47.976662,39.719231],[47.819153,39.681107],[46.540375,38.875587],[46.523598,39.044159],[46.418602,39.20665],[46.459984,39.217484],[46.54554,39.189423],[46.616096,39.217209],[46.382484,39.438324],[46.500832,39.468323],[46.54805,39.544434],[46.364441,39.62498],[46.2111,39.5961],[45.793877,39.92526],[45.618317,39.967766],[45.603882,40.007767],[45.87305,40.01361],[46.00194,40.213608],[45.66277,40.375824],[45.391106,40.643326],[45.418877,40.71777],[45.574158,40.776375],[45.614159,40.87554],[45.368317,41.001656],[45.101379,41.056656],[45.081383,41.1161],[45.201096,41.118317],[45.222755,41.14193],[45.046944,41.223312],[45.022942,41.29705],[45.306656,41.461098],[46.50861,41.046097],[46.693871,41.312202],[46.23333,41.598595],[46.4584063,41.9056899],[46.538095,41.878036],[46.5843251,41.802598],[46.760265,41.862533]]]}]},"properties":{"cca2":"az"}}