{"type":"Feature","geometry":{"type":"GeometryCollection","geometries":[{"type":"Polygon","coordinates":[[[59.921379,42.294441],[60.275269,41.787216],[60.268326,41.776657],[60.08804,41.781105],[60.185822,41.588882],[60.094154,41.524712],[60.086937,41.414154],[60.51111,41.217491],[61.382767,41.219986],[61.418602,41.301384],[61.638603,41.25639],[61.943047,41.050545],[62.440483,40.03384],[62.441933,40.030823],[66.672485,37.963882],[66.537735,37.366379],[66.289978,37.324715],[65.771927,37.537498],[65.708878,37.538605],[65.530823,37.248604],[65.060806,37.241379],[64.77916,37.095825],[64.458878,36.24721],[63.104439,35.839157],[63.18471,35.673607],[63.095268,35.626099],[63.095543,35.436935],[62.554436,35.233604],[62.471375,35.289719],[62.309158,35.141663],[61.995827,35.458328],[61.265658,35.6080103],[61.157211,36.649994],[60.333054,36.656097],[60.029434,37.036942],[59.479988,37.232765],[59.338882,37.53916],[58.814713,37.680275],[58.238045,37.67527],[58.203049,37.783333],[57.356941,37.985825],[57.371101,38.093048],[57.243881,38.270828],[57.149788,38.260094],[57.058601,38.193604],[56.546661,38.26611],[56.385551,38.231377],[56.318886,38.173325],[56.31972,38.083328],[55.442764,38.086105],[54.80971,37.711105],[54.756386,37.495544],[53.90564,37.350853],[52.440071,41.74094],[52.807213,42.016106],[54.198601,42.332497],[55.520271,41.26555],[57.059158,41.269989],[56.97832,41.884995],[58.609718,42.797775],[59.42555,42.299721],[59.921379,42.294441]]]}]},"properties":{"cca2":"tm"}}