{"type":"Feature","geometry":{"type":"Polygon","coordinates":[[[39.88448,43.2244311],[40.1038511,43.568192],[40.7133451,43.5324749],[41.6843431,43.216983],[42.413776,43.256982],[42.44214,43.250846],[42.457196,43.212929],[42.675096,43.1357],[42.679674,43.1727041],[42.7897981,43.184961],[43.334799,42.8901211],[43.398487,42.896923],[43.5873121,42.851034],[43.8071589,42.73968],[43.714582,42.6332679],[43.9637159,42.547111],[44.0217779,42.597196],[44.149096,42.604273],[44.232011,42.626702],[44.249905,42.6810881],[44.3194651,42.7228421],[44.518111,42.696941],[44.5090061,42.749738],[44.5551121,42.764674],[44.580175,42.744751],[44.6799691,42.75591],[44.752849,42.714098],[44.7674759,42.6414069],[44.8003971,42.615748],[44.829035,42.6171589],[44.886156,42.746792],[44.979751,42.7449359],[45.034745,42.692732],[45.0512661,42.692517],[45.087856,42.712806],[45.1583731,42.70753],[45.338452,42.524475],[45.5880871,42.537602],[45.609381,42.508641],[45.711488,42.476497],[45.7753792,42.4894471],[45.7369439,42.293152],[45.652072,42.2921341],[45.6062119,42.221415],[45.6475159,42.186408],[46.4584063,41.9056899],[46.23333,41.598595],[46.693871,41.312202],[46.508606,41.046097],[45.306656,41.461098],[45.022942,41.29705],[44.875824,41.21859],[44.340546,41.212494],[43.46077,41.112961],[43.387215,41.200554],[43.233597,41.190269],[42.84024,41.578873],[42.590271,41.579163],[42.48333,41.438332],[41.531559,41.523876],[41.5154218,42.3331779],[39.88448,43.2244311]]]},"properties":{"cca2":"ge"}}