{"type":"Feature","geometry":{"type":"GeometryCollection","geometries":[{"type":"Polygon","coordinates":[[[59.9248072,22.5163613],[57.8861212,18.720332],[55.0527877,16.8700004],[53.114441,16.642778],[51.9340977,19.1496255],[55,20],[55.66611,21.999722],[55.199165,22.699718],[55.234489,23.110993],[55.5258409,23.5248689],[55.528632,23.933604],[55.981214,24.1305429],[55.804119,24.269604],[55.886233,24.9208309],[56.104164,24.734722],[56.3968469,24.9247319],[57.1217679,24.0575505],[58.6516379,23.6573797],[59.9248072,22.5163613]]]},{"type":"Polygon","coordinates":[[[56.353756,26.3965205],[56.5792203,26.3916103],[56.3899597,25.8036197],[56.3783047,25.6209402],[56.1759627,25.6223478],[56.1787575,26.021361],[56.0798724,26.0678436],[56.1995546,26.2734889],[56.353756,26.3965205]]]}]},"properties":{"cca2":"om"}}