{"type":"FeatureCollection","features":[{"type":"Feature","geometry":{"type":"GeometryCollection","geometries":[{"type":"Polygon","coordinates":[[[14.412777,53.30444],[13.648294,54.76465],[11.759218,54.380541],[10.822186,54.691854],[10.064432,54.677447],[9.996156,54.822133],[8.602797,54.917725],[8.438606,55.09225],[8.203925,55.085582],[8.174377,53.905459],[6.576319,53.724921],[6.546884,53.510426],[6.926814,53.476181],[6.972176,53.329467],[7.18894,53.330876],[7.197778,52.965],[7.069722,52.814995],[7.05994,52.638158],[6.724368,52.642617],[6.711017,52.464793],[7.059759,52.457898],[7.053094,52.23776],[6.759428,52.114563],[6.728611,52.035271],[6.841916,51.985243],[6.720555,51.897774],[6.685555,51.914162],[6.35111,51.848053],[6.182221,51.895271],[5.9625,51.807777],[5.95205,51.747528],[6.2075,51.509995],[6.222221,51.361664],[6.076388,51.240273],[6.0975,51.131104],[5.866944,51.04805],[5.891666,50.972771],[6.025934,50.983887],[6.088622,50.852734],[6.013888,50.84166],[6.011798,50.757271],[5.883887,50.748517],[6.268611,50.623604],[6.264722,50.497772],[6.344444,50.484161],[6.398204,50.32317],[6.173333,50.232498],[6.134414,50.127846],[6.112778,50.05888],[6.25528,49.880554],[6.522222,49.811104],[6.325605,49.398511],[8.22608,48.964417],[7.613104,47.958972],[7.585833,47.60833],[7.676944,47.603607],[7.697223,47.543327],[8.594721,47.601662],[8.580555,47.66861],[8.47555,47.646942],[8.406666,47.703888],[8.559721,47.806389],[8.736944,47.75444],[8.720222,47.69662],[8.917776,47.650551],[9.0425,47.688889],[9.607064,47.529514],[9.81361,47.593605],[10.23139,47.381386],[10.909443,47.518051],[10.97361,47.400551],[12.911943,47.720833],[13.008888,47.854164],[12.754444,48.10555],[13.725996,48.515587],[13.833611,48.7736],[12.206142,50.106209],[14.311388,50.88222],[14.801666,50.81889],[15.03639,51.285553],[14.146111,52.9575],[14.412777,53.30444]]]}]},"properties":{"cca2":"de"}}]}