{"type":"Feature","geometry":{"type":"GeometryCollection","geometries":[{"type":"Polygon","coordinates":[[[26.8879872,35.3256382],[26.786966,35.3791679],[26.8886418,35.4441999],[27.0063815,35.4567753],[27.0308324,35.3943806],[26.8879872,35.3256382]]]},{"type":"Polygon","coordinates":[[[26.3066794,35.38389],[26.3490493,34.8717978],[24.8555148,34.8290867],[23.4339409,35.1350142],[23.4888457,35.7198146],[26.3066794,35.38389]]]},{"type":"Polygon","coordinates":[[[27.0311464,35.4775339],[27.1125136,35.939966],[27.2983042,35.9098758],[27.308284,35.4169922],[27.1233061,35.3919564],[27.0311464,35.4775339]]]},{"type":"Polygon","coordinates":[[[25.6944677,36.3482068],[25.7715437,36.4184374],[25.9014937,36.3801514],[25.850667,36.320744],[25.6944677,36.3482068]]]},{"type":"Polygon","coordinates":[[[27.4649052,36.0756377],[28.1276836,36.494697],[28.314937,36.3916307],[27.8886891,35.8243225],[27.4649052,36.0756377]]]},{"type":"Polygon","coordinates":[[[27.4022855,36.3533242],[27.2259582,36.4186465],[27.3515719,36.5046123],[27.4756252,36.4067167],[27.4022855,36.3533242]]]},{"type":"Polygon","coordinates":[[[25.3129574,36.3434859],[25.3015017,36.4714565],[25.4284316,36.4902471],[25.5077055,36.4301749],[25.4957915,36.3287207],[25.3129574,36.3434859]]]},{"type":"Polygon","coordinates":[[[26.3186859,36.4868973],[26.1927637,36.5811231],[26.382265,36.6676683],[26.4956765,36.5676756],[26.3186859,36.4868973]]]},{"type":"Polygon","coordinates":[[[27.7647447,36.5264322],[27.7252746,36.5932022],[27.8185676,36.6623132],[27.8723904,36.6661509],[27.9004979,36.5105718],[27.7647447,36.5264322]]]},{"type":"Polygon","coordinates":[[[24.9330885,36.5776397],[24.810457,36.6485122],[24.869766,36.6746255],[24.9745603,36.6138],[24.9330885,36.5776397]]]},{"type":"Polygon","coordinates":[[[25.092065,36.6100617],[25.0339584,36.6549954],[25.1427763,36.7413979],[25.1971853,36.7087966],[25.092065,36.6100617]]]},{"type":"Polygon","coordinates":[[[24.2500678,36.7052901],[24.5667719,36.8654858],[24.7109556,36.7473739],[24.3525799,36.6023216],[24.2500678,36.7052901]]]},{"type":"Polygon","coordinates":[[[25.3616281,36.6260427],[25.219434,36.745747],[25.3030776,36.8065596],[25.4349771,36.699848],[25.3616281,36.6260427]]]},{"type":"Polygon","coordinates":[[[25.4383206,36.8078731],[25.4057609,36.8405495],[25.4723382,36.8798205],[25.4937207,36.8374381],[25.4383206,36.8078731]]]},{"type":"Polygon","coordinates":[[[25.8089938,36.7347777],[25.7047697,36.8004232],[26.0110772,36.9665156],[26.0985936,36.8959227],[25.8089938,36.7347777]]]},{"type":"Polygon","coordinates":[[[26.9632473,36.658047],[26.833669,36.7762725],[27.252955,36.9330618],[27.3856938,36.835317],[26.9632473,36.658047]]]},{"type":"Polygon","coordinates":[[[25.6019337,36.8704066],[25.5964793,36.8993092],[25.6510233,36.9164821],[25.6885223,36.9099405],[25.6936358,36.8734064],[25.6019337,36.8704066]]]},{"type":"Polygon","coordinates":[[[24.603438,37.0193945],[24.7136488,37.0598897],[24.8133633,36.9341445],[24.6970297,36.8865867],[24.603438,37.0193945]]]},{"type":"Polygon","coordinates":[[[26.9289845,36.9063255],[26.8571398,37.0595558],[26.9197016,37.0971304],[27.0673193,37.0062464],[27.0565221,36.9400333],[26.9289845,36.9063255]]]},{"type":"Polygon","coordinates":[[[25.8369974,37.081065],[25.7761267,37.0904794],[25.7618408,37.1268873],[25.8329601,37.1484266],[25.8540785,37.1073233],[25.8369974,37.081065]]]},{"type":"Polygon","coordinates":[[[25.0073103,36.9016957],[24.9025766,37.0166623],[25.2368781,37.1879436],[25.3077585,37.1415756],[25.26833,37.052773],[25.2791947,37.0014561],[25.0073103,36.9016957]]]},{"type":"Polygon","coordinates":[[[26.8422547,37.0794437],[26.7313157,37.1902362],[26.8266352,37.2253239],[26.9223551,37.1142634],[26.8422547,37.0794437]]]},{"type":"Polygon","coordinates":[[[25.3819337,36.934182],[25.342773,37.07194],[25.341106,37.075],[25.4608855,37.2374916],[25.6406049,37.2068843],[25.5699637,36.9424852],[25.461388,36.919434],[25.3819337,36.934182]]]},{"type":"Polygon","coordinates":[[[24.5516272,37.0820022],[24.3552822,37.152494],[24.5320858,37.2310705],[24.5516272,37.0820022]]]},{"type":"Polygon","coordinates":[[[23.3841276,37.261982],[23.3577915,37.3118365],[23.5584909,37.3952146],[23.6025358,37.350469],[23.3841276,37.261982]]]},{"type":"Polygon","coordinates":[[[24.3465546,37.3003929],[24.3469578,37.417601],[24.4441839,37.4991322],[24.5026772,37.3893198],[24.3920156,37.2861167],[24.3465546,37.3003929]]]},{"type":"Polygon","coordinates":[[[25.3452512,37.3690941],[25.2612435,37.4786085],[25.4562047,37.5188493],[25.5013786,37.4232419],[25.3452512,37.3690941]]]},{"type":"Polygon","coordinates":[[[24.8461371,37.3578759],[24.8384401,37.4990138],[24.9636911,37.521216],[24.9937793,37.3856799],[24.8461371,37.3578759]]]},{"type":"Polygon","coordinates":[[[24.8127873,38.0465962],[25.3041573,37.5968784],[25.1901946,37.5034259],[24.900849,37.6542226],[24.6162211,37.9201722],[24.8127873,38.0465962]]]},{"type":"Polygon","coordinates":[[[24.2360138,37.5300907],[24.2747489,37.7142542],[24.4381119,37.6758405],[24.343895,37.5056429],[24.2360138,37.5300907]]]},{"type":"Polygon","coordinates":[[[25.9900205,37.4699385],[25.9352079,37.5511551],[26.0313885,37.6511187],[26.3509563,37.7075959],[26.3447511,37.6290072],[26.2103051,37.5265534],[25.9900205,37.4699385]]]},{"type":"Polygon","coordinates":[[[23.4040623,37.7600794],[23.4241732,37.778702],[23.5844864,37.7768854],[23.5287503,37.6714442],[23.4506048,37.6687152],[23.4040623,37.7600794]]]},{"type":"Polygon","coordinates":[[[27.06944,37.711937],[26.8234834,37.6188992],[26.5947629,37.6520235],[26.5351354,37.7717114],[26.7398269,37.8357002],[27.0379645,37.8019548],[27.06944,37.711937]]]},{"type":"Polygon","coordinates":[[[21.0176978,37.7103817],[20.8341706,37.6144263],[20.5371125,37.8689086],[20.6985224,37.9504244],[21.0176978,37.7103817]]]},{"type":"Polygon","coordinates":[[[20.8555979,38.1514143],[20.7454436,38.0240755],[20.2411436,38.2122958],[20.5630006,38.5092058],[20.7075781,38.2893393],[20.8555979,38.1514143]]]},{"type":"Polygon","coordinates":[[[26.0122142,38.1266702],[25.8344777,38.2565943],[25.989716,38.375275],[25.7916194,38.5380407],[25.9436633,38.6657901],[26.160553,38.538048],[26.1827344,38.3067376],[26.0122142,38.1266702]]]},{"type":"Polygon","coordinates":[[[25.5347379,38.5055326],[25.4682236,38.6062052],[25.6062586,38.6386141],[25.6484558,38.5133677],[25.5347379,38.5055326]]]},{"type":"Polygon","coordinates":[[[24.7323334,38.7713722],[24.5707882,38.7208469],[24.3664455,38.9688232],[24.5107701,39.0210839],[24.7323334,38.7713722]]]},{"type":"Polygon","coordinates":[[[23.6156771,39.2243301],[23.81602,39.1127318],[23.6829872,39.048408],[23.5677627,39.2007452],[23.6156771,39.2243301]]]},{"type":"Polygon","coordinates":[[[20.0733477,39.2486358],[20.145485,39.259187],[20.2769351,39.1368195],[20.2208284,39.1125691],[20.0733477,39.2486358]]]},{"type":"Polygon","coordinates":[[[23.8676165,39.1199387],[23.8163199,39.1522939],[23.935824,39.2972719],[23.9950123,39.2601825],[23.8676165,39.1199387]]]},{"type":"Polygon","coordinates":[[[26.6635623,39.0253361],[26.4328435,38.9270767],[26.089165,39.07222],[26.276939,39.15638],[26.1939933,39.2035841],[26.06805,39.084435],[25.7980589,39.1770278],[25.8499525,39.3109203],[26.1453022,39.4189527],[26.419994,39.32583],[26.6635623,39.0253361]]]},{"type":"Polygon","coordinates":[[[24.9299625,39.4484525],[24.9436111,39.5595069],[25.091885,39.5719416],[25.0794771,39.4446199],[24.9299625,39.4484525]]]},{"type":"Polygon","coordinates":[[[19.8059626,39.3829319],[19.5476506,39.8035581],[19.9578978,39.8223316],[19.9560956,39.6132834],[20.1647649,39.3528153],[19.8059626,39.3829319]]]},{"type":"Polygon","coordinates":[[[25.419012,39.7530211],[25.0228552,39.8108398],[24.9955564,40.0287711],[25.4869355,40.0620182],[25.419012,39.7530211]]]},{"type":"Polygon","coordinates":[[[25.4087502,40.4224112],[25.4601498,40.5510601],[25.7162128,40.5063097],[25.6666824,40.3426818],[25.4087502,40.4224112]]]},{"type":"Polygon","coordinates":[[[24.5123838,40.5330702],[24.4707254,40.76728],[24.7569929,40.8133766],[24.9043993,40.64501],[24.5123838,40.5330702]]]},{"type":"Polygon","coordinates":[[[26.36109,41.711052],[26.570271,41.611382],[26.633884,41.354439],[26.325,41.234711],[26.323887,41.09304],[26.375549,41.02193],[26.35944,40.951935],[26.090549,40.736107],[24.59916,40.898331],[23.8986057,40.5972979],[24.6434635,40.0530708],[23.5052094,39.8292429],[22.8216815,40.3830044],[22.612499,40.291664],[22.604164,40.2775],[23.4057866,39.391862],[23.64221,38.8226466],[24.132283,38.711289],[24.802798,38.0801488],[24.0797297,37.6340629],[23.9269779,37.6406014],[23.6455678,37.8841537],[23.3570513,37.8673183],[23.3089283,37.7107654],[23.5588451,37.4100507],[23.1895764,37.2598837],[23.352838,36.3475317],[21.4755761,36.4799869],[21.0082542,38.2037321],[20.5080151,38.6152302],[20.6315026,38.9847159],[20.1989271,39.3395723],[20.1350335,39.6256771],[20.0036788,39.6817152],[20.013332,39.69472],[20.221664,39.64833],[20.317497,39.726105],[20.289444,39.803055],[20.306129,39.812119],[20.37611,39.787498],[20.41444,39.82444],[20.316109,39.993332],[20.421944,40.05805],[20.67388,40.101387],[20.791924,40.43154],[20.93694,40.464439],[21.041386,40.561943],[20.98349,40.855888],[21.36861,40.878326],[21.41972,40.919167],[21.53666,40.904716],[21.599998,40.872772],[21.792221,40.93278],[21.911942,41.049438],[21.916111,41.095276],[21.97361,41.129997],[22.262497,41.17055],[22.34333,41.134438],[22.73583,41.148888],[22.772221,41.32444],[22.813053,41.34861],[22.926388,41.343048],[23.180832,41.32278],[23.29472,41.406105],[23.97889,41.441109],[24.06639,41.485275],[24.10166,41.550827],[24.46611,41.551941],[24.809444,41.352219],[24.819443,41.405],[24.903889,41.41194],[25.279716,41.24305],[26.139996,41.354713],[26.198051,41.439438],[26.137215,41.629433],[26.099159,41.628876],[26.068604,41.660271],[26.08083,41.71666],[26.222759,41.7435],[26.277222,41.709991],[26.36109,41.711052]]]}]},"properties":{"cca2":"gr"}}