{"type":"FeatureCollection","features":[{"type":"Feature","geometry":{"type":"GeometryCollection","geometries":[{"type":"Polygon","coordinates":[[[-84.90279,10.940832],[-85.61446,11.21361],[-85.692383,11.076061],[-85.91139,10.891109],[-85.759343,10.739081],[-85.910768,10.36203],[-85.706318,9.926303],[-85.113984,9.529768],[-84.834617,9.854236],[-84.683089,9.59779],[-83.725464,9.086126],[-83.774076,8.482575],[-83.280433,8.337769],[-82.950569,8.016037],[-82.860486,8.020574],[-82.943231,8.264907],[-82.93472,9.471666],[-82.76862,9.654999],[-83.645798,10.924847],[-83.65779,10.803888],[-83.91556,10.708611],[-84.67445,11.07805],[-84.90279,10.940832]]]}]},"properties":{"cca2":"cr"}}]}