{"type":"Feature","geometry":{"type":"Polygon","coordinates":[[[35.623634,33.245728],[35.585548,33.270271],[35.504715,33.094162],[35.349159,33.063049],[35.321938,33.088051],[35.10083,33.093605],[35.444147,33.9062925],[35.5581656,33.9238201],[35.6689389,34.4123908],[35.9733769,34.534215],[35.972771,34.647499],[36.459999,34.635277],[36.451385,34.593048],[36.364166,34.538055],[36.351227,34.500748],[36.429993,34.501938],[36.525833,34.431938],[36.623741,34.204994],[36.283333,33.91777],[36.391106,33.854439],[36.353333,33.826942],[36.240829,33.856384],[36.07,33.827217],[35.934998,33.646111],[36.059166,33.579437],[35.62056,33.271454],[35.623634,33.245728]]]},"properties":{"cca2":"lb"}}