{"type":"Feature","geometry":{"type":"Polygon","coordinates":[[[51.53453,24.3648822],[51.7919629,24.3741081],[51.8265386,24.0404504],[53.9863019,24.2631527],[56.0798724,26.0678436],[56.1787575,26.0213609],[56.1759626,25.6223478],[56.3783047,25.6209402],[56.396847,24.924732],[56.1041639,24.734722],[55.886233,24.920831],[55.804119,24.269604],[55.981214,24.130543],[55.528632,23.933604],[55.525841,23.5248688],[55.234489,23.110993],[55.199165,22.6997179],[52.5833281,22.93889],[51.583328,24.1166591],[51.53453,24.3648822]]]},"properties":{"cca2":"ae"}}