{"type":"Feature","geometry":{"type":"Polygon","coordinates":[[[42.355614,37.106926],[42.379166,37.068314],[41.835274,36.598885],[41.403046,36.525551],[41.003876,34.419434],[38.794701,33.377594],[36.837776,32.313606],[36.400276,32.381943],[36.197495,32.533333],[36.079994,32.543327],[35.933609,32.718887],[35.763321,32.748886],[35.648888,32.685272],[35.664993,32.796661],[35.639206,32.815315],[35.63916,32.867493],[35.614464,32.894905],[35.681938,33.249161],[35.623634,33.245728],[35.62056,33.271454],[36.059166,33.579437],[35.934998,33.646111],[36.07,33.827217],[36.240829,33.856384],[36.353333,33.826942],[36.391106,33.854439],[36.283333,33.91777],[36.623741,34.204994],[36.525833,34.431938],[36.429993,34.501938],[36.351227,34.500748],[36.364166,34.538055],[36.451385,34.593048],[36.459999,34.635277],[35.972771,34.647499],[35.8262926,34.885082],[35.8734645,35.4041559],[35.6719456,35.5823053],[35.8861205,35.9729888],[36.157776,35.817497],[36.213882,35.95472],[36.377747,36],[36.39222,36.213326],[36.692215,36.239159],[36.688599,36.289444],[36.549988,36.49221],[36.659943,36.83371],[37.127495,36.659157],[37.533333,36.677773],[38.229996,36.913322],[38.513611,36.858047],[38.774712,36.698044],[39.809998,36.751389],[40.806656,37.12249],[41.99527,37.172768],[42.180832,37.290543],[42.354439,37.227768],[42.355614,37.106926]]]},"properties":{"cca2":"sy"}}