{"type":"Feature","geometry":{"type":"GeometryCollection","geometries":[{"type":"Polygon","coordinates":[[[99.2609766,6.5383903],[99.1566298,6.5008148],[99.1409424,6.587509],[99.3439399,6.5941108],[99.3418253,6.4809674],[99.273966,6.4672581],[99.2609766,6.5383903]]]},{"type":"Polygon","coordinates":[[[99.7313003,6.4990966],[99.652771,6.493332],[99.5592049,6.5451642],[99.6370423,6.7536645],[99.6923269,6.7098304],[99.7313003,6.4990966]]]},{"type":"Polygon","coordinates":[[[99.3445988,7.2111514],[99.3754089,7.2905523],[99.4582067,7.2578652],[99.397766,7.2],[99.3445988,7.2111514]]]},{"type":"Polygon","coordinates":[[[99.1286582,7.6777711],[99.1359915,7.4486981],[99.0044575,7.4609443],[99.0221566,7.6924409],[99.1286582,7.6777711]]]},{"type":"Polygon","coordinates":[[[98.5651447,7.8889117],[98.5098114,8.1255874],[98.6190276,8.0661171],[98.6197666,7.8870066],[98.5651447,7.8889117]]]},{"type":"Polygon","coordinates":[[[98.4487404,7.8378557],[98.2690258,7.7303974],[98.2762913,8.2097243],[98.392084,8.1345889],[98.4671911,8.1345809],[98.4487404,7.8378557]]]},{"type":"Polygon","coordinates":[[[98.6179073,8.0771109],[98.560087,8.1174996],[98.6148016,8.2140161],[98.6758342,8.187945],[98.6179073,8.0771109]]]},{"type":"Polygon","coordinates":[[[97.8288291,9.4809979],[97.9206999,9.4740274],[97.9102531,9.3624799],[97.8205331,9.3673305],[97.8288291,9.4809979]]]},{"type":"Polygon","coordinates":[[[99.6839844,9.4930704],[99.6481536,9.5279557],[99.6860444,9.5629299],[99.7244089,9.5419994],[99.6839844,9.4930704]]]},{"type":"Polygon","coordinates":[[[99.9114628,9.4068034],[99.8928713,9.5962801],[100.080833,9.58861],[100.1012513,9.4090961],[99.9114628,9.4068034]]]},{"type":"Polygon","coordinates":[[[99.6429988,9.5936986],[99.6311104,9.7085559],[99.6976854,9.7155867],[99.7119515,9.5983874],[99.6429988,9.5936986]]]},{"type":"Polygon","coordinates":[[[98.4284206,9.7032838],[98.3688695,9.7024422],[98.3912812,9.7815402],[98.4241517,9.7792265],[98.4284206,9.7032838]]]},{"type":"Polygon","coordinates":[[[100.1031896,9.6661027],[99.948061,9.666645],[99.932108,9.7859277],[100.0722547,9.8241725],[100.1031896,9.6661027]]]},{"type":"Polygon","coordinates":[[[102.5057272,11.5681876],[102.5151275,11.7718025],[102.5724957,11.7783745],[102.6534197,11.5777539],[102.5930001,11.5448684],[102.5057272,11.5681876]]]},{"type":"Polygon","coordinates":[[[102.2788154,11.950394],[102.2398108,12.1665429],[102.3945289,12.1099796],[102.4568594,11.9519668],[102.2788154,11.950394]]]},{"type":"Polygon","coordinates":[[[100.6683517,12.9171019],[100.6568557,12.9453019],[100.6795894,12.9558761],[100.6927231,12.9202996],[100.6683517,12.9171019]]]},{"type":"Polygon","coordinates":[[[100.7977392,13.1197128],[100.7857497,13.1807257],[100.8175496,13.1838394],[100.8222619,13.1206605],[100.7977392,13.1197128]]]},{"type":"Polygon","coordinates":[[[98.3912529,9.7890232],[98.4772226,9.7832905],[98.4967543,9.8708839],[98.558126,9.9321277],[98.458894,9.9179923],[98.3912529,9.7890232]]]},{"type":"Polygon","coordinates":[[[99.8000767,10.1371339],[99.8789584,10.1384426],[99.8692089,10.0411473],[99.7898841,10.0428928],[99.8000767,10.1371339]]]},{"type":"Polygon","coordinates":[[[98.7386658,7.7981648],[98.8023646,7.7944627],[98.80414,7.7100239],[98.7455035,7.7122813],[98.7386658,7.7981648]]]},{"type":"Polygon","coordinates":[[[98.9194803,7.8672884],[98.973845,7.8759395],[99.0065318,7.8223734],[99.0112482,7.7760163],[98.9557518,7.7772539],[98.9194803,7.8672884]]]},{"type":"Polygon","coordinates":[[[99.273638,7.3969998],[99.3177387,7.396671],[99.3295099,7.356717],[99.279275,7.3429049],[99.273638,7.3969998]]]},{"type":"Polygon","coordinates":[[[99.5447725,7.1358295],[99.5752293,7.1368155],[99.6479157,7.0900309],[99.563409,7.056788],[99.5447725,7.1358295]]]},{"type":"Polygon","coordinates":[[[100.7622158,12.9531796],[100.8067938,12.9486066],[100.7959426,12.8811443],[100.7501915,12.8882916],[100.7622158,12.9531796]]]},{"type":"Polygon","coordinates":[[[100.7554494,12.7347242],[100.8141215,12.7298536],[100.8100644,12.6604376],[100.7548252,12.6598286],[100.7554494,12.7347242]]]}]},"properties":{"name":"Островной Таиланд","name_original":"Insular Thailand","country":"Таиланд","country_code":"th"}}
