{"type":"Feature","geometry":{"type":"Polygon","coordinates":[[[100.58046,20.157768],[100.40416,19.754444],[100.503601,19.526665],[101.086113,19.590275],[101.354713,19.04611],[100.910263,17.596386],[101.164993,17.462215],[102.042763,18.186108],[102.1436,18.208328],[102.683594,17.819996],[103.06942,18.123026],[103.305252,18.421108],[103.966087,18.331387],[104.809418,17.36138],[104.742203,16.558609],[105.05748,16.114998],[105.408867,16.019444],[105.429749,16.000465],[105.371368,15.97333],[105.401093,15.80722],[105.632477,15.67861],[105.599991,15.433054],[105.531662,15.394444],[105.469147,15.113331],[105.590553,15.000555],[105.512497,14.80583],[105.533867,14.55722],[105.146652,14.246386],[105.033051,14.24778],[104.970833,14.39333],[103.922211,14.339165],[103.722763,14.390276],[103.695824,14.439999],[102.945251,14.191387],[102.902481,14.03666],[102.558029,13.670277],[102.559143,13.655277],[102.597763,13.62472],[102.600273,13.60555],[102.538307,13.569164],[102.377197,13.573887],[102.345543,13.277498],[102.492477,12.976664],[102.501389,12.690832],[102.779427,12.45194],[102.787781,12.415852],[102.741364,12.36305],[102.720543,12.15361],[102.908859,11.763611],[102.9171932,11.6545208],[102.9073416,11.6478013],[102.6947224,12.0315965],[102.2603286,12.1832339],[101.7592075,12.5652191],[100.8395748,12.5544915],[100.8960811,13.4021076],[100.0976573,13.3737029],[100.0716155,12.1933737],[99.3613511,10.5009427],[99.3584438,9.3545834],[100.079242,9.3481362],[100.5953547,7.4422773],[101.039623,6.896056],[101.4021313,7.0432878],[102.09523,6.23614],[101.833862,5.743332],[101.582474,5.91611],[101.311897,5.807221],[101.1533063,5.6245637],[100.994659,5.779623],[101.0299348,5.9061565],[101.104141,5.93111],[101.115517,6.2488880000001],[100.857468,6.234444],[100.833588,6.419443],[100.748581,6.503611],[100.666641,6.4474980000001],[100.436897,6.5155550000001],[100.336906,6.5827770000001],[100.305527,6.6947210000001],[100.1814609,6.7073782],[100.171356,6.476665],[100.11786,6.4200825],[99.664623,6.8749539],[99.6667619,7.0918204],[99.585815,7.14028],[99.5274315,7.233888],[99.394989,7.29889],[99.342758,7.367498],[99.243042,7.66805],[99.0227836,7.6986305],[99.0109401,7.8236112],[98.9167171,7.9906187],[98.7464526,8.0207529],[98.6971203,8.2993039],[98.6523784,8.268431],[98.6174244,8.2835838],[98.6282226,8.3606126],[98.4798342,8.3148116],[98.467191,8.1345809],[98.392084,8.1345889],[98.2762913,8.2097243],[98.1921027,8.5635541],[98.2066747,9.2195988],[98.3762408,9.3300537],[98.4967543,9.8708839],[98.558126,9.9321277],[98.823883,10.516666],[98.7736,10.63028],[98.855545,10.767221],[98.897919,10.776527],[99.635818,11.733608],[99.661652,11.82694],[99.589432,11.872498],[99.42886,12.498886],[99.436234,12.574434],[99.305252,12.665276],[99.11415,13.050831],[99.120819,13.175831],[99.208603,13.20666],[99.173965,13.727781],[98.259995,14.816666],[98.205475,15.226778],[98.420258,15.28416],[98.425812,15.363609],[98.503601,15.38722],[98.558868,15.329998],[98.631653,16.046108],[98.704987,16.130276],[98.823883,16.10861],[98.913315,16.254166],[98.92804,16.38583],[98.86499,16.438606],[98.71582,16.276386],[98.689697,16.284996],[98.478043,16.740829],[98.54999,16.854717],[98.4236,17.053329],[98.37469,17.05055],[97.69026,17.853886],[97.750275,17.97749],[97.396103,18.488884],[97.7747,18.569996],[97.747757,18.86555],[97.67886,18.938885],[97.83638,19.101109],[97.834152,19.289997],[97.79248,19.401939],[97.86908,19.570175],[98.037491,19.648052],[98.045532,19.79833],[98.080826,19.80861],[98.242203,19.689995],[99.00333,19.786942],[99.068878,20.090832],[99.53387,20.147217],[99.522766,20.352776],[100.0983354,20.3704019],[100.105263,20.30944],[100.16304,20.28833],[100.25,20.37916],[100.32666,20.390831],[100.58046,20.157768]]]},"properties":{"name":"Материковый Таиланд","name_original":"Mainland Thailand","country":"Таиланд","country_code":"th"}}
