{"type":"FeatureCollection","features":[{"type":"Feature","geometry":{"type":"GeometryCollection","geometries":[{"type":"Polygon","coordinates":[[[3.162222,50.783607],[2.867503,50.713379],[2.541667,51.09111],[1.485256,50.958052],[1.356501,50.176949],[-0.419964,49.666222],[-2.023757,49.872383],[-2.929208,48.985811],[-4.916478,48.616996],[-4.695387,47.854427],[-1.681326,46.02183],[-1.78088,43.359924],[-1.326952,43.081531],[0.622198,42.679332],[0.791213,42.831483],[1.796841,42.605618],[1.74739,42.487624],[3.177655,42.436806],[3.256083,43.00879],[4.015177,43.367175],[6.312259,42.889381],[7.421279,43.723392],[7.407818,43.730202],[7.437115,43.75313],[7.455069,43.739749],[7.541664,43.759775],[7.493442,43.87048],[7.71419,44.065117],[6.878888,44.373604],[7.031666,44.831383],[6.61976,45.110138],[7.124999,45.254997],[6.820802,46.426888],[6.520656,46.457335],[6.219615,46.311878],[6.309276,46.245591],[6.084036,46.104856],[5.963293,46.199144],[6.171446,46.364764],[6.071111,46.426384],[7.14642,47.499054],[7.3825,47.432495],[7.585833,47.60833],[7.613104,47.958972],[8.22608,48.964417],[5.437778,49.599998],[3.162222,50.783607]]]}]},"properties":{"cca2":"fr"}}]}