{"type":"Feature","geometry":{"type":"Polygon","coordinates":[[[20.071423,42.560913],[20.10722,42.654442],[19.975277,42.707497],[20.039444,42.766106],[20.231941,42.761108],[20.382774,42.835548],[20.297497,42.926384],[19.641941,43.186104],[19.444164,43.373604],[19.254719,43.459999],[19.228809,43.513214],[19.287498,43.544167],[19.408607,43.584442],[19.480553,43.571388],[19.493889,43.588051],[19.51083,43.679718],[19.510277,43.69194],[19.50972,43.700272],[19.505554,43.718887],[19.500832,43.733887],[19.498333,43.740273],[19.492775,43.753609],[19.487499,43.763329],[19.475277,43.772774],[19.437496,43.800278],[19.366943,43.859444],[19.251221,43.962379],[19.237019,44.002831],[19.237019,44.011009],[19.239441,44.01416],[19.244335,44.01445],[19.30674,43.998528],[19.311108,43.996941],[19.351498,43.981743],[19.355274,43.979721],[19.359722,43.974159],[19.365833,43.969162],[19.374165,43.965553],[19.428532,43.960655],[19.485275,43.958885],[19.514175,43.958076],[19.524502,43.958939],[19.532249,43.962379],[19.616173,44.016602],[19.619442,44.018883],[19.621765,44.021767],[19.620476,44.048454],[19.61972,44.052216],[19.617031,44.054909],[19.596943,44.060272],[19.485832,44.120277],[19.357952,44.209412],[19.239998,44.264999],[19.234867,44.265358],[19.165833,44.284439],[19.161705,44.286011],[19.158054,44.28833],[19.130276,44.313889],[19.127705,44.316574],[19.104443,44.355827],[19.105553,44.376663],[19.123402,44.514542],[19.128136,44.521423],[19.135883,44.524864],[19.193981,44.560158],[19.31361,44.70472],[19.336109,44.747215],[19.344612,44.766304],[19.345833,44.769165],[19.382774,44.863052],[19.381622,44.866577],[19.371387,44.88916],[19.310276,44.908607],[19.299442,44.910271],[19.039719,44.861382],[19.163609,45.212219],[19.41111,45.174995],[19.418331,45.234718],[18.988609,45.370827],[18.955276,45.784721],[18.8265502,45.8902326],[19.660275,46.181389],[20.2375128,46.1641133],[20.796108,45.649437],[20.808331,45.478882],[21.516109,45.139717],[21.366943,45.008331],[21.551388,44.928055],[21.548611,44.889442],[21.366108,44.864441],[21.400398,44.780823],[21.594997,44.758888],[21.655552,44.656944],[22.003887,44.628609],[22.106667,44.490273],[22.187222,44.493889],[22.320553,44.668327],[22.479164,44.710274],[22.765781,44.555199],[22.686817,44.523979],[22.609444,44.552216],[22.459999,44.482216],[22.549721,44.323051],[22.691666,44.26416],[22.681435,44.224701],[22.650276,44.211937],[22.619164,44.169998],[22.614719,44.117493],[22.416943,44.006943],[22.367222,43.826942],[22.536388,43.480827],[23.004997,43.192772],[22.745552,42.893608],[22.44083,42.818604],[22.440277,42.81472],[22.44722,42.599442],[22.558052,42.479164],[22.519444,42.399162],[22.365276,42.323883],[22.324444,42.361382],[20.807777,42.089996],[20.744164,41.874161],[20.589642,41.882187],[20.583054,41.922218],[20.623333,41.966942],[20.508888,42.23027],[20.25222,42.32444],[20.071423,42.560913]]]},"properties":{"cca2":"rs"}}