{"type":"FeatureCollection","features":[{"type":"Feature","geometry":{"type":"GeometryCollection","geometries":[{"type":"Polygon","coordinates":[[[-68.474713,11.530561],[-69.601241,11.638634],[-69.920962,12.268856],[-70.386884,12.092076],[-70.294058,11.466541],[-71.03778,11.099165],[-70.908796,11.789219],[-72.48946,11.124443],[-73.24057,9.414165],[-72.392227,8.375832],[-72.11334,7.138333],[-70.11917,6.975833],[-69.429459,6.11861],[-67.57745,6.32754],[-67.41446,5.987222],[-67.85084,5.29472],[-67.78029,4.351666],[-67.29056,3.3975],[-67.757166,2.958859],[-67.198534,2.355816],[-66.87826,1.23016],[-66.338058,0.765833],[-66.135284,0.7325],[-64.08223,1.6275],[-64.30806,3.718333],[-61.898223,4.18891],[-60.59251,4.924722],[-61.388771,5.938934],[-61.389725,5.94],[-59.631547,8.532294],[-62.83083,10.54444],[-61.822754,10.515558],[-61.866693,10.776718],[-64.609861,11.324555],[-64.785426,10.685091],[-67.921567,10.709406],[-68.474713,11.530561]]]}]},"properties":{"cca2":"ve"}}]}