{"type":"FeatureCollection","features":[{"type":"Feature","geometry":{"type":"Polygon","coordinates":[[[-57.887222,-30.521946],[-57.795837,-30.876945],[-57.991394,-31.406391],[-58.135284,-32.354172],[-58.137505,-33.09584],[-58.359169,-33.128616],[-58.438614,-33.554451],[-58.409447,-33.915558],[-57.878499,-34.506131],[-57.206336,-34.524467],[-56.258647,-34.978414],[-55.705328,-34.827303],[-54.867744,-35.042972],[-53.66077,-34.421666],[-53.246542,-33.798058],[-53.529724,-33.67334],[-53.511948,-33.121674],[-53.093056,-32.729729],[-55.581947,-30.845837],[-55.759445,-31.016945],[-56.840782,-30.081165],[-57.233894,-30.293335],[-57.608002,-30.184925],[-57.668892,-30.354725],[-57.887222,-30.521946]]]},"properties":{"cca2":"uy"}}]}