{"type":"FeatureCollection","features":[{"type":"Feature","geometry":{"type":"Polygon","coordinates":[[[7.697223,47.543327],[7.676944,47.603607],[7.585833,47.60833],[7.3825,47.432495],[7.14642,47.499054],[6.071111,46.426384],[6.171446,46.364764],[5.963293,46.199144],[6.084036,46.104856],[6.309276,46.245591],[6.219615,46.311878],[6.520656,46.457335],[6.820802,46.426888],[6.967556,45.864613],[7.855742,45.919052],[8.014721,46.013329],[8.30611,46.424721],[8.459999,46.452217],[8.444443,46.248604],[8.998333,45.829437],[9.085554,45.899162],[8.998055,45.976944],[9.297499,46.348885],[9.249722,46.448051],[9.360832,46.508606],[9.624722,46.291939],[9.91111,46.383331],[10.072777,46.220276],[10.176388,46.268326],[10.153889,46.390274],[10.049166,46.443054],[10.119165,46.611382],[10.457531,46.542503],[10.488913,46.934212],[10.357222,46.997215],[10.122776,46.849716],[9.879444,46.939156],[9.875555,47.022491],[9.485277,47.061104],[9.502222,47.231384],[9.673332,47.398605],[9.607064,47.529514],[9.0425,47.688889],[8.917776,47.650551],[8.720222,47.696625],[8.736944,47.75444],[8.559721,47.806389],[8.406666,47.703888],[8.475555,47.646942],[8.580555,47.66861],[8.594721,47.601662],[7.697223,47.543327]]]},"properties":{"cca2":"ch"}}]}