{"type":"FeatureCollection","features":[{"type":"Feature","geometry":{"type":"Polygon","coordinates":[[[18.851246,49.517357],[18.968609,49.481667],[18.978054,49.39666],[19.198055,49.418053],[19.264721,49.524162],[19.447777,49.60083],[19.475555,49.599998],[19.520981,49.574165],[19.658607,49.406662],[19.791664,49.404442],[19.765831,49.215828],[20.081387,49.175278],[20.143608,49.314995],[20.360554,49.393051],[20.740833,49.388885],[20.910831,49.296104],[20.984165,49.310555],[21.049442,49.408882],[21.618889,49.436386],[21.960278,49.339165],[22.047497,49.207771],[22.886074,49.002914],[22.658051,49.535828],[23.693886,50.365829],[24.004997,50.417213],[24.111385,50.56694],[23.558052,51.752495],[23.638607,52.079437],[23.1654,52.282276],[23.937775,52.719437],[23.48444,54.138329],[22.870274,54.408043],[22.792236,54.363869],[19.797007,54.43755],[18.238537,54.89076],[14.142713,54.057774],[14.412777,53.304443],[14.146111,52.957497],[15.036388,51.285553],[14.828333,50.865829],[15.005278,50.867218],[15.010555,50.984161],[15.176943,51.014717],[15.37972,50.779442],[16.369999,50.644165],[16.448055,50.572777],[16.20583,50.423882],[16.703888,50.098328],[17.00222,50.216942],[16.887497,50.437492],[17.762775,50.234718],[17.597775,50.158333],[17.933052,49.979721],[18.053162,50.055931],[18.579441,49.912498],[18.57935,49.814995],[18.634163,49.737778],[18.809998,49.674438],[18.851246,49.517357]]]},"properties":{"cca2":"pl"}}]}